{
"type": "FeatureCollection",
"name": "kyrkjetaket_20_wgs84",
"crs": { "type": "name", "properties": { "name": "urn:ogc:def:crs:OGC:1.3:CRS84" } },
"features": [
{ "type": "Feature", "properties": { "cat": 1 }, "geometry": { "type": "LineString", "coordinates": [ [ 7.906728684618837, 62.611580073912073 ], [ 7.907179464605908, 62.611332543855575 ], [ 7.908811664305546, 62.611054976866015 ], [ 7.910745121984381, 62.611153348053904 ], [ 7.911281256840615, 62.610549518264634 ], [ 7.912161357391911, 62.610143497477416 ], [ 7.912225392585383, 62.609876282228875 ], [ 7.916990814928079, 62.607954814434372 ], [ 7.917076129047222, 62.607598523579874 ], [ 7.919007971308863, 62.606885295710768 ], [ 7.920747877022379, 62.606973701027201 ], [ 7.922250330344131, 62.606418929780453 ], [ 7.922528894170952, 62.606072453995608 ], [ 7.922848535615878, 62.604736346451318 ], [ 7.92198854237017, 62.604241882008168 ], [ 7.922093576540219, 62.602985030192769 ], [ 7.921082973773254, 62.60230259411388 ], [ 7.921360009979473, 62.601144637312927 ], [ 7.92120934410126, 62.600956669713881 ], [ 7.919317690574451, 62.599868823143176 ], [ 7.918737861048941, 62.599839353040053 ], [ 7.913902097155689, 62.597159234665178 ], [ 7.913364986881905, 62.596951598573845 ], [ 7.91278522171092, 62.59692210458882 ], [ 7.910271716447753, 62.595982790551332 ], [ 7.905952982830154, 62.5935991330878 ], [ 7.902668087230174, 62.59343179996327 ], [ 7.902496218368949, 62.593332884361999 ], [ 7.881435315859342, 62.592258133598968 ], [ 7.881263526048316, 62.592159192900517 ], [ 7.879911055058564, 62.592090062703882 ], [ 7.879567488861612, 62.591892177520968 ], [ 7.879181072748408, 62.591872422730901 ], [ 7.877806864947525, 62.591080870495766 ], [ 7.865442222988309, 62.590448039054834 ], [ 7.865098773941349, 62.590250119812303 ], [ 7.864519200287127, 62.590220427762944 ], [ 7.861256702204744, 62.588340142833282 ], [ 7.860097640347826, 62.588280725543292 ], [ 7.858895800983294, 62.58758796156642 ], [ 7.857565091914268, 62.587429556692371 ], [ 7.856942603002695, 62.587577956836491 ], [ 7.855590412077174, 62.587508594534782 ], [ 7.854195232047671, 62.587617340777612 ], [ 7.853250886232799, 62.587478718041112 ], [ 7.85243520685603, 62.587617184569183 ], [ 7.851855700536798, 62.587587440793115 ], [ 7.851211674005778, 62.58782487522496 ], [ 7.850031146815983, 62.587854435005468 ], [ 7.848571387270333, 62.58823030419822 ], [ 7.847991873914482, 62.588200544264907 ], [ 7.846253873905079, 62.587299794353868 ], [ 7.846533121852461, 62.586953479798147 ], [ 7.846619203071556, 62.586597242594891 ], [ 7.84644756374205, 62.586498261056803 ], [ 7.846061245642747, 62.586478415811946 ], [ 7.844816762851638, 62.58596365431459 ], [ 7.843850989501346, 62.585914028195262 ], [ 7.843679363435292, 62.585815043429434 ], [ 7.842520444530479, 62.585755481951701 ], [ 7.841897920334561, 62.585903814434914 ], [ 7.839515468275958, 62.586051826144178 ], [ 7.837368470048754, 62.586843069325809 ], [ 7.836982155163772, 62.586823198964709 ], [ 7.835716268679435, 62.58639741563654 ], [ 7.834364194294094, 62.586327849042128 ], [ 7.834192598331997, 62.58622885300813 ], [ 7.833784736039116, 62.586298030802865 ], [ 7.833419990479356, 62.586189093912523 ] ] } }
]
}
