{
"type": "FeatureCollection",
"name": "kyrkjetaket_26_wgs84",
"crs": { "type": "name", "properties": { "name": "urn:ogc:def:crs:OGC:1.3:CRS84" } },
"features": [
{ "type": "Feature", "properties": { "cat": 1 }, "geometry": { "type": "LineString", "coordinates": [ [ 7.906728684618837, 62.611580073912073 ], [ 7.907179464605908, 62.611332543855575 ], [ 7.908596962543991, 62.611134209326316 ], [ 7.909241064406594, 62.610896510907899 ], [ 7.9092837735525, 62.610718368562971 ], [ 7.910163905835837, 62.61031236080585 ], [ 7.910270661125169, 62.609867003974109 ], [ 7.91501486970936, 62.60803467690846 ], [ 7.915465526369826, 62.607787118412944 ], [ 7.915550858156583, 62.60743082872888 ], [ 7.917268077334464, 62.606796868849464 ], [ 7.917676045147497, 62.606727448276395 ], [ 7.920189225456506, 62.606855161649854 ], [ 7.920618504658096, 62.606696659041909 ], [ 7.921005148255019, 62.606716302050614 ], [ 7.921863689570412, 62.606399290261209 ], [ 7.922289916719388, 62.604617815925096 ], [ 7.921773925061761, 62.604321135886615 ], [ 7.922093576540219, 62.602985030192769 ], [ 7.921082973773254, 62.60230259411388 ], [ 7.921338700371018, 62.601233710944527 ], [ 7.92120934410126, 62.600956669713881 ], [ 7.919317690574451, 62.599868823143176 ], [ 7.918931137412594, 62.599849176673658 ], [ 7.915492149288774, 62.597871203681642 ], [ 7.914547167301605, 62.597732987628426 ], [ 7.911431205152788, 62.596041796449676 ], [ 7.910851460147894, 62.596012294696834 ], [ 7.910507638865208, 62.595814482332564 ], [ 7.906664082609484, 62.595528662828904 ], [ 7.906148403385856, 62.595231929188905 ], [ 7.90324980359557, 62.595084288198734 ], [ 7.902540930106701, 62.594777696959831 ], [ 7.901961220934347, 62.59474815873002 ], [ 7.901445602956207, 62.594451408524939 ], [ 7.90067266800187, 62.594412017754649 ], [ 7.900500800479786, 62.594313099712494 ], [ 7.875188559350588, 62.593020671701034 ], [ 7.874973904712613, 62.593099853049694 ], [ 7.873041770907244, 62.593001004014063 ], [ 7.872827110893401, 62.593080181984767 ], [ 7.868361788020015, 62.592941784841472 ], [ 7.868147116408993, 62.59302095544961 ], [ 7.865613920476264, 62.592981387073507 ], [ 7.865399241505494, 62.593060553350931 ], [ 7.856297044858164, 62.592684172094714 ], [ 7.853119783047371, 62.592881831130292 ], [ 7.850221747524069, 62.592733095529667 ], [ 7.850007030820924, 62.592812237592675 ], [ 7.847667098520064, 62.592782261864059 ], [ 7.846658046702188, 62.592910770883371 ], [ 7.845885244200583, 62.592871078225429 ], [ 7.845155504239835, 62.592653263429895 ], [ 7.844382710971916, 62.592613562569468 ], [ 7.84356685073566, 62.592751974742136 ], [ 7.842600859675299, 62.592702336997625 ], [ 7.842429200044841, 62.592603350237489 ], [ 7.840518779740954, 62.592414994495144 ], [ 7.84017547905141, 62.592217015889489 ], [ 7.840068464406878, 62.591850852420826 ], [ 7.838930867361906, 62.591702200101672 ], [ 7.837643196802207, 62.591365488799923 ], [ 7.836741924959898, 62.591048638845471 ], [ 7.835883784382281, 62.590553669011165 ], [ 7.835755271789902, 62.590276560181955 ], [ 7.836421025663483, 62.589950142254892 ], [ 7.836249402490221, 62.589851148382692 ], [ 7.836250211453393, 62.589039696442818 ], [ 7.834898859787129, 62.588158681916696 ], [ 7.834942813939501, 62.587169116406749 ], [ 7.834084812188153, 62.586674137387256 ], [ 7.834127927084899, 62.586496023651669 ], [ 7.833419990479356, 62.586189093912523 ] ] } }
]
}
