{
"type": "FeatureCollection",
"name": "kyrkjetaket_11_wgs84",
"crs": { "type": "name", "properties": { "name": "urn:ogc:def:crs:OGC:1.3:CRS84" } },
"features": [
{ "type": "Feature", "properties": { "cat": 1 }, "geometry": { "type": "LineString", "coordinates": [ [ 7.906728684618837, 62.611580073912073 ], [ 7.906771410066542, 62.611401932556767 ], [ 7.906427444621581, 62.611204108206479 ], [ 7.904558108519832, 62.61083846661441 ], [ 7.902494512832204, 62.609651477697319 ], [ 7.902193345187456, 62.609275503820392 ], [ 7.901505528978547, 62.6088798332378 ], [ 7.901504584971715, 62.608068357621114 ], [ 7.899935726854817, 62.607267157259024 ], [ 7.89941902964226, 62.606158922118993 ], [ 7.898623541910431, 62.605397110583489 ], [ 7.898773208931346, 62.604773626178691 ], [ 7.90089858326908, 62.60407050388136 ], [ 7.900941329951984, 62.60389236459114 ], [ 7.902272057110761, 62.60323889274968 ], [ 7.902485735993564, 62.602348193321397 ], [ 7.905297485662657, 62.601229187408727 ], [ 7.905575123769649, 62.600071270101253 ], [ 7.905853816014123, 62.599724829345625 ], [ 7.90649768536149, 62.599487140443173 ], [ 7.907139313662723, 62.59762649256448 ], [ 7.905398936152305, 62.596726448227791 ], [ 7.904131614475401, 62.596301266965902 ], [ 7.90355187360657, 62.59627173492138 ], [ 7.902671085682365, 62.595866229220285 ], [ 7.902284598504042, 62.595846537501259 ], [ 7.90039396976009, 62.594758448084811 ], [ 7.898075153235704, 62.594640245274967 ], [ 7.897559576869993, 62.594343481262818 ], [ 7.888091398234809, 62.593860388946602 ], [ 7.886030162417074, 62.593484651282573 ], [ 7.874823573720962, 62.592911839905454 ], [ 7.874608918950574, 62.592991020690469 ], [ 7.873256429782333, 62.59292182569736 ], [ 7.872827110893401, 62.593080181984767 ], [ 7.868361788020015, 62.592941784841472 ], [ 7.868147116408993, 62.59302095544961 ], [ 7.865613920476264, 62.592981387073507 ], [ 7.865399241505494, 62.593060553350931 ], [ 7.856297044858164, 62.592684172094714 ], [ 7.853119783047371, 62.592881831130292 ], [ 7.848461421935549, 62.592732885065573 ], [ 7.846658046702188, 62.592910770883371 ], [ 7.845155504239835, 62.592653263429895 ], [ 7.84356685073566, 62.592751974742136 ], [ 7.842600859675299, 62.592702336997625 ], [ 7.842429200044841, 62.592603350237489 ], [ 7.840711974912512, 62.592424925423138 ], [ 7.84017547905141, 62.592217015889489 ], [ 7.840218567680567, 62.5920388999156 ], [ 7.839875273235754, 62.591840920655635 ], [ 7.838372847977091, 62.591583341704229 ], [ 7.835669046987062, 62.590632788710494 ], [ 7.835755271789902, 62.590276560181955 ], [ 7.836614203094061, 62.589960078619249 ], [ 7.836678861573291, 62.589692906650932 ], [ 7.833847669787646, 62.587653762550232 ], [ 7.833956330993115, 62.586397027325113 ], [ 7.833419990479356, 62.586189093912523 ] ] } }
]
}
