{
"type": "FeatureCollection",
"name": "kyrkjetaket_33_wgs84",
"crs": { "type": "name", "properties": { "name": "urn:ogc:def:crs:OGC:1.3:CRS84" } },
"features": [
{ "type": "Feature", "properties": { "cat": 1 }, "geometry": { "type": "LineString", "coordinates": [ [ 7.906728684618837, 62.611580073912073 ], [ 7.907179464605908, 62.611332543855575 ], [ 7.908382259641738, 62.611213441440775 ], [ 7.914608180701843, 62.608915569720011 ], [ 7.916990814928079, 62.607954814434372 ], [ 7.917076129047222, 62.607598523579874 ], [ 7.918793326730468, 62.60696454463455 ], [ 7.920146588692653, 62.607033308309447 ], [ 7.922078322048208, 62.606320036449716 ], [ 7.922524316955915, 62.603638004144372 ], [ 7.922265566240282, 62.603083923256577 ], [ 7.920910992479021, 62.60220369970444 ], [ 7.921166724178853, 62.601134816918453 ], [ 7.915492149288774, 62.597871203681642 ], [ 7.915105625295749, 62.597851547001603 ], [ 7.913214391859905, 62.596763623289078 ], [ 7.912118869967198, 62.596437416075347 ], [ 7.911152614723663, 62.596388249730225 ], [ 7.910422288960517, 62.596170768711055 ], [ 7.909842542712061, 62.596141262746954 ], [ 7.907779716065162, 62.59495436228179 ], [ 7.904902486087678, 62.594717684895826 ], [ 7.904193603500596, 62.594411101935172 ], [ 7.901874794892188, 62.594292962417732 ], [ 7.901702923930607, 62.594194045810767 ], [ 7.891461807207421, 62.593671792967584 ], [ 7.891118144467564, 62.593473934944406 ], [ 7.881650375453434, 62.592990410795906 ], [ 7.879567488861612, 62.591892177520968 ], [ 7.879181072748408, 62.591872422730901 ], [ 7.878837513966044, 62.591674535849599 ], [ 7.876733685899118, 62.591476795368365 ], [ 7.876561916503944, 62.591377849153702 ], [ 7.868039639413666, 62.591031881148155 ], [ 7.867824981125592, 62.591111051441771 ], [ 7.861642714095042, 62.590794330906576 ], [ 7.860354811076743, 62.590457826222298 ], [ 7.856877400645547, 62.590279519890132 ], [ 7.856705705747788, 62.590180550228681 ], [ 7.846466976593068, 62.589655025121722 ], [ 7.845952012450784, 62.589358078685322 ], [ 7.843247541069211, 62.589219126541821 ], [ 7.841809825209527, 62.588694410274726 ], [ 7.840071287739726, 62.588605038962172 ], [ 7.837132215256263, 62.587011249196202 ], [ 7.835651610646844, 62.58666458716705 ], [ 7.835136807350273, 62.586367602975614 ], [ 7.833419990479356, 62.586189093912523 ] ] } }
]
}
