{
"type": "FeatureCollection",
"name": "kyrkjetaket_04_wgs84",
"crs": { "type": "name", "properties": { "name": "urn:ogc:def:crs:OGC:1.3:CRS84" } },
"features": [
{ "type": "Feature", "properties": { "cat": 1 }, "geometry": { "type": "LineString", "coordinates": [ [ 7.906728684618837, 62.611580073912073 ], [ 7.906599426773719, 62.611303020479973 ], [ 7.904020824155949, 62.610630792203345 ], [ 7.90114025073867, 62.608771066395796 ], [ 7.901117940162604, 62.608048660542622 ], [ 7.899742410246609, 62.60725730675756 ], [ 7.8998065491644, 62.606990098608392 ], [ 7.899376269704057, 62.606337060761511 ], [ 7.899032411416318, 62.606139219618079 ], [ 7.89909655365426, 62.605872011838571 ], [ 7.898086396803674, 62.60518941518874 ], [ 7.898150544942924, 62.604922207922591 ], [ 7.897656179199823, 62.604536372864338 ], [ 7.896452806713484, 62.603843912080649 ], [ 7.895894316716062, 62.603725277585262 ], [ 7.894325836674151, 62.602924019212992 ], [ 7.891060057155435, 62.601044387627446 ], [ 7.89011509945353, 62.600906006351991 ], [ 7.888675969955974, 62.600381754401432 ], [ 7.886743305348556, 62.600283088057459 ], [ 7.885433281315744, 62.600035872421913 ], [ 7.881761299658873, 62.599848299183996 ], [ 7.88017235454127, 62.599947423622496 ], [ 7.876693684023975, 62.599769594501481 ], [ 7.874503507448642, 62.599928072485881 ], [ 7.860224285731318, 62.599106805789063 ], [ 7.859794808123044, 62.599265119786658 ], [ 7.858248830792419, 62.599185870756912 ], [ 7.85700335209271, 62.599482667548976 ], [ 7.855714839176395, 62.599957574724314 ], [ 7.855306832161239, 62.600026813515129 ], [ 7.85395408012596, 62.599957427718977 ], [ 7.853524557653475, 62.600115721794822 ], [ 7.850046070066159, 62.599937230446585 ], [ 7.849874344642936, 62.599838251960904 ], [ 7.846395917319884, 62.599659670381911 ], [ 7.845644474788763, 62.5995309149381 ], [ 7.845000134763571, 62.599768316396897 ], [ 7.840555543979786, 62.599539958975448 ], [ 7.837356699215109, 62.599014853352493 ], [ 7.835961753244256, 62.598311957351285 ], [ 7.835403623813547, 62.598193085572532 ], [ 7.835533006630921, 62.597658743639222 ], [ 7.835747796468117, 62.597579624865787 ], [ 7.835856440601487, 62.596322887962749 ], [ 7.834848080707149, 62.595639857990825 ], [ 7.834912770717739, 62.595372687276019 ], [ 7.834569475367752, 62.595174694941825 ], [ 7.83418305466243, 62.595154815381321 ], [ 7.833324843369736, 62.594659828838275 ], [ 7.833540508195339, 62.593769262453563 ], [ 7.834184803127611, 62.59353191332918 ], [ 7.835154177177153, 62.590335803679494 ], [ 7.836184739718257, 62.590118320093168 ], [ 7.83646413260081, 62.589772027689961 ], [ 7.836207104582181, 62.589217810942891 ], [ 7.833461347363124, 62.58763388232947 ], [ 7.833419990479356, 62.586189093912523 ] ] } }
]
}
