{
"type": "FeatureCollection",
"name": "kyrkjetaket_28_wgs84",
"crs": { "type": "name", "properties": { "name": "urn:ogc:def:crs:OGC:1.3:CRS84" } },
"features": [
{ "type": "Feature", "properties": { "cat": 1 }, "geometry": { "type": "LineString", "coordinates": [ [ 7.906728684618837, 62.611580073912073 ], [ 7.907179464605908, 62.611332543855575 ], [ 7.908811664305546, 62.611054976866015 ], [ 7.910165083156595, 62.611123839490766 ], [ 7.910422483393246, 62.610866461779914 ], [ 7.911946671019179, 62.610222735300717 ], [ 7.923924739249249, 62.605963032905954 ], [ 7.923967351429432, 62.605784884759942 ], [ 7.925533587178492, 62.604962854072376 ], [ 7.925833397561355, 62.6045272965669 ], [ 7.926283910883924, 62.604279701189867 ], [ 7.928194026987616, 62.603655414868854 ], [ 7.928449512750867, 62.602586515436961 ], [ 7.917744538159534, 62.596633376816683 ], [ 7.914845728806019, 62.596485974049791 ], [ 7.914329949744966, 62.596189269323538 ], [ 7.913943448581974, 62.596169609729827 ], [ 7.913255764836568, 62.595773998845921 ], [ 7.912697353311726, 62.595655432689981 ], [ 7.911322061060456, 62.594864196252601 ], [ 7.91018395575774, 62.5947161185154 ], [ 7.908636881541958, 62.593825950426577 ], [ 7.907284254193622, 62.593757083644654 ], [ 7.905995680152878, 62.593420991572579 ], [ 7.902152484063741, 62.593135052569977 ], [ 7.900777592404732, 62.592343717541802 ], [ 7.887832174417093, 62.591683311815629 ], [ 7.887424351533819, 62.591752647061341 ], [ 7.886737128601898, 62.591356911651118 ], [ 7.881134165134704, 62.591070651447424 ], [ 7.880704914199344, 62.591229032912217 ], [ 7.861771584841858, 62.590259957692616 ], [ 7.860483555655767, 62.59073491551343 ], [ 7.847153611384319, 62.590050950961121 ], [ 7.846402406109444, 62.589922202825633 ], [ 7.846059093005637, 62.589724238537215 ], [ 7.845479553743528, 62.58969446780781 ], [ 7.844964599062036, 62.589397517853051 ], [ 7.844020244253654, 62.589258832467877 ], [ 7.841617313832714, 62.587873027190334 ], [ 7.840716101625993, 62.58755620373654 ], [ 7.839343137428497, 62.58676428942568 ], [ 7.838184192576928, 62.586704691544625 ], [ 7.835974077757122, 62.586140180967398 ], [ 7.833849409821133, 62.586030860352984 ], [ 7.833419990479356, 62.586189093912523 ] ] } }
]
}
