{
"type": "FeatureCollection",
"name": "kyrkjetaket_23_wgs84",
"crs": { "type": "name", "properties": { "name": "urn:ogc:def:crs:OGC:1.3:CRS84" } },
"features": [
{ "type": "Feature", "properties": { "cat": 1 }, "geometry": { "type": "LineString", "coordinates": [ [ 7.906728684618837, 62.611580073912073 ], [ 7.907179464605908, 62.611332543855575 ], [ 7.908811664305546, 62.611054976866015 ], [ 7.910745121984381, 62.611153348053904 ], [ 7.911861285868067, 62.610579022054893 ], [ 7.914845494716087, 62.609558735714032 ], [ 7.915209517088399, 62.608855986959959 ], [ 7.917764129341434, 62.607994119857288 ], [ 7.918730775619804, 62.608043245650975 ], [ 7.921155839788768, 62.606904270208716 ], [ 7.922872912211324, 62.606270239353385 ], [ 7.923469526065025, 62.603776169192436 ], [ 7.922329491349884, 62.602816701880116 ], [ 7.922221428007486, 62.602450587584215 ], [ 7.922626256595115, 62.600758184742624 ], [ 7.922303608045536, 62.600471325799298 ], [ 7.908377307215206, 62.592460369739058 ], [ 7.908677229190836, 62.592024850593944 ], [ 7.906786595131778, 62.590936847760297 ], [ 7.905283588801566, 62.590679982091139 ], [ 7.904124324533003, 62.590620928105878 ], [ 7.903909762118798, 62.590700155241393 ], [ 7.902750500525764, 62.590641089869663 ], [ 7.902128156581909, 62.590789693702135 ], [ 7.90000284948769, 62.590681372746033 ], [ 7.899573701411345, 62.590839813687268 ], [ 7.89279006242644, 62.590583989180828 ], [ 7.890386039255284, 62.590821935973928 ], [ 7.889033602165187, 62.590752894725107 ], [ 7.887831575190992, 62.590871840709362 ], [ 7.886092735571415, 62.590783039231205 ], [ 7.88587812555893, 62.590862237971031 ], [ 7.88413929390242, 62.590773412238384 ], [ 7.882937249151918, 62.590892315786185 ], [ 7.878686815529653, 62.590675058871632 ], [ 7.878515043937721, 62.590576115033031 ], [ 7.875037481695656, 62.590398259597222 ], [ 7.874329017980605, 62.590091530507692 ], [ 7.868533254488673, 62.589794884933767 ], [ 7.867781955490496, 62.589666250728179 ], [ 7.867223850931507, 62.589547506655101 ], [ 7.863617840719805, 62.587469361262734 ], [ 7.863016851383958, 62.587528726316606 ], [ 7.858166088636152, 62.587370215241386 ], [ 7.856749432432568, 62.587568048733303 ], [ 7.855590412077174, 62.587508594534782 ], [ 7.854195232047671, 62.587617340777612 ], [ 7.853444054744054, 62.58748863096401 ], [ 7.853229385185924, 62.587567778632135 ], [ 7.852263541975018, 62.587518209844809 ], [ 7.85166253205584, 62.587577525669751 ], [ 7.851018504255907, 62.587814959191945 ], [ 7.849837977373614, 62.587844517340855 ], [ 7.848571387270333, 62.58823030419822 ], [ 7.847627050848927, 62.588091643494664 ], [ 7.846253873905079, 62.587299794353868 ], [ 7.846533121852461, 62.586953479798147 ], [ 7.846619203071556, 62.586597242594891 ], [ 7.84644756374205, 62.586498261056803 ], [ 7.846061245642747, 62.586478415811946 ], [ 7.845546338772459, 62.586181468654004 ], [ 7.844623607889197, 62.58595372962202 ], [ 7.843850989501346, 62.585914028195262 ], [ 7.842928280542075, 62.585686278240132 ], [ 7.841897920334561, 62.585903814434914 ], [ 7.840094929022649, 62.586081620596062 ], [ 7.839322314986306, 62.58604189412894 ], [ 7.837368470048754, 62.586843069325809 ], [ 7.836788997940805, 62.586813263385707 ], [ 7.836274180501504, 62.586516283201796 ], [ 7.835716268679435, 62.58639741563654 ], [ 7.833784736039116, 62.586298030802865 ], [ 7.833419990479356, 62.586189093912523 ] ] } }
]
}
