{
"type": "FeatureCollection",
"name": "kyrkjetaket_02_wgs84",
"crs": { "type": "name", "properties": { "name": "urn:ogc:def:crs:OGC:1.3:CRS84" } },
"features": [
{ "type": "Feature", "properties": { "cat": 1 }, "geometry": { "type": "LineString", "coordinates": [ [ 7.906728684618837, 62.611580073912073 ], [ 7.906599426773719, 62.611303020479973 ], [ 7.904020824155949, 62.610630792203345 ], [ 7.901290824525848, 62.608959054417618 ], [ 7.90128988653358, 62.608147578880939 ], [ 7.899742410246609, 62.60725730675756 ], [ 7.8998065491644, 62.606990098608392 ], [ 7.899333509184593, 62.606515199382926 ], [ 7.899268480953754, 62.605970932412461 ], [ 7.898258316837754, 62.605288336910093 ], [ 7.898365227553023, 62.60484299127986 ], [ 7.892005024045723, 62.601182762624141 ], [ 7.891425203316262, 62.601153179085308 ], [ 7.890737715792425, 62.600757459834703 ], [ 7.889964634966248, 62.600718007737562 ], [ 7.889620903763936, 62.600520145105413 ], [ 7.88730169241492, 62.60040175780594 ], [ 7.886571452609848, 62.600184153051309 ], [ 7.880773567562835, 62.599887987647271 ], [ 7.880558876400635, 62.599967177096687 ], [ 7.878433013383246, 62.599858519828885 ], [ 7.877810358062563, 62.600007010882806 ], [ 7.870831626662733, 62.599740212829232 ], [ 7.87061691101628, 62.599819386640476 ], [ 7.867331581411204, 62.599651215182064 ], [ 7.867159798515927, 62.599552257205268 ], [ 7.862693540806722, 62.599413665863864 ], [ 7.862350010501828, 62.599215738753912 ], [ 7.857712088327527, 62.598978025363451 ], [ 7.856101624138797, 62.599165936566045 ], [ 7.851077289368161, 62.598908182734107 ], [ 7.850905566161789, 62.5988092055481 ], [ 7.849746122618944, 62.598749697008103 ], [ 7.849123355493269, 62.59889805844584 ], [ 7.848350393254643, 62.59885837727979 ], [ 7.84792085826546, 62.599016653925759 ], [ 7.847169424705854, 62.598887906821098 ], [ 7.842338471451392, 62.598639762375086 ], [ 7.84126455626545, 62.599035404153909 ], [ 7.838172760345445, 62.598876480258916 ], [ 7.837743172761125, 62.599034724837097 ], [ 7.837356699215109, 62.599014853352493 ], [ 7.836669998422344, 62.598618878377266 ], [ 7.835403623813547, 62.598193085572532 ], [ 7.835533006630921, 62.597658743639222 ], [ 7.835747796468117, 62.597579624865787 ], [ 7.835899562640677, 62.596144773781518 ], [ 7.834376264941846, 62.595164755294427 ], [ 7.83321700546291, 62.59510511182976 ], [ 7.832873724688023, 62.594907115519085 ], [ 7.832896203017223, 62.594006608460731 ], [ 7.832038045717921, 62.593511614731909 ], [ 7.832295952080805, 62.593254388198012 ], [ 7.832210601114697, 62.592799163562134 ], [ 7.833112775305363, 62.592304592167565 ], [ 7.8344012963665, 62.591829893954603 ], [ 7.8345306620657, 62.591295552708246 ], [ 7.835454308453665, 62.590711908063561 ], [ 7.835368913693855, 62.590256684761151 ], [ 7.836184739718257, 62.590118320093168 ], [ 7.83646413260081, 62.589772027689961 ], [ 7.836207104582181, 62.589217810942891 ], [ 7.833461347363124, 62.58763388232947 ], [ 7.833419990479356, 62.586189093912523 ] ] } }
]
}
