{
"type": "FeatureCollection",
"name": "kyrkjetaket_06_wgs84",
"crs": { "type": "name", "properties": { "name": "urn:ogc:def:crs:OGC:1.3:CRS84" } },
"features": [
{ "type": "Feature", "properties": { "cat": 1 }, "geometry": { "type": "LineString", "coordinates": [ [ 7.906728684618837, 62.611580073912073 ], [ 7.906599426773719, 62.611303020479973 ], [ 7.904020824155949, 62.610630792203345 ], [ 7.901161627716708, 62.608681996766649 ], [ 7.901311262494512, 62.608058509214864 ], [ 7.900279603922903, 62.607464996427687 ], [ 7.899549093783718, 62.607247455990127 ], [ 7.899397649745817, 62.606247991442892 ], [ 7.899053792307615, 62.606050150363536 ], [ 7.89911793410961, 62.605782942568169 ], [ 7.898279699271456, 62.60519926779461 ], [ 7.898236073760732, 62.604565931493752 ], [ 7.892391571925734, 62.601202483653928 ], [ 7.891639875302923, 62.60107397264953 ], [ 7.891124257078092, 62.600777184288013 ], [ 7.889191556467144, 62.600678551386423 ], [ 7.887129837106143, 62.600302823453198 ], [ 7.881911707495321, 62.600036305882 ], [ 7.881697018162489, 62.600115497108227 ], [ 7.878411576386958, 62.599947585162326 ], [ 7.878196878705185, 62.600026770887119 ], [ 7.87471821390172, 62.599848892566108 ], [ 7.873494314431842, 62.600056773796787 ], [ 7.867503365445751, 62.599750172962665 ], [ 7.866966545861573, 62.599542362145698 ], [ 7.856316372274814, 62.599086785546575 ], [ 7.855113892159557, 62.599205443285747 ], [ 7.849724600736476, 62.598838756771457 ], [ 7.849509837490039, 62.598917897434063 ], [ 7.848350393254643, 62.59885837727979 ], [ 7.847018713559839, 62.599511321521319 ], [ 7.846438982381093, 62.599481552169692 ], [ 7.845408160321695, 62.599699108014214 ], [ 7.844763814731727, 62.599936508305248 ], [ 7.844505953228838, 62.600193758503771 ], [ 7.840812730928414, 62.600094169852127 ], [ 7.840597935460259, 62.600173296349936 ], [ 7.837892512432368, 62.60003422737411 ], [ 7.837677709902247, 62.600113349277692 ], [ 7.836325006192681, 62.600043793129849 ], [ 7.835981649094745, 62.599845803434015 ], [ 7.835015443714665, 62.599796110215983 ], [ 7.834672098332715, 62.599598117455223 ], [ 7.834779935129287, 62.59915283332893 ], [ 7.835510598482407, 62.598559252069215 ], [ 7.835382059497887, 62.598282142542665 ], [ 7.835533006630921, 62.597658743639222 ], [ 7.835747796468117, 62.597579624865787 ], [ 7.835705508850219, 62.596946287428317 ], [ 7.833152300960619, 62.595372281560415 ], [ 7.832745224147073, 62.594630004083257 ], [ 7.832896203017223, 62.594006608460731 ], [ 7.832038045717921, 62.593511614731909 ], [ 7.832295952080805, 62.593254388198012 ], [ 7.832210601114697, 62.592799163562134 ], [ 7.833305966620745, 62.592314533305249 ], [ 7.834229669618734, 62.591730897547855 ], [ 7.834315915694681, 62.591374670200821 ], [ 7.834745407298495, 62.591216434869338 ], [ 7.834939439522308, 62.590414922251554 ], [ 7.835583649072417, 62.590177565496489 ], [ 7.836184739718257, 62.590118320093168 ], [ 7.83646413260081, 62.589772027689961 ], [ 7.83567069798965, 62.589009885290359 ], [ 7.833782991512723, 62.587920932936782 ], [ 7.833763177818966, 62.586387087608777 ], [ 7.833419990479356, 62.586189093912523 ] ] } }
]
}
