{
"type": "FeatureCollection",
"name": "kyrkjetaket_27_wgs84",
"crs": { "type": "name", "properties": { "name": "urn:ogc:def:crs:OGC:1.3:CRS84" } },
"features": [
{ "type": "Feature", "properties": { "cat": 1 }, "geometry": { "type": "LineString", "coordinates": [ [ 7.906728684618837, 62.611580073912073 ], [ 7.906771410066542, 62.611401932556767 ], [ 7.906427444621581, 62.611204108206479 ], [ 7.904751450439708, 62.610848310782636 ], [ 7.902064138695557, 62.608998446875276 ], [ 7.902449826997196, 62.6082066655527 ], [ 7.903737985224032, 62.607731321887535 ], [ 7.903736978127422, 62.606919845430518 ], [ 7.902748048001443, 62.60614821049306 ], [ 7.902790787394239, 62.605970070539733 ], [ 7.903220143111468, 62.60581162251237 ], [ 7.903455183650719, 62.604831851455138 ], [ 7.903669851930879, 62.604752626454413 ], [ 7.905038022392567, 62.59986360206257 ], [ 7.905681901126285, 62.599625917053395 ], [ 7.905767320399507, 62.599269634520198 ], [ 7.905423497440458, 62.59907180960198 ], [ 7.905487562919904, 62.59880459783875 ], [ 7.907419087318135, 62.598091526153624 ], [ 7.907696605668594, 62.596933602987122 ], [ 7.904559770613875, 62.595331335702376 ], [ 7.89549898270579, 62.594779355197254 ], [ 7.895327130797648, 62.594680430989769 ], [ 7.869220549975924, 62.593436563150604 ], [ 7.86904879530726, 62.593337607881111 ], [ 7.867696306803791, 62.593268358963556 ], [ 7.86696638978114, 62.593050655929872 ], [ 7.861921488489115, 62.592882368182124 ], [ 7.861706800757624, 62.592961528655252 ], [ 7.856297044858164, 62.592684172094714 ], [ 7.855288029819047, 62.592812744069676 ], [ 7.854128808854271, 62.592753274993129 ], [ 7.85309863011712, 62.592159433421422 ], [ 7.850780255469557, 62.592040450139734 ], [ 7.85009352675087, 62.591644540886591 ], [ 7.846980915645887, 62.59157488170856 ], [ 7.845757734842219, 62.590971066284183 ], [ 7.844019049294399, 62.590881742187534 ], [ 7.843654209130993, 62.590772830788922 ], [ 7.842259485038731, 62.590070000792579 ], [ 7.841679943868906, 62.590040214242471 ], [ 7.836531189609021, 62.587070499571652 ], [ 7.836144872481285, 62.5870506268597 ], [ 7.835458455017353, 62.586654649766167 ], [ 7.834299524314489, 62.586595019782486 ], [ 7.833419990479356, 62.586189093912523 ] ] } }
]
}
