{
"type": "FeatureCollection",
"name": "kyrkjetaket_29_wgs84",
"crs": { "type": "name", "properties": { "name": "urn:ogc:def:crs:OGC:1.3:CRS84" } },
"features": [
{ "type": "Feature", "properties": { "cat": 1 }, "geometry": { "type": "LineString", "coordinates": [ [ 7.906728684618837, 62.611580073912073 ], [ 7.907179464605908, 62.611332543855575 ], [ 7.907974209353824, 62.611282833717567 ], [ 7.908811664305546, 62.611054976866015 ], [ 7.910745121984381, 62.611153348053904 ], [ 7.911217211320519, 62.610816732939625 ], [ 7.912484005645257, 62.610430379860894 ], [ 7.912870690978358, 62.610450045979178 ], [ 7.914566806673522, 62.609905194472638 ], [ 7.91622019581763, 62.609538466590188 ], [ 7.916800211335718, 62.609567949662924 ], [ 7.918732191385628, 62.608854727477038 ], [ 7.919312196724531, 62.608884199968202 ], [ 7.92253193902637, 62.607695420453176 ], [ 7.923305255983901, 62.607734695191084 ], [ 7.924142496869488, 62.607506743426477 ], [ 7.925495799201141, 62.607575455747615 ], [ 7.930238723312215, 62.605742593644457 ], [ 7.930685720922567, 62.603872011421416 ], [ 7.930341676353575, 62.603674244974208 ], [ 7.930873754459453, 62.601447359955223 ], [ 7.929669708832774, 62.60075517677231 ], [ 7.929754844851141, 62.600398875758579 ], [ 7.92827074555785, 62.599241687973013 ], [ 7.925691034414834, 62.597758382593263 ], [ 7.925304503340136, 62.597738754086031 ], [ 7.924595332995262, 62.597432270985443 ], [ 7.923242494810821, 62.597363556170578 ], [ 7.922210745543221, 62.596770204356005 ], [ 7.921459020703887, 62.596641853701144 ], [ 7.918536009705384, 62.594960636757691 ], [ 7.91724725011809, 62.594624646169329 ], [ 7.915012310182766, 62.593338951768473 ], [ 7.913744986825031, 62.59291385784644 ], [ 7.913057378533237, 62.592518246993919 ], [ 7.912284474305273, 62.592478921003448 ], [ 7.911382341662847, 62.592162542095124 ], [ 7.910007241387047, 62.591371295263286 ], [ 7.909255708918414, 62.59124288141777 ], [ 7.906357478190372, 62.591095310001045 ], [ 7.905648664299203, 62.590788735358693 ], [ 7.904875817435332, 62.590749369075496 ], [ 7.904703956014617, 62.59065045629454 ], [ 7.892124179390982, 62.590099211461975 ], [ 7.890879408043095, 62.59039632035374 ], [ 7.885469773988913, 62.590120097337788 ], [ 7.885255167284011, 62.590199295163757 ], [ 7.88042522261838, 62.58995248383394 ], [ 7.880253449121596, 62.589853542110994 ], [ 7.878128310140234, 62.589744889997355 ], [ 7.877956545644908, 62.589645945566495 ], [ 7.865399312376105, 62.589003239164917 ], [ 7.863317313677538, 62.587904775193714 ], [ 7.862759260831064, 62.587786013950343 ], [ 7.860441177919908, 62.587667195272928 ], [ 7.860269485414927, 62.587568230031955 ], [ 7.857565091914268, 62.587429556692371 ], [ 7.856749432432568, 62.587568048733303 ], [ 7.855590412077174, 62.587508594534782 ], [ 7.854195232047671, 62.587617340777612 ], [ 7.852649878821251, 62.587538038156765 ], [ 7.851855700536798, 62.587587440793115 ], [ 7.851211674005778, 62.58782487522496 ], [ 7.850031146815983, 62.587854435005468 ], [ 7.848571387270333, 62.58823030419822 ], [ 7.847991873914482, 62.588200544264907 ], [ 7.846253873905079, 62.587299794353868 ], [ 7.846318438499549, 62.587032616636243 ], [ 7.84563188241353, 62.586636687751792 ], [ 7.845696450766125, 62.586369510372855 ], [ 7.845353182087422, 62.586171544948876 ], [ 7.844623607889197, 62.58595372962202 ], [ 7.843486209918955, 62.585805117180584 ], [ 7.842778189468394, 62.585498233825348 ], [ 7.842306395868217, 62.585023158253371 ], [ 7.839216048691004, 62.584864277205668 ], [ 7.838786674207326, 62.585022527908919 ], [ 7.838400381752722, 62.585002661783768 ], [ 7.837370014554264, 62.585220164415851 ], [ 7.83584639369344, 62.585051620537854 ], [ 7.834816007255124, 62.585269104029173 ], [ 7.833291517344935, 62.58591198334728 ], [ 7.833419990479356, 62.586189093912523 ] ] } }
]
}
