{
"type": "FeatureCollection",
"name": "kyrkjetaket_24_wgs84",
"crs": { "type": "name", "properties": { "name": "urn:ogc:def:crs:OGC:1.3:CRS84" } },
"features": [
{ "type": "Feature", "properties": { "cat": 1 }, "geometry": { "type": "LineString", "coordinates": [ [ 7.906728684618837, 62.611580073912073 ], [ 7.907179464605908, 62.611332543855575 ], [ 7.908811664305546, 62.611054976866015 ], [ 7.910745121984381, 62.611153348053904 ], [ 7.911002517523289, 62.610895969209579 ], [ 7.911839939217506, 62.61066809373029 ], [ 7.911946671019179, 62.610222735300717 ], [ 7.91475884152079, 62.609103544372239 ], [ 7.915016183734603, 62.608846157401658 ], [ 7.916518837590376, 62.608291450599459 ], [ 7.917313488154725, 62.608241685986854 ], [ 7.917957458307196, 62.60800394554802 ], [ 7.91892410531033, 62.608053070011728 ], [ 7.920212002061842, 62.607577570703526 ], [ 7.920511918812947, 62.607142026076154 ], [ 7.922658282150016, 62.606349494420051 ], [ 7.923297528383814, 62.603677277506357 ], [ 7.922350799430118, 62.602727628077446 ], [ 7.922414722801932, 62.602460406637917 ], [ 7.922070750495144, 62.602262620760726 ], [ 7.922154461813824, 62.601094842445924 ], [ 7.921122609706909, 62.6005014812105 ], [ 7.921186538042019, 62.600234260396995 ], [ 7.913105176021624, 62.59558602352562 ], [ 7.909280598304886, 62.593588246609144 ], [ 7.905050887023272, 62.593282713715695 ], [ 7.904879010859841, 62.593183800952815 ], [ 7.885986253378719, 62.592039844282972 ], [ 7.884955445659948, 62.591446229627159 ], [ 7.883023377176258, 62.591347519793189 ], [ 7.882100184590453, 62.591120022600421 ], [ 7.867245350285324, 62.590269906918294 ], [ 7.865978867907045, 62.589844390344595 ], [ 7.862501665696803, 62.588043301045566 ], [ 7.860205044609001, 62.58783541588862 ], [ 7.859861660474397, 62.587637484625617 ], [ 7.859110456126902, 62.587508804977062 ], [ 7.857565091914268, 62.587429556692371 ], [ 7.856749432432568, 62.587568048733303 ], [ 7.855590412077174, 62.587508594534782 ], [ 7.854195232047671, 62.587617340777612 ], [ 7.853444054744054, 62.58748863096401 ], [ 7.851855700536798, 62.587587440793115 ], [ 7.851211674005778, 62.58782487522496 ], [ 7.850031146815983, 62.587854435005468 ], [ 7.848571387270333, 62.58823030419822 ], [ 7.847991873914482, 62.588200544264907 ], [ 7.846961973259007, 62.58760666112849 ], [ 7.846575640334707, 62.587586817107308 ], [ 7.846232352081246, 62.587388853582418 ], [ 7.846318438499549, 62.587032616636243 ], [ 7.846533121852461, 62.586953479798147 ], [ 7.846619203071556, 62.586597242594891 ], [ 7.84644756374205, 62.586498261056803 ], [ 7.846061245642747, 62.586478415811946 ], [ 7.845546338772459, 62.586181468654004 ], [ 7.843679363435292, 62.585815043429434 ], [ 7.842520444530479, 62.585755481951701 ], [ 7.841897920334561, 62.585903814434914 ], [ 7.839515468275958, 62.586051826144178 ], [ 7.837368470048754, 62.586843069325809 ], [ 7.836982155163772, 62.586823198964709 ], [ 7.835716268679435, 62.58639741563654 ], [ 7.833784736039116, 62.586298030802865 ], [ 7.833419990479356, 62.586189093912523 ] ] } }
]
}
