{
"type": "FeatureCollection",
"name": "kyrkjetaket_12_wgs84",
"crs": { "type": "name", "properties": { "name": "urn:ogc:def:crs:OGC:1.3:CRS84" } },
"features": [
{ "type": "Feature", "properties": { "cat": 1 }, "geometry": { "type": "LineString", "coordinates": [ [ 7.906728684618837, 62.611580073912073 ], [ 7.906599426773719, 62.611303020479973 ], [ 7.904386135939316, 62.610739551953046 ], [ 7.901484152850325, 62.608968902931032 ], [ 7.900989678796404, 62.60858307823613 ], [ 7.901117940162604, 62.608048660542622 ], [ 7.900279603922903, 62.607464996427687 ], [ 7.899892967989978, 62.607445296073394 ], [ 7.899549093783718, 62.607247455990127 ], [ 7.899354889516982, 62.606426130074865 ], [ 7.898839102521321, 62.606129367968713 ], [ 7.898967389109789, 62.605594952586081 ], [ 7.898451620020901, 62.605298189287346 ], [ 7.898407990821887, 62.60466485299083 ], [ 7.892606241790275, 62.601123275701966 ], [ 7.891725468071177, 62.600717701071432 ], [ 7.887108425748113, 62.600391890469496 ], [ 7.885605129338585, 62.600134808766882 ], [ 7.877294899434744, 62.59971017355565 ], [ 7.876242837765089, 62.600017025142733 ], [ 7.875083282909239, 62.599957725764128 ], [ 7.873687573183586, 62.600066659892818 ], [ 7.857862337920292, 62.599166055841337 ], [ 7.857647593172122, 62.599245209287538 ], [ 7.855328643128494, 62.599126293825854 ], [ 7.855113892159557, 62.599205443285747 ], [ 7.852794958076114, 62.599086485907407 ], [ 7.852580200887227, 62.599165631380856 ], [ 7.850068040546049, 62.599036713750749 ], [ 7.849896320071736, 62.598937735359122 ], [ 7.844270841778479, 62.598739040087672 ], [ 7.844056065250396, 62.598818172169999 ], [ 7.843691129143658, 62.598709259564671 ], [ 7.841951999142333, 62.59861990364314 ], [ 7.841092865886799, 62.598936415331771 ], [ 7.838215873212028, 62.598698365237858 ], [ 7.832937520822671, 62.595451396468498 ], [ 7.83302379606254, 62.59509517032226 ], [ 7.832745224147073, 62.594630004083257 ], [ 7.832896203017223, 62.594006608460731 ], [ 7.832402874314457, 62.593620556368705 ], [ 7.832189032202907, 62.592888219977091 ], [ 7.833778604421002, 62.591978187887527 ], [ 7.834122730053855, 62.591364730539951 ], [ 7.835454308453665, 62.590711908063561 ], [ 7.835540536118507, 62.590355679706946 ], [ 7.836421025663483, 62.589950142254892 ], [ 7.836249402490221, 62.589851148382692 ], [ 7.836378724081434, 62.589316804817258 ], [ 7.834534087504341, 62.588049747577465 ], [ 7.834835034698648, 62.587614401458929 ], [ 7.833633825423385, 62.586921428331848 ], [ 7.833720060939425, 62.586565201204564 ], [ 7.833376871909902, 62.586367207379176 ], [ 7.833419990479356, 62.586189093912523 ] ] } }
]
}
