{
"type": "FeatureCollection",
"name": "kyrkjetaket_13_wgs84",
"crs": { "type": "name", "properties": { "name": "urn:ogc:def:crs:OGC:1.3:CRS84" } },
"features": [
{ "type": "Feature", "properties": { "cat": 1 }, "geometry": { "type": "LineString", "coordinates": [ [ 7.906728684618837, 62.611580073912073 ], [ 7.906771410066542, 62.611401932556767 ], [ 7.906427444621581, 62.611204108206479 ], [ 7.90548208759161, 62.611065825681372 ], [ 7.904020824155949, 62.610630792203345 ], [ 7.901097496346676, 62.608949205638247 ], [ 7.901311262494512, 62.608058509214864 ], [ 7.899935726854817, 62.607267157259024 ], [ 7.899397649745817, 62.606247991442892 ], [ 7.898752702475692, 62.60567417010099 ], [ 7.897721176302582, 62.605080640170399 ], [ 7.897484265424677, 62.604437450484909 ], [ 7.891597078046334, 62.601252108406804 ], [ 7.890694913710163, 62.600935595250192 ], [ 7.888955474867267, 62.600846821376933 ], [ 7.888611749120106, 62.600648956331383 ], [ 7.887666816390813, 62.600510558804352 ], [ 7.886957982936909, 62.600203888904005 ], [ 7.885991658210546, 62.600154547278244 ], [ 7.88581980875716, 62.600055611390225 ], [ 7.880408477559557, 62.599779169061385 ], [ 7.879979093830033, 62.599937546486601 ], [ 7.879184617724005, 62.59998710076767 ], [ 7.877058759655378, 62.59987842261777 ], [ 7.876844059005434, 62.599957606219633 ], [ 7.868340784416422, 62.599522558604626 ], [ 7.868126063975914, 62.599601728515758 ], [ 7.866773293353113, 62.599532466820271 ], [ 7.866601513028155, 62.599433508190586 ], [ 7.865055503937206, 62.599354334190679 ], [ 7.864883730475754, 62.599255373538064 ], [ 7.86256474293773, 62.599136577899309 ], [ 7.862350010501828, 62.599215738753912 ], [ 7.857497344587139, 62.599057178592027 ], [ 7.856659859905477, 62.599284726939935 ], [ 7.855693628968455, 62.59923517664965 ], [ 7.853331307100462, 62.600105807868225 ], [ 7.849659574369607, 62.5999173927583 ], [ 7.849487850377983, 62.599818413816145 ], [ 7.846395917319884, 62.599659670381911 ], [ 7.845644474788763, 62.5995309149381 ], [ 7.845000134763571, 62.599768316396897 ], [ 7.839374544705683, 62.599569422083853 ], [ 7.839031172050816, 62.599371439684774 ], [ 7.83845145375051, 62.599341637302018 ], [ 7.837743172761125, 62.599034724837097 ], [ 7.837356699215109, 62.599014853352493 ], [ 7.835790085025786, 62.598212962302114 ], [ 7.835984147024903, 62.597411448652409 ], [ 7.835640821616673, 62.597213458547564 ], [ 7.835856440601487, 62.596322887962749 ], [ 7.836758666480171, 62.595828293686587 ], [ 7.83684489734841, 62.595472064572213 ], [ 7.836673241946503, 62.595373070784085 ], [ 7.83590039239967, 62.595333322142025 ], [ 7.835557090737651, 62.595135332153404 ], [ 7.834977459409961, 62.595105516512994 ], [ 7.833775954487888, 62.594412540594604 ], [ 7.834271925394845, 62.592364235008219 ], [ 7.834916183439447, 62.592126882000152 ], [ 7.835132619342422, 62.590424860701425 ], [ 7.835583649072417, 62.590177565496489 ], [ 7.835970006323153, 62.590197440310703 ], [ 7.836614203094061, 62.589960078619249 ], [ 7.836678861573291, 62.589692906650932 ], [ 7.836250211453393, 62.589039696442818 ], [ 7.834877303190295, 62.588247738916593 ], [ 7.835006640575227, 62.587713396836982 ], [ 7.834878146834185, 62.587436287454132 ], [ 7.834191738087094, 62.587040304242699 ], [ 7.834299524314489, 62.586595019782486 ], [ 7.833419990479356, 62.586189093912523 ] ] } }
]
}
