{
"type": "FeatureCollection",
"name": "kyrkjetaket_18_wgs84",
"crs": { "type": "name", "properties": { "name": "urn:ogc:def:crs:OGC:1.3:CRS84" } },
"features": [
{ "type": "Feature", "properties": { "cat": 1 }, "geometry": { "type": "LineString", "coordinates": [ [ 7.906728684618837, 62.611580073912073 ], [ 7.906599426773719, 62.611303020479973 ], [ 7.904020824155949, 62.610630792203345 ], [ 7.901097496346676, 62.608949205638247 ], [ 7.901117940162604, 62.608048660542622 ], [ 7.900279603922903, 62.607464996427687 ], [ 7.899699650241491, 62.607435445497288 ], [ 7.899355777466146, 62.607237604956744 ], [ 7.89941902964226, 62.606158922118993 ], [ 7.898644923349365, 62.605308041398665 ], [ 7.898709066794269, 62.605040833812453 ], [ 7.89913842975682, 62.604882398446826 ], [ 7.899525031730557, 62.6049021004347 ], [ 7.900383740577134, 62.604585223127245 ], [ 7.90044786641842, 62.604318014502859 ], [ 7.901091879645378, 62.60408035250768 ], [ 7.901134625188282, 62.603902213142831 ], [ 7.903066590435353, 62.603189207716746 ], [ 7.903109322523472, 62.603011067564353 ], [ 7.905319903567399, 62.601951594066819 ], [ 7.905577260601858, 62.601694224700658 ], [ 7.906025732041636, 62.599823741441249 ], [ 7.906476332749946, 62.599576211222953 ], [ 7.906732554512324, 62.598507361517846 ], [ 7.907397738737306, 62.598180597129542 ], [ 7.907525828046343, 62.597646171194988 ], [ 7.904947312927484, 62.596162498264221 ], [ 7.904367573735438, 62.596132969633487 ], [ 7.903121651465434, 62.595618709364352 ], [ 7.902176803600867, 62.595480411296101 ], [ 7.900114335303032, 62.594293402275405 ], [ 7.89837524919394, 62.594204750650555 ], [ 7.898203390673239, 62.594105829898304 ], [ 7.888928497773257, 62.593632646640174 ], [ 7.888756674702798, 62.593533714724977 ], [ 7.874845015024674, 62.592822775179229 ], [ 7.874201049442345, 62.593060316624623 ], [ 7.873406750776441, 62.593109840395599 ], [ 7.870315353221192, 62.59295163456509 ], [ 7.870100686561186, 62.593030808248137 ], [ 7.868361788020015, 62.592941784841472 ], [ 7.868147116408993, 62.59302095544961 ], [ 7.865613920476264, 62.592981387073507 ], [ 7.865399241505494, 62.593060553350931 ], [ 7.856297044858164, 62.592684172094714 ], [ 7.853119783047371, 62.592881831130292 ], [ 7.848461421935549, 62.592732885065573 ], [ 7.846658046702188, 62.592910770883371 ], [ 7.845155504239835, 62.592653263429895 ], [ 7.84356685073566, 62.592751974742136 ], [ 7.842600859675299, 62.592702336997625 ], [ 7.840347128826998, 62.592316005290236 ], [ 7.840068464406878, 62.591850852420826 ], [ 7.838179659261522, 62.591573407622924 ], [ 7.836741924959898, 62.591048638845471 ], [ 7.835712159681317, 62.590454674456936 ], [ 7.835755271789902, 62.590276560181955 ], [ 7.836421025663483, 62.589950142254892 ], [ 7.83567069798965, 62.589009885290359 ], [ 7.833461347363124, 62.58763388232947 ], [ 7.833182831099522, 62.587168717714107 ], [ 7.833333752754776, 62.58654532082442 ], [ 7.833162159101748, 62.586446323553581 ], [ 7.833419990479356, 62.586189093912523 ] ] } }
]
}
