{
"type": "FeatureCollection",
"name": "kyrkjetaket_03_wgs84",
"crs": { "type": "name", "properties": { "name": "urn:ogc:def:crs:OGC:1.3:CRS84" } },
"features": [
{ "type": "Feature", "properties": { "cat": 1 }, "geometry": { "type": "LineString", "coordinates": [ [ 7.906728684618837, 62.611580073912073 ], [ 7.906599426773719, 62.611303020479973 ], [ 7.903848854572227, 62.610531876919914 ], [ 7.901312201224285, 62.608869984761739 ], [ 7.901161627716708, 62.608681996766649 ], [ 7.901311262494512, 62.608058509214864 ], [ 7.899763790031189, 62.607168237379781 ], [ 7.89967737373222, 62.606713039868154 ], [ 7.899333509184593, 62.606515199382926 ], [ 7.89941902964226, 62.606158922118993 ], [ 7.898795464940054, 62.605496031683082 ], [ 7.898107779662084, 62.605100346105317 ], [ 7.898214691774265, 62.604655000608865 ], [ 7.897011301293495, 62.603962544401455 ], [ 7.89608760874442, 62.603735133088271 ], [ 7.891768953916068, 62.601351037531828 ], [ 7.891017256479883, 62.601222523160622 ], [ 7.890673512450888, 62.601024662949996 ], [ 7.889728557342972, 62.600886279090481 ], [ 7.889384825873742, 62.60068841587303 ], [ 7.888805018090321, 62.60065882161561 ], [ 7.887902902367225, 62.60034229105424 ], [ 7.880365615398139, 62.59995730049252 ], [ 7.88015092267241, 62.60003648929267 ], [ 7.877831796913642, 62.599917945666895 ], [ 7.876822617160139, 62.60004667124312 ], [ 7.870423655166888, 62.599809496328426 ], [ 7.870208937957263, 62.599888669490284 ], [ 7.862693540806722, 62.599413665863864 ], [ 7.862521775084675, 62.599314702406964 ], [ 7.849746122618944, 62.598749697008103 ], [ 7.849316596418537, 62.598907978072845 ], [ 7.848543633594927, 62.59886829797 ], [ 7.847211957578673, 62.59952124410691 ], [ 7.845859252519049, 62.599451780425888 ], [ 7.8442911665165, 62.600272890809229 ], [ 7.841950657737082, 62.600242811301641 ], [ 7.840941327771383, 62.600371275158082 ], [ 7.839395356785148, 62.600291817201942 ], [ 7.838493800223895, 62.5999749747034 ], [ 7.837292021104376, 62.599282025360317 ], [ 7.837356699215109, 62.599014853352493 ], [ 7.836669998422344, 62.598618878377266 ], [ 7.835403623813547, 62.598193085572532 ], [ 7.835533006630921, 62.597658743639222 ], [ 7.835747796468117, 62.597579624865787 ], [ 7.835856440601487, 62.596322887962749 ], [ 7.836758666480171, 62.595828293686587 ], [ 7.83684489734841, 62.595472064572213 ], [ 7.836673241946503, 62.595373070784085 ], [ 7.83590039239967, 62.595333322142025 ], [ 7.835557090737651, 62.595135332153404 ], [ 7.83302379606254, 62.59509517032226 ], [ 7.832745224147073, 62.594630004083257 ], [ 7.832896203017223, 62.594006608460731 ], [ 7.832038045717921, 62.593511614731909 ], [ 7.832295952080805, 62.593254388198012 ], [ 7.832189032202907, 62.592888219977091 ], [ 7.833327531661266, 62.592225476664559 ], [ 7.834616045892727, 62.591750776373623 ], [ 7.834788526595521, 62.591038320991764 ], [ 7.835454308453665, 62.590711908063561 ], [ 7.835540536118507, 62.590355679706946 ], [ 7.836399471975226, 62.590039199529336 ], [ 7.83646413260081, 62.589772027689961 ], [ 7.836207104582181, 62.589217810942891 ], [ 7.833461347363124, 62.58763388232947 ], [ 7.833419990479356, 62.586189093912523 ] ] } }
]
}
