{
"type": "FeatureCollection",
"name": "kyrkjetaket_25_wgs84",
"crs": { "type": "name", "properties": { "name": "urn:ogc:def:crs:OGC:1.3:CRS84" } },
"features": [
{ "type": "Feature", "properties": { "cat": 1 }, "geometry": { "type": "LineString", "coordinates": [ [ 7.906728684618837, 62.611580073912073 ], [ 7.906599426773719, 62.611303020479973 ], [ 7.904751450439708, 62.610848310782636 ], [ 7.90114025073867, 62.608771066395796 ], [ 7.901117940162604, 62.608048660542622 ], [ 7.900795428077251, 62.607761753706065 ], [ 7.900279603922903, 62.607464996427687 ], [ 7.899699650241491, 62.607435445497288 ], [ 7.899355777466146, 62.607237604956744 ], [ 7.899462680637141, 62.606792258388211 ], [ 7.89911881667078, 62.606594417381665 ], [ 7.899225720456633, 62.606149071001497 ], [ 7.898043630650867, 62.605367553339775 ], [ 7.898171927365361, 62.604833138823309 ], [ 7.897828094114974, 62.604635295047238 ], [ 7.897870860222633, 62.604457156960983 ], [ 7.892047818732186, 62.601004626706853 ], [ 7.891661273713104, 62.600984904762925 ], [ 7.891317527939053, 62.600787046115862 ], [ 7.889964634966248, 62.600718007737562 ], [ 7.889255772174924, 62.600411349120172 ], [ 7.887129837106143, 62.600302823453198 ], [ 7.886957982936909, 62.600203888904005 ], [ 7.877681415785087, 62.599729934930537 ], [ 7.876393211011221, 62.600205037323349 ], [ 7.867503365445751, 62.599750172962665 ], [ 7.867159798515927, 62.599552257205268 ], [ 7.865248754562873, 62.59936423187105 ], [ 7.865076980385883, 62.599265271446761 ], [ 7.858291823999207, 62.599007747910377 ], [ 7.856144348038546, 62.599799273717373 ], [ 7.855564599662255, 62.599769542070142 ], [ 7.855135088259285, 62.599927841256971 ], [ 7.854555338657351, 62.599898105397273 ], [ 7.853739319459305, 62.60003657493003 ], [ 7.84774863342516, 62.599729129007251 ], [ 7.847533858495589, 62.599808266467484 ], [ 7.845987894431631, 62.599728881691085 ], [ 7.844677662287065, 62.600292743377267 ], [ 7.8442911665165, 62.600272890809229 ], [ 7.843453550609524, 62.600500358054688 ], [ 7.839588602645891, 62.600301750376758 ], [ 7.838880287210174, 62.59999484321947 ], [ 7.837334342780335, 62.599915362776073 ], [ 7.835274235721919, 62.598727427313086 ], [ 7.835510598482407, 62.598559252069215 ], [ 7.835382059497887, 62.598282142542665 ], [ 7.83572707096842, 62.596857230377871 ], [ 7.835062004245803, 62.596372191407951 ], [ 7.835191383148351, 62.595837849735453 ], [ 7.834848080707149, 62.595639857990825 ], [ 7.834934333761629, 62.595283630360363 ], [ 7.83379752005172, 62.594323483888886 ], [ 7.834917880972072, 62.590503979230505 ], [ 7.835583649072417, 62.590177565496489 ], [ 7.835970006323153, 62.590197440310703 ], [ 7.83704366191735, 62.589801835760269 ], [ 7.837216070154041, 62.589089376383541 ], [ 7.836529592610466, 62.588693403747421 ], [ 7.836572696587034, 62.588515289107882 ], [ 7.835543019483223, 62.587921324667775 ], [ 7.835436074356937, 62.587555158587485 ], [ 7.833376871909902, 62.586367207379176 ], [ 7.833419990479356, 62.586189093912523 ] ] } }
]
}
