{
"type": "FeatureCollection",
"name": "kyrkjetaket_08_wgs84",
"crs": { "type": "name", "properties": { "name": "urn:ogc:def:crs:OGC:1.3:CRS84" } },
"features": [
{ "type": "Feature", "properties": { "cat": 1 }, "geometry": { "type": "LineString", "coordinates": [ [ 7.906728684618837, 62.611580073912073 ], [ 7.906599426773719, 62.611303020479973 ], [ 7.903848854572227, 62.610531876919914 ], [ 7.902322553938438, 62.609552560675873 ], [ 7.902193345187456, 62.609275503820392 ], [ 7.901183004549438, 62.608592927132243 ], [ 7.901311262494512, 62.608058509214864 ], [ 7.900279603922903, 62.607464996427687 ], [ 7.899892967989978, 62.607445296073394 ], [ 7.899549093783718, 62.607247455990127 ], [ 7.89941902964226, 62.606158922118993 ], [ 7.898967389109789, 62.605594952586081 ], [ 7.898451620020901, 62.605298189287346 ], [ 7.898365227553023, 62.60484299127986 ], [ 7.895292268930567, 62.602973304541536 ], [ 7.895356436109971, 62.602706098814615 ], [ 7.8946688601758, 62.602310397752497 ], [ 7.894733031141479, 62.602043192362629 ], [ 7.894389252560268, 62.601845340844818 ], [ 7.894624544247603, 62.600865588046801 ], [ 7.895483183887576, 62.600548739969355 ], [ 7.89586972645307, 62.600568451287025 ], [ 7.89651369166977, 62.600330809778477 ], [ 7.897114884213405, 62.60027130307914 ], [ 7.899068967266444, 62.600280756937259 ], [ 7.899712901378591, 62.600043100236014 ], [ 7.901452333928775, 62.600131739851477 ], [ 7.90293341691538, 62.599666246438808 ], [ 7.903018869259596, 62.59930996603574 ], [ 7.904092000267815, 62.59891383823534 ], [ 7.904156077277575, 62.598646627239198 ], [ 7.90458531741421, 62.598488173443634 ], [ 7.904756171616151, 62.59777560987434 ], [ 7.904412372254819, 62.597577782780036 ], [ 7.90436861648309, 62.596944446615716 ], [ 7.900608571278816, 62.594679226889909 ], [ 7.887103871737957, 62.593900125027723 ], [ 7.88465620470697, 62.593504632945177 ], [ 7.874995345738259, 62.593010788296603 ], [ 7.874780690676547, 62.593089969342081 ], [ 7.873041770907244, 62.593001004014063 ], [ 7.872827110893401, 62.593080181984767 ], [ 7.868361788020015, 62.592941784841472 ], [ 7.868147116408993, 62.59302095544961 ], [ 7.865613920476264, 62.592981387073507 ], [ 7.865399241505494, 62.593060553350931 ], [ 7.856297044858164, 62.592684172094714 ], [ 7.853119783047371, 62.592881831130292 ], [ 7.850221747524069, 62.592733095529667 ], [ 7.850007030820924, 62.592812237592675 ], [ 7.847667098520064, 62.592782261864059 ], [ 7.846658046702188, 62.592910770883371 ], [ 7.845885244200583, 62.592871078225429 ], [ 7.845155504239835, 62.592653263429895 ], [ 7.84356685073566, 62.592751974742136 ], [ 7.842600859675299, 62.592702336997625 ], [ 7.842429200044841, 62.592603350237489 ], [ 7.840518779740954, 62.592414994495144 ], [ 7.839875273235754, 62.591840920655635 ], [ 7.837643196802207, 62.591365488799923 ], [ 7.836741924959898, 62.591048638845471 ], [ 7.835712159681317, 62.590454674456936 ], [ 7.83646413260081, 62.589772027689961 ], [ 7.83567069798965, 62.589009885290359 ], [ 7.834104641757722, 62.588207982884917 ], [ 7.834190876370157, 62.587851755455311 ], [ 7.833847669787646, 62.587653762550232 ], [ 7.833612266178332, 62.587010485100294 ], [ 7.833784736039116, 62.586298030802865 ], [ 7.833419990479356, 62.586189093912523 ] ] } }
]
}
