{
"type": "FeatureCollection",
"name": "kyrkjetaket_21_wgs84",
"crs": { "type": "name", "properties": { "name": "urn:ogc:def:crs:OGC:1.3:CRS84" } },
"features": [
{ "type": "Feature", "properties": { "cat": 1 }, "geometry": { "type": "LineString", "coordinates": [ [ 7.906728684618837, 62.611580073912073 ], [ 7.906599426773719, 62.611303020479973 ], [ 7.904751450439708, 62.610848310782636 ], [ 7.900989678796404, 62.60858307823613 ], [ 7.901117940162604, 62.608048660542622 ], [ 7.899935726854817, 62.607267157259024 ], [ 7.89911793410961, 62.605782942568169 ], [ 7.898258316837754, 62.605288336910093 ], [ 7.898386609260113, 62.604753922137995 ], [ 7.895098982188549, 62.602963448007635 ], [ 7.894519122834691, 62.602933876810511 ], [ 7.891768953916068, 62.601351037531828 ], [ 7.890501642145852, 62.600925732550003 ], [ 7.889728557342972, 62.600886279090481 ], [ 7.888461295470977, 62.600460956241349 ], [ 7.882684757038334, 62.600075802196194 ], [ 7.882470069402079, 62.60015499463546 ], [ 7.878798096764164, 62.599967343496708 ], [ 7.878583399930488, 62.600046529828035 ], [ 7.877037318525486, 62.599967487683962 ], [ 7.876822617160139, 62.60004667124312 ], [ 7.860954297254403, 62.599324545394644 ], [ 7.860739559282924, 62.599403703694179 ], [ 7.856874607486752, 62.59920557505329 ], [ 7.856659859905477, 62.599284726939935 ], [ 7.851442256247241, 62.599017076427309 ], [ 7.851227496094875, 62.599096219777273 ], [ 7.848908590261243, 62.598977198155424 ], [ 7.848693823890181, 62.599056337518753 ], [ 7.842338471451392, 62.598639762375086 ], [ 7.841479341580544, 62.598956276490838 ], [ 7.838387552429224, 62.598797357450252 ], [ 7.837357494209393, 62.598203401237676 ], [ 7.837637741055667, 62.597045655176878 ], [ 7.836307557322961, 62.596075591606031 ], [ 7.836758666480171, 62.595828293686587 ], [ 7.83684489734841, 62.595472064572213 ], [ 7.836008191189868, 62.594888036542613 ], [ 7.836052132727843, 62.593898470530135 ], [ 7.835708846026823, 62.593700481118233 ], [ 7.836398665314249, 62.590850651499139 ], [ 7.835733715808816, 62.590365617322121 ], [ 7.836657308893269, 62.589781963979078 ], [ 7.836765070829501, 62.58933667728494 ], [ 7.835263634785045, 62.588267615338481 ], [ 7.835328300722471, 62.588000444096998 ], [ 7.8345349401849, 62.587238296239875 ], [ 7.834621166079468, 62.586882068424224 ], [ 7.833419990479356, 62.586189093912523 ] ] } }
]
}
