{
"type": "FeatureCollection",
"name": "kyrkjetaket_14_wgs84",
"crs": { "type": "name", "properties": { "name": "urn:ogc:def:crs:OGC:1.3:CRS84" } },
"features": [
{ "type": "Feature", "properties": { "cat": 1 }, "geometry": { "type": "LineString", "coordinates": [ [ 7.906728684618837, 62.611580073912073 ], [ 7.906599426773719, 62.611303020479973 ], [ 7.904558108519832, 62.61083846661441 ], [ 7.902171970758954, 62.609364573641741 ], [ 7.902214719470663, 62.609186433993798 ], [ 7.901376330447778, 62.608602775762378 ], [ 7.901504584971715, 62.608068357621114 ], [ 7.899570474138431, 62.607158386649672 ], [ 7.899204339990099, 62.606238140288092 ], [ 7.898043630650867, 62.605367553339775 ], [ 7.898257455601884, 62.604476862373346 ], [ 7.897225979723021, 62.603883329455428 ], [ 7.897311515826358, 62.603527053689952 ], [ 7.897955535691829, 62.603289406265482 ], [ 7.898921987454478, 62.603338666705639 ], [ 7.901089996527528, 62.602457401288419 ], [ 7.901347394462395, 62.602200040280827 ], [ 7.901774774149525, 62.600418644211537 ], [ 7.903062596449178, 62.599943302229335 ], [ 7.903233497740439, 62.599230741167133 ], [ 7.904092000267815, 62.59891383823534 ], [ 7.904584271365744, 62.597676696425467 ], [ 7.904283188930409, 62.597300728185026 ], [ 7.904347259812593, 62.597033517015952 ], [ 7.902628363995289, 62.596044369385837 ], [ 7.901662141441506, 62.59599513772158 ], [ 7.901318383098282, 62.595797303551578 ], [ 7.900352171321543, 62.595748062956005 ], [ 7.900008424683556, 62.595550225714575 ], [ 7.8976895483845, 62.595432015685709 ], [ 7.896980726102292, 62.595125396874025 ], [ 7.895069750743793, 62.594937781137709 ], [ 7.894554200180057, 62.594641006362728 ], [ 7.892235422275485, 62.594522706963687 ], [ 7.891526679295676, 62.594216061499353 ], [ 7.882638329935932, 62.59376218213697 ], [ 7.881328627214452, 62.59351493228526 ], [ 7.876111754232803, 62.593248214686547 ], [ 7.875897100283491, 62.5933273974657 ], [ 7.870315353221192, 62.59295163456509 ], [ 7.870100686561186, 62.593030808248137 ], [ 7.868361788020015, 62.592941784841472 ], [ 7.868147116408993, 62.59302095544961 ], [ 7.865613920476264, 62.592981387073507 ], [ 7.865399241505494, 62.593060553350931 ], [ 7.856297044858164, 62.592684172094714 ], [ 7.853119783047371, 62.592881831130292 ], [ 7.850221747524069, 62.592733095529667 ], [ 7.850007030820924, 62.592812237592675 ], [ 7.847667098520064, 62.592782261864059 ], [ 7.846658046702188, 62.592910770883371 ], [ 7.845885244200583, 62.592871078225429 ], [ 7.845155504239835, 62.592653263429895 ], [ 7.844382710971916, 62.592613562569468 ], [ 7.84356685073566, 62.592751974742136 ], [ 7.841463216219648, 62.592553704709466 ], [ 7.841291561305193, 62.59245471661287 ], [ 7.840518779740954, 62.592414994495144 ], [ 7.84017547905141, 62.592217015889489 ], [ 7.840068464406878, 62.591850852420826 ], [ 7.837814833178135, 62.59146448113583 ], [ 7.837299927465118, 62.591167503540653 ], [ 7.836741924959898, 62.591048638845471 ], [ 7.835712159681317, 62.590454674456936 ], [ 7.83646413260081, 62.589772027689961 ], [ 7.83567069798965, 62.589009885290359 ], [ 7.834104641757722, 62.588207982884917 ], [ 7.833461347363124, 62.58763388232947 ], [ 7.833526027733903, 62.58736671212052 ], [ 7.833182831099522, 62.587168717714107 ], [ 7.833247512687469, 62.586901547650648 ], [ 7.832925884220815, 62.586614496021063 ], [ 7.832990566586508, 62.586347326087051 ], [ 7.833419990479356, 62.586189093912523 ] ] } }
]
}
