{
"type": "FeatureCollection",
"name": "kyrkjetaket_31_wgs84",
"crs": { "type": "name", "properties": { "name": "urn:ogc:def:crs:OGC:1.3:CRS84" } },
"features": [
{ "type": "Feature", "properties": { "cat": 1 }, "geometry": { "type": "LineString", "coordinates": [ [ 7.906728684618837, 62.611580073912073 ], [ 7.906599426773719, 62.611303020479973 ], [ 7.904020824155949, 62.610630792203345 ], [ 7.901462776576804, 62.609057972618935 ], [ 7.90167653277364, 62.608167275502105 ], [ 7.899634614330654, 62.606891178596598 ], [ 7.89941902964226, 62.606158922118993 ], [ 7.898623541910431, 62.605397110583489 ], [ 7.898666304642983, 62.60521897220854 ], [ 7.898000010170152, 62.60473421703356 ], [ 7.891618476747336, 62.601163040530793 ], [ 7.891253329725844, 62.601054249567369 ], [ 7.888547526975014, 62.600916158213735 ], [ 7.887989125045602, 62.600797493252806 ], [ 7.886957982936909, 62.600203888904005 ], [ 7.881761299658873, 62.599848299183996 ], [ 7.880365615398139, 62.59995730049252 ], [ 7.877466717837948, 62.599809119527691 ], [ 7.876393211011221, 62.600205037323349 ], [ 7.876006689572819, 62.600185272309162 ], [ 7.87557727717024, 62.6003436357922 ], [ 7.869199729632348, 62.600017339514928 ], [ 7.869027938310539, 62.599918383725303 ], [ 7.867675150619595, 62.599849130547064 ], [ 7.867503365445751, 62.599750172962665 ], [ 7.863058558397075, 62.599522529841558 ], [ 7.862886790820231, 62.599423566809122 ], [ 7.855543392958313, 62.599047144019735 ], [ 7.854748908905, 62.599096558979696 ], [ 7.854319403287444, 62.5992548557332 ], [ 7.850068040546049, 62.599036713750749 ], [ 7.849896320071736, 62.598937735359122 ], [ 7.848543633594927, 62.59886829797 ], [ 7.848114099452249, 62.599026575222695 ], [ 7.845043794006918, 62.598778743730676 ], [ 7.844334851234099, 62.599283318713262 ], [ 7.843067694473722, 62.599669047838304 ], [ 7.840577093961726, 62.599450901010663 ], [ 7.839031921847097, 62.598559986946 ], [ 7.838258985492785, 62.598520250195392 ], [ 7.837057268782658, 62.597827299675913 ], [ 7.837121944987572, 62.597560127749851 ], [ 7.836606944429119, 62.597263146308308 ], [ 7.836650874599645, 62.596273579959103 ], [ 7.835814150731137, 62.595689550525186 ], [ 7.83590039239967, 62.595333322142025 ], [ 7.835557090737651, 62.595135332153404 ], [ 7.835621772988055, 62.594868161003497 ], [ 7.834978312550511, 62.594294065195307 ], [ 7.835107681485947, 62.593759723461424 ], [ 7.834936041567382, 62.593660727745231 ], [ 7.835453474730457, 62.591523359657216 ], [ 7.834981710399258, 62.591048259705047 ], [ 7.834939439522308, 62.590414922251554 ], [ 7.836399471975226, 62.590039199529336 ], [ 7.836786622777598, 62.589247619930056 ], [ 7.834062389782724, 62.587574645418286 ], [ 7.834127064593766, 62.587307474854597 ], [ 7.833462228649762, 62.586822431387937 ], [ 7.833419990479356, 62.586189093912523 ] ] } }
]
}
