{
"type": "FeatureCollection",
"name": "kyrkjetaket_34_wgs84",
"crs": { "type": "name", "properties": { "name": "urn:ogc:def:crs:OGC:1.3:CRS84" } },
"features": [
{ "type": "Feature", "properties": { "cat": 1 }, "geometry": { "type": "LineString", "coordinates": [ [ 7.906728684618837, 62.611580073912073 ], [ 7.906599426773719, 62.611303020479973 ], [ 7.904751450439708, 62.610848310782636 ], [ 7.904235533973295, 62.610551566894614 ], [ 7.901870809935183, 62.608988599159858 ], [ 7.901720232290821, 62.608800611712098 ], [ 7.901869856111605, 62.608177123413732 ], [ 7.901010124928139, 62.607682533185724 ], [ 7.900279603922903, 62.607464996427687 ], [ 7.896971828820617, 62.607386578344986 ], [ 7.895468869480747, 62.607941070437839 ], [ 7.895189973790075, 62.608287487673721 ], [ 7.8945458213934, 62.608525120531645 ], [ 7.89413777870152, 62.608594472437794 ], [ 7.892011235899272, 62.60848601298337 ], [ 7.890635935324201, 62.607694572499632 ], [ 7.890528251113205, 62.607328438813603 ], [ 7.88777790749872, 62.605745518512528 ], [ 7.885866317993219, 62.605557768356213 ], [ 7.88569443878791, 62.605458831913964 ], [ 7.882794971193289, 62.605310754007448 ], [ 7.882236512089134, 62.605192065242356 ], [ 7.881012049250247, 62.604588541857382 ], [ 7.880067030866708, 62.604450091680903 ], [ 7.87920777624747, 62.603955373531328 ], [ 7.871669716502188, 62.603569902541778 ], [ 7.871326078451648, 62.603371996088427 ], [ 7.866687417048793, 62.603134571199938 ], [ 7.866472665572749, 62.603213738143161 ], [ 7.863573538521432, 62.603065265270097 ], [ 7.863358779548644, 62.603144427316757 ], [ 7.856572757611241, 62.602886808411796 ], [ 7.855649425555987, 62.602659134207819 ], [ 7.85236388977857, 62.6024906073363 ], [ 7.850302547737113, 62.602114340126676 ], [ 7.841799150353573, 62.601677672472427 ], [ 7.840704272604575, 62.601350913129764 ], [ 7.839351503623442, 62.601281385451934 ], [ 7.838664724988826, 62.600885419242893 ], [ 7.838278226611976, 62.600865549974323 ], [ 7.837226540719865, 62.600360649349597 ], [ 7.834994737983177, 62.599073715893212 ], [ 7.834974032131832, 62.598351321564259 ], [ 7.834630703147178, 62.598153328924163 ], [ 7.835018876773015, 62.59655030525596 ], [ 7.83261580797265, 62.595164342979338 ], [ 7.832658947283562, 62.594986230035403 ], [ 7.832122464688903, 62.594778289697601 ], [ 7.832165606243101, 62.594600176936709 ], [ 7.83167227783875, 62.594214122264347 ], [ 7.831844847166663, 62.593501671738636 ], [ 7.831373111997594, 62.593026559976657 ], [ 7.831802643215448, 62.592868334251953 ], [ 7.832018337123479, 62.591977770614129 ], [ 7.832447849474952, 62.591819542643876 ], [ 7.832749776296884, 62.590572751446942 ], [ 7.83360874726906, 62.590256288942598 ], [ 7.833866610070974, 62.589999058906962 ], [ 7.835369747471308, 62.589445233165783 ], [ 7.833825237534494, 62.588554270406249 ], [ 7.83386835744292, 62.588376156820281 ], [ 7.83180916438459, 62.587188182585543 ], [ 7.831960114941474, 62.586564787577586 ], [ 7.833033687431508, 62.586169212770919 ], [ 7.833419990479356, 62.586189093912523 ] ] } }
]
}
