{
"type": "FeatureCollection",
"name": "kyrkjetaket_17_wgs84",
"crs": { "type": "name", "properties": { "name": "urn:ogc:def:crs:OGC:1.3:CRS84" } },
"features": [
{ "type": "Feature", "properties": { "cat": 1 }, "geometry": { "type": "LineString", "coordinates": [ [ 7.906728684618837, 62.611580073912073 ], [ 7.906771410066542, 62.611401932556767 ], [ 7.906427444621581, 62.611204108206479 ], [ 7.904751450439708, 62.610848310782636 ], [ 7.901484152850325, 62.608968902931032 ], [ 7.901504584971715, 62.608068357621114 ], [ 7.899957106069264, 62.607178087843927 ], [ 7.899634614330654, 62.606891178596598 ], [ 7.899698753215032, 62.606623970496003 ], [ 7.899053792307615, 62.606050150363536 ], [ 7.898967389109789, 62.605594952586081 ], [ 7.897935861192781, 62.605001424219438 ], [ 7.897656179199823, 62.604536372864338 ], [ 7.896624713648772, 62.603942835639394 ], [ 7.895507733095413, 62.603705565781496 ], [ 7.891361005067504, 62.601420382585388 ], [ 7.890458838342234, 62.601103867869618 ], [ 7.889879021103024, 62.601074277949635 ], [ 7.888268027931273, 62.600451090500115 ], [ 7.885776978500928, 62.600233744915478 ], [ 7.885433281315744, 62.600035872421913 ], [ 7.880988257585599, 62.599808797851914 ], [ 7.880773567562835, 62.599887987647271 ], [ 7.878433013383246, 62.599858519828885 ], [ 7.877574218681149, 62.600175260822894 ], [ 7.877059335873294, 62.601501356401158 ], [ 7.868255181525559, 62.604747593629121 ], [ 7.865935748585641, 62.604628848014769 ], [ 7.865291451690735, 62.604866343802598 ], [ 7.859492923171866, 62.604569284955076 ], [ 7.858977575906876, 62.604272381448737 ], [ 7.857066288616698, 62.604084240684585 ], [ 7.856894516056998, 62.603985270205648 ], [ 7.852835727118679, 62.603777112411578 ], [ 7.851633043502083, 62.603895737368532 ], [ 7.84776758494008, 62.603697349443316 ], [ 7.847144702933917, 62.603845700479965 ], [ 7.845405259370459, 62.603756383365543 ], [ 7.845190448543955, 62.603835516727237 ], [ 7.841325052387956, 62.603636951086457 ], [ 7.840981621016236, 62.60343897269361 ], [ 7.840230109112903, 62.603310187131598 ], [ 7.8395432731922, 62.602914224472144 ], [ 7.83915674770254, 62.602894357269527 ], [ 7.838641637021214, 62.602597381848412 ], [ 7.836108532974012, 62.601745815723604 ], [ 7.83570130429348, 62.601003544822014 ], [ 7.834714364000257, 62.600231454902101 ], [ 7.834585826257793, 62.599954344659878 ], [ 7.834779935129287, 62.59915283332893 ], [ 7.835553726707423, 62.598381138080406 ], [ 7.835425187982703, 62.598104028597021 ], [ 7.834738533915976, 62.597708044745893 ], [ 7.834674702466521, 62.597163764142834 ], [ 7.834031213677501, 62.59658966358127 ], [ 7.834075227324752, 62.595600099180018 ], [ 7.833388647558154, 62.59520410969143 ], [ 7.833088500953969, 62.594828000656371 ], [ 7.833692349690958, 62.592334414783529 ], [ 7.834572924252536, 62.591928890165555 ], [ 7.834917880972072, 62.590503979230505 ], [ 7.836421025663483, 62.589950142254892 ], [ 7.83567069798965, 62.589009885290359 ], [ 7.835112742473627, 62.588891014714612 ], [ 7.834104641757722, 62.588207982884917 ], [ 7.834105506469832, 62.587396531714518 ], [ 7.833762305543321, 62.587198538676148 ], [ 7.833956330993115, 62.586397027325113 ], [ 7.833419990479356, 62.586189093912523 ] ] } }
]
}
