{
"type": "FeatureCollection",
"name": "kyrkjetaket_10_wgs84",
"crs": { "type": "name", "properties": { "name": "urn:ogc:def:crs:OGC:1.3:CRS84" } },
"features": [
{ "type": "Feature", "properties": { "cat": 1 }, "geometry": { "type": "LineString", "coordinates": [ [ 7.906728684618837, 62.611580073912073 ], [ 7.906599426773719, 62.611303020479973 ], [ 7.904020824155949, 62.610630792203345 ], [ 7.901290824525848, 62.608959054417618 ], [ 7.901311262494512, 62.608058509214864 ], [ 7.899570474138431, 62.607158386649672 ], [ 7.899376269704057, 62.606337060761511 ], [ 7.898860483982701, 62.606040298751473 ], [ 7.898946008375009, 62.605684021829703 ], [ 7.898086396803674, 62.60518941518874 ], [ 7.898042775428442, 62.604556078883199 ], [ 7.896839392927572, 62.603863621299872 ], [ 7.895722413491263, 62.603626353176281 ], [ 7.894519122834691, 62.602933876810511 ], [ 7.894132550658988, 62.602914161349574 ], [ 7.891554280208081, 62.601430244142946 ], [ 7.890072293370651, 62.601084141522186 ], [ 7.889556691038555, 62.600787347579981 ], [ 7.887129837106143, 62.600302823453198 ], [ 7.882491494434198, 62.600065928516429 ], [ 7.882276806373794, 62.600145120652449 ], [ 7.877037318525486, 62.599967487683962 ], [ 7.876822617160139, 62.60004667124312 ], [ 7.869285587341482, 62.599661085315851 ], [ 7.869070868304424, 62.599740256700677 ], [ 7.865399054277817, 62.59955225490738 ], [ 7.865184326050151, 62.5996314201833 ], [ 7.863058558397075, 62.599522529841558 ], [ 7.862307041217623, 62.599393863175905 ], [ 7.861963513775053, 62.599195935152665 ], [ 7.855972889200627, 62.598888843368911 ], [ 7.85575814164902, 62.598967993867433 ], [ 7.854018950545663, 62.598878787612435 ], [ 7.85380419804418, 62.598957935034626 ], [ 7.849552882540238, 62.598739777987809 ], [ 7.849123355493269, 62.59889805844584 ], [ 7.848736874081459, 62.598878218394404 ], [ 7.847211957578673, 62.59952124410691 ], [ 7.845859252519049, 62.599451780425888 ], [ 7.8442911665165, 62.600272890809229 ], [ 7.843711423958307, 62.600243109963628 ], [ 7.842895348577498, 62.600381515275437 ], [ 7.836303442933065, 62.600132850256372 ], [ 7.835616731601194, 62.599736869952132 ], [ 7.834843770454211, 62.599697113933537 ], [ 7.834672098332715, 62.599598117455223 ], [ 7.834779935129287, 62.59915283332893 ], [ 7.835510598482407, 62.598559252069215 ], [ 7.835382059497887, 62.598282142542665 ], [ 7.835533006630921, 62.597658743639222 ], [ 7.835747796468117, 62.597579624865787 ], [ 7.835834879362179, 62.596411945045304 ], [ 7.834976604797898, 62.595916967808741 ], [ 7.834891207527361, 62.595461744186316 ], [ 7.83317477209132, 62.594471774360166 ], [ 7.833820850567721, 62.592611525352829 ], [ 7.834358173295124, 62.592008007660546 ], [ 7.834724700729311, 62.590494040477324 ], [ 7.835583649072417, 62.590177565496489 ], [ 7.836184739718257, 62.590118320093168 ], [ 7.83646413260081, 62.589772027689961 ], [ 7.83567069798965, 62.589009885290359 ], [ 7.833611388660743, 62.587821936093789 ], [ 7.833311307902007, 62.587445828428592 ], [ 7.833591583580269, 62.586288090858517 ], [ 7.833419990479356, 62.586189093912523 ] ] } }
]
}
