{
"type": "FeatureCollection",
"name": "kyrkjetaket_30_wgs84",
"crs": { "type": "name", "properties": { "name": "urn:ogc:def:crs:OGC:1.3:CRS84" } },
"features": [
{ "type": "Feature", "properties": { "cat": 1 }, "geometry": { "type": "LineString", "coordinates": [ [ 7.906728684618837, 62.611580073912073 ], [ 7.907179464605908, 62.611332543855575 ], [ 7.908382259641738, 62.611213441440775 ], [ 7.909026364926417, 62.610975744059864 ], [ 7.90909043057404, 62.610708530662201 ], [ 7.910163905835837, 62.61031236080585 ], [ 7.910313362224947, 62.609688861204539 ], [ 7.910549398464053, 62.609520554462826 ], [ 7.914885547272794, 62.607757630280688 ], [ 7.915357533926807, 62.607420999766397 ], [ 7.917933340426544, 62.60647005528898 ], [ 7.918534621103969, 62.60641045744422 ], [ 7.920467817541196, 62.606508690362467 ], [ 7.921326358239827, 62.606191681871664 ], [ 7.921795236174185, 62.604232062210485 ], [ 7.92112857763022, 62.603747412644672 ], [ 7.921192514766917, 62.603480191952308 ], [ 7.920504568600888, 62.60308461330245 ], [ 7.920611136102679, 62.602639246015727 ], [ 7.920439154537442, 62.602540351021055 ], [ 7.92088670743161, 62.60066980765292 ], [ 7.920564076877302, 62.600382944927382 ], [ 7.914051391325167, 62.596535728826218 ], [ 7.913170447994963, 62.596130287352089 ], [ 7.912590699076424, 62.596100792777307 ], [ 7.911022146203071, 62.59529972117538 ], [ 7.909905364352507, 62.595062569293646 ], [ 7.904555559581868, 62.592085427187349 ], [ 7.893735468932515, 62.591533821385696 ], [ 7.893520873022934, 62.591613032079614 ], [ 7.88944205128948, 62.591495026237673 ], [ 7.889270238396715, 62.591396095091994 ], [ 7.888497403294643, 62.59135663818325 ], [ 7.88834699377141, 62.591168638558223 ], [ 7.887939179150338, 62.591237975421791 ], [ 7.882722630212661, 62.59097150954787 ], [ 7.882550843185238, 62.590872570472605 ], [ 7.879867441991826, 62.590645257783365 ], [ 7.879695666534525, 62.590546315346941 ], [ 7.866773088465565, 62.589794907827518 ], [ 7.866429637612895, 62.589596991838413 ], [ 7.861213621300577, 62.589329728444 ], [ 7.861041916887412, 62.589230763993122 ], [ 7.854280597593499, 62.588884015168702 ], [ 7.853271705091461, 62.589012574219822 ], [ 7.848635465452281, 62.588774581802809 ], [ 7.84846380709959, 62.588675602488912 ], [ 7.847304764631556, 62.588616079104391 ], [ 7.846081695221559, 62.588012268032656 ], [ 7.844922684640547, 62.587952725278022 ], [ 7.843999904576574, 62.587724981448972 ], [ 7.841918805650442, 62.586626210203832 ], [ 7.840781397075922, 62.586477575549218 ], [ 7.840094929022649, 62.586081620596062 ], [ 7.838764398968355, 62.58592303870558 ], [ 7.837498523450834, 62.585497271710189 ], [ 7.836124934321101, 62.585516780166529 ], [ 7.835051425704748, 62.585912379651944 ], [ 7.834278824611874, 62.58587262540847 ], [ 7.833419990479356, 62.586189093912523 ] ] } }
]
}
