{
"type": "FeatureCollection",
"name": "kyrkjetaket_05_wgs84",
"crs": { "type": "name", "properties": { "name": "urn:ogc:def:crs:OGC:1.3:CRS84" } },
"features": [
{ "type": "Feature", "properties": { "cat": 1 }, "geometry": { "type": "LineString", "coordinates": [ [ 7.906728684618837, 62.611580073912073 ], [ 7.906599426773719, 62.611303020479973 ], [ 7.903848854572227, 62.610531876919914 ], [ 7.901484152850325, 62.608968902931032 ], [ 7.900989678796404, 62.60858307823613 ], [ 7.901117940162604, 62.608048660542622 ], [ 7.899462680637141, 62.606792258388211 ], [ 7.89941902964226, 62.606158922118993 ], [ 7.898451620020901, 62.605298189287346 ], [ 7.898558527886001, 62.604852843470532 ], [ 7.901993287808915, 62.603585325300408 ], [ 7.90229245029046, 62.602338346770772 ], [ 7.905125564269261, 62.601130274343745 ], [ 7.90527506773248, 62.600506780743736 ], [ 7.905725685299171, 62.600259253179267 ], [ 7.905832461257754, 62.599813899997748 ], [ 7.906476332749946, 62.599576211222953 ], [ 7.906732554512324, 62.598507361517846 ], [ 7.90720447805437, 62.598170757723608 ], [ 7.907332570782001, 62.597636332012662 ], [ 7.904904604332033, 62.59634063930347 ], [ 7.904131614475401, 62.596301266965902 ], [ 7.903615948245295, 62.596004524137498 ], [ 7.903036213809576, 62.595974990035934 ], [ 7.902520564266469, 62.595678243381627 ], [ 7.901575717584828, 62.595539941256561 ], [ 7.900372603180653, 62.594847517743418 ], [ 7.892063582944108, 62.594423778904108 ], [ 7.89171990769857, 62.594225922195747 ], [ 7.885923118849886, 62.593929985680475 ], [ 7.885579491054349, 62.593732114480183 ], [ 7.883454050331956, 62.593623539462762 ], [ 7.883282246006957, 62.593524601055655 ], [ 7.870315353221192, 62.59295163456509 ], [ 7.870100686561186, 62.593030808248137 ], [ 7.868361788020015, 62.592941784841472 ], [ 7.868147116408993, 62.59302095544961 ], [ 7.865613920476264, 62.592981387073507 ], [ 7.865399241505494, 62.593060553350931 ], [ 7.856297044858164, 62.592684172094714 ], [ 7.853119783047371, 62.592881831130292 ], [ 7.848461421935549, 62.592732885065573 ], [ 7.846658046702188, 62.592910770883371 ], [ 7.845155504239835, 62.592653263429895 ], [ 7.844575909069505, 62.592623488183165 ], [ 7.843760049386598, 62.592761901493873 ], [ 7.841463216219648, 62.592553704709466 ], [ 7.840347128826998, 62.592316005290236 ], [ 7.839875273235754, 62.591840920655635 ], [ 7.838372847977091, 62.591583341704229 ], [ 7.835669046987062, 62.590632788710494 ], [ 7.835755271789902, 62.590276560181955 ], [ 7.836399471975226, 62.590039199529336 ], [ 7.83646413260081, 62.589772027689961 ], [ 7.83567069798965, 62.589009885290359 ], [ 7.833611388660743, 62.587821936093789 ], [ 7.833354428847783, 62.587267715015173 ], [ 7.833419990479356, 62.586189093912523 ] ] } }
]
}
