{
"type": "FeatureCollection",
"name": "kyrkjetaket_16_wgs84",
"crs": { "type": "name", "properties": { "name": "urn:ogc:def:crs:OGC:1.3:CRS84" } },
"features": [
{ "type": "Feature", "properties": { "cat": 1 }, "geometry": { "type": "LineString", "coordinates": [ [ 7.906728684618837, 62.611580073912073 ], [ 7.906599426773719, 62.611303020479973 ], [ 7.904020824155949, 62.610630792203345 ], [ 7.901290824525848, 62.608959054417618 ], [ 7.900989678796404, 62.60858307823613 ], [ 7.901160692788933, 62.607870521269213 ], [ 7.900644863067261, 62.607573765266665 ], [ 7.899892967989978, 62.607445296073394 ], [ 7.899549093783718, 62.607247455990127 ], [ 7.899613234411896, 62.606980247952905 ], [ 7.89911881667078, 62.606594417381665 ], [ 7.899182959378249, 62.6063272095694 ], [ 7.898839102521321, 62.606129367968713 ], [ 7.89873132102553, 62.60576323930205 ], [ 7.897871710907445, 62.605268631357781 ], [ 7.897935861192781, 62.605001424219438 ], [ 7.897290968243697, 62.604427596847977 ], [ 7.895765190371613, 62.603448215880242 ], [ 7.891983626484383, 62.601271830574845 ], [ 7.891017256479883, 62.601222523160622 ], [ 7.889019693157178, 62.600579619254532 ], [ 7.887473548863243, 62.600500691962282 ], [ 7.886764717700626, 62.600194021110582 ], [ 7.88386575661858, 62.60004597230563 ], [ 7.882276806373794, 62.600145120652449 ], [ 7.87860483650273, 62.599957464462449 ], [ 7.878390139245004, 62.600036650490509 ], [ 7.877617097959769, 62.59999713048186 ], [ 7.87697299426163, 62.600234682850733 ], [ 7.867116857420832, 62.599730383491078 ], [ 7.864497231093289, 62.599235576923157 ], [ 7.857926830928791, 62.598898871788698 ], [ 7.856896108296234, 62.599116513900697 ], [ 7.850111082471587, 62.598858594089791 ], [ 7.849316596418537, 62.598907978072845 ], [ 7.848693823890181, 62.599056337518753 ], [ 7.848114099452249, 62.599026575222695 ], [ 7.847018713559839, 62.599511321521319 ], [ 7.845859252519049, 62.599451780425888 ], [ 7.844119458890073, 62.600173905479295 ], [ 7.841993750492012, 62.600064694839773 ], [ 7.841263866737135, 62.599846857723556 ], [ 7.839524679472867, 62.599757470750198 ], [ 7.83860158153733, 62.599529686867292 ], [ 7.837743172761125, 62.599034724837097 ], [ 7.836991786471202, 62.598905923533358 ], [ 7.835124988262114, 62.597727923225222 ], [ 7.835061149687078, 62.597183642701992 ], [ 7.834717833129041, 62.596985650445056 ], [ 7.834760963205524, 62.596807536725883 ], [ 7.833580964819227, 62.59602550146856 ], [ 7.833474021211319, 62.595659333912387 ], [ 7.832787448343262, 62.595263341557562 ], [ 7.832830586808694, 62.595085228549017 ], [ 7.832487308896953, 62.594887231326005 ], [ 7.833672552388864, 62.590800569685236 ], [ 7.835583649072417, 62.590177565496489 ], [ 7.835970006323153, 62.590197440310703 ], [ 7.836614203094061, 62.589960078619249 ], [ 7.836678861573291, 62.589692906650932 ], [ 7.836507238952568, 62.589593913103606 ], [ 7.836593449899405, 62.589237683866685 ], [ 7.834534087504341, 62.588049747577465 ], [ 7.834663429959975, 62.587515405885135 ], [ 7.833977022384136, 62.587119421632565 ], [ 7.834127927084899, 62.586496023651669 ], [ 7.833419990479356, 62.586189093912523 ] ] } }
]
}
