{
"type": "FeatureCollection",
"name": "kyrkjetaket_19_wgs84",
"crs": { "type": "name", "properties": { "name": "urn:ogc:def:crs:OGC:1.3:CRS84" } },
"features": [
{ "type": "Feature", "properties": { "cat": 1 }, "geometry": { "type": "LineString", "coordinates": [ [ 7.906728684618837, 62.611580073912073 ], [ 7.906771410066542, 62.611401932556767 ], [ 7.906427444621581, 62.611204108206479 ], [ 7.905847410243128, 62.611174581750518 ], [ 7.904944792504841, 62.610858154684834 ], [ 7.904558108519832, 62.61083846661441 ], [ 7.902171970758954, 62.609364573641741 ], [ 7.902214719470663, 62.609186433993798 ], [ 7.901526904961472, 62.608790763539325 ], [ 7.901504584971715, 62.608068357621114 ], [ 7.899957106069264, 62.607178087843927 ], [ 7.899462680637141, 62.606792258388211 ], [ 7.89873132102553, 62.60576323930205 ], [ 7.897871710907445, 62.605268631357781 ], [ 7.898000010170152, 62.60473421703356 ], [ 7.896624713648772, 62.603942835639394 ], [ 7.895701024833057, 62.603715421816339 ], [ 7.894497731204472, 62.603022945226236 ], [ 7.893939264789209, 62.602904303220235 ], [ 7.891210530189944, 62.60123238517523 ], [ 7.88951388182771, 62.600965482536566 ], [ 7.888633156210861, 62.600559889026691 ], [ 7.88730169241492, 62.60040175780594 ], [ 7.886957982936909, 62.600203888904005 ], [ 7.885798393701809, 62.600144678155488 ], [ 7.885626544963691, 62.600045742039001 ], [ 7.880988257585599, 62.599808797851914 ], [ 7.880365615398139, 62.59995730049252 ], [ 7.876886942258931, 62.599779476156797 ], [ 7.87667224190038, 62.599858659498111 ], [ 7.874932919215424, 62.599769712300287 ], [ 7.87471821390172, 62.599848892566108 ], [ 7.868147531456449, 62.599512665177492 ], [ 7.867932810592167, 62.599591834785322 ], [ 7.866773293353113, 62.599532466820271 ], [ 7.866601513028155, 62.599433508190586 ], [ 7.851893288606333, 62.598769728506802 ], [ 7.851678531447808, 62.598848872592136 ], [ 7.850132603215028, 62.598769534251282 ], [ 7.849509837490039, 62.598917897434063 ], [ 7.848543633594927, 62.59886829797 ], [ 7.847448260524533, 62.59935304781731 ], [ 7.847405201743789, 62.599531166426722 ], [ 7.846760875293233, 62.599768576205719 ], [ 7.845987894431631, 62.599728881691085 ], [ 7.844870910391864, 62.600302669262589 ], [ 7.838665487511237, 62.600073966683127 ], [ 7.837292021104376, 62.599282025360317 ], [ 7.837356699215109, 62.599014853352493 ], [ 7.835790085025786, 62.598212962302114 ], [ 7.835705508850219, 62.596946287428317 ], [ 7.834697132221875, 62.596263256138023 ], [ 7.834719558860281, 62.595362748084824 ], [ 7.833539616642898, 62.5945807132398 ], [ 7.83448840081689, 62.590662215249758 ], [ 7.835583649072417, 62.590177565496489 ], [ 7.835970006323153, 62.590197440310703 ], [ 7.836828933074767, 62.589880957362894 ], [ 7.837044449061087, 62.58899038351818 ], [ 7.836701210289307, 62.588792397200116 ], [ 7.836787415966423, 62.588436167770553 ], [ 7.835414519922828, 62.587644215700088 ], [ 7.835350685857553, 62.58709993535517 ], [ 7.83397788864437, 62.586307970481599 ], [ 7.833419990479356, 62.586189093912523 ] ] } }
]
}
