{
"type": "FeatureCollection",
"name": "kyrkjetaket_32_wgs84",
"crs": { "type": "name", "properties": { "name": "urn:ogc:def:crs:OGC:1.3:CRS84" } },
"features": [
{ "type": "Feature", "properties": { "cat": 1 }, "geometry": { "type": "LineString", "coordinates": [ [ 7.906728684618837, 62.611580073912073 ], [ 7.907802222617926, 62.611183923077213 ], [ 7.908143952693514, 62.609758788239709 ], [ 7.908573337012394, 62.609600324123136 ], [ 7.908658758000446, 62.609244039862524 ], [ 7.909324170077318, 62.608917269377528 ], [ 7.909452283456571, 62.608382842031091 ], [ 7.910761688725303, 62.607818360851645 ], [ 7.910868423697976, 62.607373003282326 ], [ 7.910524475319295, 62.607175189259628 ], [ 7.909171235157932, 62.607106332527962 ], [ 7.908655336163759, 62.606809605215666 ], [ 7.907302118135063, 62.606740730648596 ], [ 7.906571571633238, 62.606523226499021 ], [ 7.903970996193646, 62.605128596837609 ], [ 7.904270095442775, 62.603881613223997 ], [ 7.905128725155343, 62.603564705634639 ], [ 7.906047086228162, 62.59973467075185 ], [ 7.906476332749946, 62.599576211222953 ], [ 7.907160662512691, 62.597537421631472 ], [ 7.905269746754943, 62.596449394463427 ], [ 7.904711356650224, 62.596330796617835 ], [ 7.904195683987074, 62.596034055846488 ], [ 7.903615948245295, 62.596004524137498 ], [ 7.902928409222389, 62.59560886428131 ], [ 7.902541925171684, 62.595589173317684 ], [ 7.900759075773109, 62.594867214564829 ], [ 7.900179367102178, 62.594837668933984 ], [ 7.899491901078541, 62.594441993117862 ], [ 7.881715066471591, 62.593534681436857 ], [ 7.881285782016912, 62.593693064234095 ], [ 7.873170644307684, 62.59327808333024 ], [ 7.872827110893401, 62.593080181984767 ], [ 7.870315353221192, 62.59295163456509 ], [ 7.870100686561186, 62.593030808248137 ], [ 7.868361788020015, 62.592941784841472 ], [ 7.868147116408993, 62.59302095544961 ], [ 7.865613920476264, 62.592981387073507 ], [ 7.865399241505494, 62.593060553350931 ], [ 7.856297044858164, 62.592684172094714 ], [ 7.853119783047371, 62.592881831130292 ], [ 7.850221747524069, 62.592733095529667 ], [ 7.850007030820924, 62.592812237592675 ], [ 7.84865462253461, 62.592742805061505 ], [ 7.846078444606637, 62.592881001788506 ], [ 7.845155504239835, 62.592653263429895 ], [ 7.844382710971916, 62.592613562569468 ], [ 7.843867718714913, 62.592316608054283 ], [ 7.842000384166427, 62.591950155459038 ], [ 7.841485427425363, 62.591653192627632 ], [ 7.84142147784825, 62.591108913496733 ], [ 7.840219974726262, 62.590415993126733 ], [ 7.839598058986537, 62.589752860644353 ], [ 7.833419990479356, 62.586189093912523 ] ] } }
]
}
