{
"type": "FeatureCollection",
"name": "kyrkjetaket_35_wgs84",
"crs": { "type": "name", "properties": { "name": "urn:ogc:def:crs:OGC:1.3:CRS84" } },
"features": [
{ "type": "Feature", "properties": { "cat": 1 }, "geometry": { "type": "LineString", "coordinates": [ [ 7.906728684618837, 62.611580073912073 ], [ 7.907179464605908, 62.611332543855575 ], [ 7.908382259641738, 62.611213441440775 ], [ 7.91009985092054, 62.610579574841658 ], [ 7.910442648928921, 62.609965911586258 ], [ 7.911086710537464, 62.609728204102346 ], [ 7.911473385564442, 62.609747873955207 ], [ 7.912310770812009, 62.609519995157093 ], [ 7.916368169289364, 62.608103477746553 ], [ 7.916754827617222, 62.608123132734896 ], [ 7.91718414331396, 62.607964641189085 ], [ 7.91892410531033, 62.608053070011728 ], [ 7.921285217990883, 62.607181311773822 ], [ 7.922251845223191, 62.607230412911044 ], [ 7.923110388930306, 62.606913393481413 ], [ 7.923216934813363, 62.606468023923789 ], [ 7.92474062110311, 62.60582415090488 ], [ 7.925148559260469, 62.605754708077427 ], [ 7.927468378813522, 62.605872474148043 ], [ 7.928970653783799, 62.60531762811496 ], [ 7.929119683964569, 62.604694102638327 ], [ 7.928775640893893, 62.60449633234947 ], [ 7.928667492805067, 62.604130221914012 ], [ 7.929050695873546, 62.602526870948132 ], [ 7.926814658041927, 62.601241351030147 ], [ 7.926876885189509, 62.600162641993073 ], [ 7.926382214597896, 62.599776904670492 ], [ 7.926424800811134, 62.599598755417553 ], [ 7.925564890128376, 62.599104314120062 ], [ 7.925435502148301, 62.598827276379303 ], [ 7.925627153301669, 62.598025606110625 ], [ 7.923047679462317, 62.596542255015159 ], [ 7.922124003908455, 62.596315016366063 ], [ 7.919372918518506, 62.594732709130781 ], [ 7.917311197236399, 62.594357427375982 ], [ 7.915076273867959, 62.593071734221461 ], [ 7.914152769165762, 62.592844445072721 ], [ 7.913121357537554, 62.592251030549093 ], [ 7.913185335237896, 62.591983814056903 ], [ 7.907835728949398, 62.589006800425246 ], [ 7.905710522835027, 62.588898567833901 ], [ 7.905366816098802, 62.588700744333366 ], [ 7.9009232928761, 62.588474325401208 ], [ 7.89942046477912, 62.588217398934276 ], [ 7.89171425930156, 62.587734141915149 ], [ 7.891542459638797, 62.587635213746687 ], [ 7.888258325385438, 62.587467551445812 ], [ 7.887464195481595, 62.587517157582376 ], [ 7.886820445171827, 62.587754760227398 ], [ 7.886240892649518, 62.587725158762346 ], [ 7.884030241881398, 62.587972865939648 ], [ 7.872289137688134, 62.587192134792382 ], [ 7.872074518770344, 62.58727131216402 ], [ 7.870335949300334, 62.587182317839535 ], [ 7.869692074284373, 62.587419839694462 ], [ 7.869091096446587, 62.587479231089965 ], [ 7.866601292932306, 62.587261559872388 ], [ 7.866172023682476, 62.587419896345331 ], [ 7.865828603424193, 62.587221979289204 ], [ 7.865613967675081, 62.587301146486034 ], [ 7.865055916248522, 62.587182394455027 ], [ 7.863016851383958, 62.587528726316606 ], [ 7.858767083111126, 62.58731087116891 ], [ 7.856749432432568, 62.587568048733303 ], [ 7.85166253205584, 62.587577525669751 ], [ 7.851018504255907, 62.587814959191945 ], [ 7.849837977373614, 62.587844517340855 ], [ 7.848571387270333, 62.58823030419822 ], [ 7.847627050848927, 62.588091643494664 ], [ 7.846961973259007, 62.58760666112849 ], [ 7.846575640334707, 62.587586817107308 ], [ 7.846232352081246, 62.587388853582418 ], [ 7.844901727270011, 62.587230328981043 ], [ 7.844558454426616, 62.587032361543962 ], [ 7.843978969495572, 62.587002585316512 ], [ 7.843464075201716, 62.586705630639379 ], [ 7.841983407310461, 62.586359034999006 ], [ 7.834665124865539, 62.585892503061466 ], [ 7.83406411778538, 62.58595174305384 ], [ 7.833419990479356, 62.586189093912523 ] ] } }
]
}
