{
"type": "FeatureCollection",
"name": "kyrkjetaket_15_wgs84",
"crs": { "type": "name", "properties": { "name": "urn:ogc:def:crs:OGC:1.3:CRS84" } },
"features": [
{ "type": "Feature", "properties": { "cat": 1 }, "geometry": { "type": "LineString", "coordinates": [ [ 7.906728684618837, 62.611580073912073 ], [ 7.906771410066542, 62.611401932556767 ], [ 7.906427444621581, 62.611204108206479 ], [ 7.904751450439708, 62.610848310782636 ], [ 7.901505528978547, 62.6088798332378 ], [ 7.901183004549438, 62.608592927132243 ], [ 7.901311262494512, 62.608058509214864 ], [ 7.899634614330654, 62.606891178596598 ], [ 7.899698753215032, 62.606623970496003 ], [ 7.89911793410961, 62.605782942568169 ], [ 7.898258316837754, 62.605288336910093 ], [ 7.898343845700611, 62.604932060416488 ], [ 7.897828094114974, 62.604635295047238 ], [ 7.897870860222633, 62.604457156960983 ], [ 7.89565745464002, 62.603082085451327 ], [ 7.895700230915992, 62.602903948166542 ], [ 7.892584846083838, 62.601212343770008 ], [ 7.891446602441676, 62.601064111241385 ], [ 7.890393978868228, 62.600559599030674 ], [ 7.889620903763936, 62.600520145105413 ], [ 7.889449039872154, 62.600421213494677 ], [ 7.880752137548753, 62.599977053435019 ], [ 7.879936228807232, 62.600115677746849 ], [ 7.877617097959769, 62.59999713048186 ], [ 7.876994435828609, 62.600145617800443 ], [ 7.860782537972665, 62.599225579882919 ], [ 7.860353061474576, 62.599383895614785 ], [ 7.858420581194664, 62.599284839268783 ], [ 7.856337597789535, 62.599809183734799 ], [ 7.855757848974905, 62.599779452885038 ], [ 7.85532833841886, 62.599937752678578 ], [ 7.854555338657351, 62.599898105397273 ], [ 7.853739319459305, 62.60003657493003 ], [ 7.84774863342516, 62.599729129007251 ], [ 7.847533858495589, 62.599808266467484 ], [ 7.845987894431631, 62.599728881691085 ], [ 7.844677662287065, 62.600292743377267 ], [ 7.8442911665165, 62.600272890809229 ], [ 7.843646799544856, 62.600510285647616 ], [ 7.839588602645891, 62.600301750376758 ], [ 7.838880287210174, 62.59999484321947 ], [ 7.837334342780335, 62.599915362776073 ], [ 7.836304268750248, 62.59932139857019 ], [ 7.836025609481737, 62.598856237701014 ], [ 7.835510598482407, 62.598559252069215 ], [ 7.835446752005354, 62.598014971616173 ], [ 7.834416780275289, 62.59742099485814 ], [ 7.834459912955615, 62.597242881267817 ], [ 7.83383799428916, 62.596579723065901 ], [ 7.833968278785701, 62.595233931935297 ], [ 7.833281708646544, 62.594837942050937 ], [ 7.834035607379828, 62.592532408765457 ], [ 7.835109374365587, 62.592136820633613 ], [ 7.835540536118507, 62.590355679706946 ], [ 7.836421025663483, 62.589950142254892 ], [ 7.836099334842256, 62.589663097099447 ], [ 7.836035486220983, 62.589118816872748 ], [ 7.834834189557396, 62.588425852900308 ], [ 7.834190876370157, 62.587851755455311 ], [ 7.83423399279786, 62.587673641708406 ], [ 7.833719187166126, 62.587376652250846 ], [ 7.833419990479356, 62.586189093912523 ] ] } }
]
}
