{
"type": "FeatureCollection",
"name": "kyrkjetaket_09_wgs84",
"crs": { "type": "name", "properties": { "name": "urn:ogc:def:crs:OGC:1.3:CRS84" } },
"features": [
{ "type": "Feature", "properties": { "cat": 1 }, "geometry": { "type": "LineString", "coordinates": [ [ 7.906728684618837, 62.611580073912073 ], [ 7.906599426773719, 62.611303020479973 ], [ 7.904558108519832, 62.61083846661441 ], [ 7.901097496346676, 62.608949205638247 ], [ 7.900988748408054, 62.607771602798316 ], [ 7.899763790031189, 62.607168237379781 ], [ 7.89967737373222, 62.606713039868154 ], [ 7.899182959378249, 62.6063272095694 ], [ 7.89924710077785, 62.606060001709615 ], [ 7.897893094481224, 62.605179562316934 ], [ 7.897978627323021, 62.604823286100789 ], [ 7.896259513824454, 62.603834057072149 ], [ 7.895701024833057, 62.603715421816339 ], [ 7.891962228777636, 62.601360898520255 ], [ 7.891017256479883, 62.601222523160622 ], [ 7.889427635351469, 62.600510280959405 ], [ 7.888869237216833, 62.600391619573543 ], [ 7.887129837106143, 62.600302823453198 ], [ 7.886957982936909, 62.600203888904005 ], [ 7.885605129338585, 62.600134808766882 ], [ 7.885433281315744, 62.600035872421913 ], [ 7.881761299658873, 62.599848299183996 ], [ 7.881138660281843, 62.599996805314099 ], [ 7.875727395034736, 62.599720182237157 ], [ 7.87471821390172, 62.599848892566108 ], [ 7.869500305239239, 62.599581913584927 ], [ 7.869285587341482, 62.599661085315851 ], [ 7.864647525389819, 62.599423600696056 ], [ 7.864432796182943, 62.599502764801485 ], [ 7.860782537972665, 62.599225579882919 ], [ 7.85996656425031, 62.599364086472107 ], [ 7.857261100037277, 62.599225392702031 ], [ 7.855972602544154, 62.599700302468968 ], [ 7.855586104911915, 62.599680481180059 ], [ 7.85515659494037, 62.599838780452608 ], [ 7.854576847047197, 62.59980904470553 ], [ 7.853546069329714, 62.600026661306792 ], [ 7.845816184040665, 62.599629898412587 ], [ 7.844505953228838, 62.600193758503771 ], [ 7.843732965136724, 62.60015405139162 ], [ 7.843046151749001, 62.599758106286664 ], [ 7.842123025243342, 62.59953034532591 ], [ 7.840190612605419, 62.599431037273924 ], [ 7.839267519274613, 62.599203257861731 ], [ 7.837356699215109, 62.599014853352493 ], [ 7.835961753244256, 62.598311957351285 ], [ 7.836069564816336, 62.597866671882464 ], [ 7.835726233747359, 62.597668681911081 ], [ 7.835683946585527, 62.597035344473419 ], [ 7.833624099936112, 62.595847388169283 ], [ 7.833710368411696, 62.595491161506452 ], [ 7.83285215582162, 62.594996172036737 ], [ 7.832939338518644, 62.593828495377522 ], [ 7.833626770023622, 62.593413035749727 ], [ 7.833691464856681, 62.593145865665619 ], [ 7.834120985930376, 62.59298763266046 ], [ 7.834486679214685, 62.592285117685172 ], [ 7.834701431896221, 62.592206000015807 ], [ 7.835368913693855, 62.590256684761151 ], [ 7.836399471975226, 62.590039199529336 ], [ 7.836550344718762, 62.589415798495835 ], [ 7.836250211453393, 62.589039696442818 ], [ 7.833182831099522, 62.587168717714107 ], [ 7.833333752754776, 62.58654532082442 ], [ 7.833162159101748, 62.586446323553581 ], [ 7.833419990479356, 62.586189093912523 ] ] } }
]
}
