{
"type": "FeatureCollection",
"name": "kyrkjetaket_22_wgs84",
"crs": { "type": "name", "properties": { "name": "urn:ogc:def:crs:OGC:1.3:CRS84" } },
"features": [
{ "type": "Feature", "properties": { "cat": 1 }, "geometry": { "type": "LineString", "coordinates": [ [ 7.906728684618837, 62.611580073912073 ], [ 7.906771410066542, 62.611401932556767 ], [ 7.906427444621581, 62.611204108206479 ], [ 7.905847410243128, 62.611174581750518 ], [ 7.904020824155949, 62.610630792203345 ], [ 7.901290824525848, 62.608959054417618 ], [ 7.901483209580966, 62.608157427324507 ], [ 7.900279603922903, 62.607464996427687 ], [ 7.899699650241491, 62.607435445497288 ], [ 7.899355777466146, 62.607237604956744 ], [ 7.899462680637141, 62.606792258388211 ], [ 7.89911881667078, 62.606594417381665 ], [ 7.89911793410961, 62.605782942568169 ], [ 7.898451620020901, 62.605298189287346 ], [ 7.898601290014831, 62.604674705106802 ], [ 7.899460001633403, 62.604357833523586 ], [ 7.900039894987474, 62.604387384637 ], [ 7.901993287808915, 62.603585325300408 ], [ 7.902272057110761, 62.60323889274968 ], [ 7.902549836826767, 62.60208098339001 ], [ 7.90491092658468, 62.601209501999257 ], [ 7.905167222462017, 62.600140656180315 ], [ 7.90649768536149, 62.599487140443173 ], [ 7.907160662512691, 62.597537421631472 ], [ 7.904087864857432, 62.595667930792068 ], [ 7.903336252335116, 62.595539483963194 ], [ 7.902820607015465, 62.595242738474724 ], [ 7.901296057852167, 62.595074897477645 ], [ 7.900759075773109, 62.594867214564829 ], [ 7.89979289538075, 62.594817970517639 ], [ 7.899621028595617, 62.59471905140132 ], [ 7.873170644307684, 62.59327808333024 ], [ 7.872827110893401, 62.593080181984767 ], [ 7.870315353221192, 62.59295163456509 ], [ 7.870100686561186, 62.593030808248137 ], [ 7.868361788020015, 62.592941784841472 ], [ 7.868147116408993, 62.59302095544961 ], [ 7.865613920476264, 62.592981387073507 ], [ 7.865399241505494, 62.593060553350931 ], [ 7.856297044858164, 62.592684172094714 ], [ 7.853119783047371, 62.592881831130292 ], [ 7.848461421935549, 62.592732885065573 ], [ 7.846658046702188, 62.592910770883371 ], [ 7.845155504239835, 62.592653263429895 ], [ 7.84356685073566, 62.592751974742136 ], [ 7.841463216219648, 62.592553704709466 ], [ 7.840347128826998, 62.592316005290236 ], [ 7.840068464406878, 62.591850852420826 ], [ 7.838372847977091, 62.591583341704229 ], [ 7.835669046987062, 62.590632788710494 ], [ 7.835755271789902, 62.590276560181955 ], [ 7.836399471975226, 62.590039199529336 ], [ 7.83646413260081, 62.589772027689961 ], [ 7.83567069798965, 62.589009885290359 ], [ 7.833611388660743, 62.587821936093789 ], [ 7.833697627757899, 62.587465709030127 ], [ 7.833011234489111, 62.587069720217322 ], [ 7.833419990479356, 62.586189093912523 ] ] } }
]
}
