{
"type": "FeatureCollection",
"name": "kyrkjetaket_07_wgs84",
"crs": { "type": "name", "properties": { "name": "urn:ogc:def:crs:OGC:1.3:CRS84" } },
"features": [
{ "type": "Feature", "properties": { "cat": 1 }, "geometry": { "type": "LineString", "coordinates": [ [ 7.906728684618837, 62.611580073912073 ], [ 7.906599426773719, 62.611303020479973 ], [ 7.904558108519832, 62.61083846661441 ], [ 7.903848854572227, 62.610531876919914 ], [ 7.901290824525848, 62.608959054417618 ], [ 7.900989678796404, 62.60858307823613 ], [ 7.901117940162604, 62.608048660542622 ], [ 7.899935726854817, 62.607267157259024 ], [ 7.899978485138401, 62.607089018423544 ], [ 7.899634614330654, 62.606891178596598 ], [ 7.899698753215032, 62.606623970496003 ], [ 7.899032411416318, 62.606139219618079 ], [ 7.898946008375009, 62.605684021829703 ], [ 7.89774256015572, 62.604991571156354 ], [ 7.897677562750988, 62.60444730385592 ], [ 7.892198297913027, 62.60119262327197 ], [ 7.891425203316262, 62.601153179085308 ], [ 7.890372577051064, 62.600648666676925 ], [ 7.88730169241492, 62.60040175780594 ], [ 7.886957982936909, 62.600203888904005 ], [ 7.879034227599925, 62.599799091368382 ], [ 7.87821831641685, 62.599937705596382 ], [ 7.874932919215424, 62.599769712300287 ], [ 7.874095541236867, 62.599997366798576 ], [ 7.866751821739236, 62.599621529890882 ], [ 7.86640826138111, 62.599423612370991 ], [ 7.857926830928791, 62.598898871788698 ], [ 7.856531119271712, 62.599007634180893 ], [ 7.854405436434622, 62.598898613085304 ], [ 7.853975931986174, 62.599056908796854 ], [ 7.848565159040708, 62.598779238437373 ], [ 7.847727617224932, 62.599006732363009 ], [ 7.842338471451392, 62.598639762375086 ], [ 7.840878079725546, 62.599015542388031 ], [ 7.838172760345445, 62.598876480258916 ], [ 7.837743172761125, 62.599034724837097 ], [ 7.837356699215109, 62.599014853352493 ], [ 7.835446752005354, 62.598014971616173 ], [ 7.835878001694319, 62.596233830874823 ], [ 7.835041294418979, 62.595649797029175 ], [ 7.834934333761629, 62.595283630360363 ], [ 7.833561183068977, 62.594491656582434 ], [ 7.833992480826695, 62.592710522310448 ], [ 7.834421993898469, 62.592552288268656 ], [ 7.834788526595521, 62.591038320991764 ], [ 7.835454308453665, 62.590711908063561 ], [ 7.835755271789902, 62.590276560181955 ], [ 7.836399471975226, 62.590039199529336 ], [ 7.83646413260081, 62.589772027689961 ], [ 7.836292510272876, 62.589673033882278 ], [ 7.836378724081434, 62.589316804817258 ], [ 7.834447856272346, 62.588405975265268 ], [ 7.833461347363124, 62.58763388232947 ], [ 7.833419990479356, 62.586189093912523 ] ] } }
]
}
