{
"type": "FeatureCollection",
"name": "loftskarstinden_06_wgs84",
"crs": { "type": "name", "properties": { "name": "urn:ogc:def:crs:OGC:1.3:CRS84" } },
"features": [
{ "type": "Feature", "properties": { "cat": 1 }, "geometry": { "type": "LineString", "coordinates": [ [ 7.823668784853116, 62.620762068517436 ], [ 7.823775677481971, 62.621128242871144 ], [ 7.824462704366049, 62.621524285757282 ], [ 7.82439784815335, 62.621791449336598 ], [ 7.824955192138269, 62.622721817266026 ], [ 7.825985816932772, 62.623315872760926 ], [ 7.828241678500397, 62.62370246558708 ], [ 7.828757035939252, 62.623999482759892 ], [ 7.830304204275893, 62.624079074943026 ], [ 7.830949199128053, 62.62384175032409 ], [ 7.831014002108191, 62.623574582978137 ], [ 7.832088959947766, 62.623179034364732 ], [ 7.83241290122247, 62.621843193682274 ], [ 7.833122607792033, 62.621338689747184 ], [ 7.833252159498835, 62.620804352265232 ], [ 7.833897058601127, 62.620567012715995 ], [ 7.834264056498347, 62.619053053274605 ], [ 7.834092278331579, 62.618954054644739 ], [ 7.834933178773426, 62.616292299718459 ], [ 7.835599544447794, 62.615965894072019 ], [ 7.835965521490206, 62.61526337912845 ], [ 7.836416935860345, 62.615016086483834 ], [ 7.836762144186818, 62.613591174507725 ], [ 7.837235098392287, 62.613254821701965 ], [ 7.837386103142596, 62.612631421604377 ], [ 7.837880604174922, 62.612206009094926 ], [ 7.839131401425744, 62.607040677991641 ], [ 7.838959673676835, 62.606941686036905 ], [ 7.839176040522685, 62.60523965759716 ], [ 7.837458913285801, 62.604249731123396 ], [ 7.837567527538366, 62.602992992505165 ], [ 7.837245691995916, 62.602705948034369 ], [ 7.837181809558635, 62.602161667892766 ], [ 7.835979976456706, 62.601468706511994 ], [ 7.834585826257793, 62.599954344659878 ], [ 7.834779935129287, 62.59915283332893 ], [ 7.835510598482407, 62.598559252069215 ], [ 7.835403623813547, 62.598193085572532 ], [ 7.835878001694319, 62.596233830874823 ], [ 7.835041294418979, 62.595649797029175 ], [ 7.834934333761629, 62.595283630360363 ], [ 7.833561183068977, 62.594491656582434 ], [ 7.833992480826695, 62.592710522310448 ], [ 7.834421993898469, 62.592552288268656 ], [ 7.834939439522308, 62.590414922251554 ], [ 7.835583649072417, 62.590177565496489 ], [ 7.836184739718257, 62.590118320093168 ], [ 7.83646413260081, 62.589772027689961 ], [ 7.83567069798965, 62.589009885290359 ], [ 7.833782991512723, 62.587920932936782 ], [ 7.833763177818966, 62.586387087608777 ], [ 7.833419990479356, 62.586189093912523 ] ] } }
]
}
