{
"type": "FeatureCollection",
"name": "loftskarstinden_04_wgs84",
"crs": { "type": "name", "properties": { "name": "urn:ogc:def:crs:OGC:1.3:CRS84" } },
"features": [
{ "type": "Feature", "properties": { "cat": 1 }, "geometry": { "type": "LineString", "coordinates": [ [ 7.823668784853116, 62.620762068517436 ], [ 7.823775677481971, 62.621128242871144 ], [ 7.824462704366049, 62.621524285757282 ], [ 7.824783425332251, 62.622622807330991 ], [ 7.826157591725017, 62.62341488132418 ], [ 7.828241678500397, 62.62370246558708 ], [ 7.828585248985308, 62.623900477231622 ], [ 7.830519203700971, 62.62399996708352 ], [ 7.830949199128053, 62.62384175032409 ], [ 7.831014002108191, 62.623574582978137 ], [ 7.832088959947766, 62.623179034364732 ], [ 7.832284304325264, 62.621566080530719 ], [ 7.833380762658494, 62.621081464610448 ], [ 7.833445536140097, 62.620814295732309 ], [ 7.834090433971601, 62.620576955272 ], [ 7.834780299693295, 62.618538597391591 ], [ 7.836542999641137, 62.617727550015552 ], [ 7.836801934840665, 62.616658866282449 ], [ 7.837253364413688, 62.616411571138975 ], [ 7.837814277133016, 62.614096084696513 ], [ 7.837470753014713, 62.613898096402949 ], [ 7.837729612537274, 62.612829409906936 ], [ 7.837944509298899, 62.612750289208684 ], [ 7.83880719323795, 62.6091879936018 ], [ 7.838485282068275, 62.608900950968028 ], [ 7.838959673676835, 62.606941686036905 ], [ 7.838787947067561, 62.6068426938862 ], [ 7.838938877941239, 62.606219291090916 ], [ 7.838767155434406, 62.606120298970218 ], [ 7.839025882450321, 62.605051608241332 ], [ 7.837673747064314, 62.604170609983278 ], [ 7.837716872660396, 62.603992495292637 ], [ 7.837223322215021, 62.603606457248524 ], [ 7.837438952632876, 62.60271588438922 ], [ 7.837117121191391, 62.602428839677309 ], [ 7.837181809558635, 62.602161667892766 ], [ 7.836666731394279, 62.60186468561924 ], [ 7.836108532974012, 62.601745815723604 ], [ 7.83570130429348, 62.601003544822014 ], [ 7.834714364000257, 62.600231454902101 ], [ 7.834585826257793, 62.599954344659878 ], [ 7.834779935129287, 62.59915283332893 ], [ 7.835510598482407, 62.598559252069215 ], [ 7.835403623813547, 62.598193085572532 ], [ 7.835533006630921, 62.597658743639222 ], [ 7.835747796468117, 62.597579624865787 ], [ 7.835856440601487, 62.596322887962749 ], [ 7.834848080707149, 62.595639857990825 ], [ 7.834912770717739, 62.595372687276019 ], [ 7.834569475367752, 62.595174694941825 ], [ 7.83418305466243, 62.595154815381321 ], [ 7.833324843369736, 62.594659828838275 ], [ 7.833540508195339, 62.593769262453563 ], [ 7.834184803127611, 62.59353191332918 ], [ 7.835154177177153, 62.590335803679494 ], [ 7.836184739718257, 62.590118320093168 ], [ 7.83646413260081, 62.589772027689961 ], [ 7.836207104582181, 62.589217810942891 ], [ 7.833461347363124, 62.58763388232947 ], [ 7.833419990479356, 62.586189093912523 ] ] } }
]
}
