{
"type": "FeatureCollection",
"name": "loftskarstinden_27_wgs84",
"crs": { "type": "name", "properties": { "name": "urn:ogc:def:crs:OGC:1.3:CRS84" } },
"features": [
{ "type": "Feature", "properties": { "cat": 1 }, "geometry": { "type": "LineString", "coordinates": [ [ 7.823668784853116, 62.620762068517436 ], [ 7.823046650860464, 62.620098859298615 ], [ 7.822359675200131, 62.619702810135806 ], [ 7.822231180965962, 62.619425689117158 ], [ 7.821544231502934, 62.619029636295181 ], [ 7.821780840108836, 62.6188614876882 ], [ 7.821760473759742, 62.618139096076355 ], [ 7.820773360937709, 62.617366905188689 ], [ 7.820731392651457, 62.616733567612087 ], [ 7.81993769099803, 62.615971332100258 ], [ 7.819852487376223, 62.615516101942731 ], [ 7.819530697852955, 62.615229017235656 ], [ 7.819595579648216, 62.614961856263626 ], [ 7.819123723985767, 62.61448670144518 ], [ 7.81916697973109, 62.614308594276309 ], [ 7.818823580818542, 62.614110561775398 ], [ 7.818888465872024, 62.61384340117597 ], [ 7.818051625058089, 62.613259263600476 ], [ 7.817623081708416, 62.612605997638362 ], [ 7.818120550747305, 62.610557770106347 ], [ 7.819883204367259, 62.609746932594128 ], [ 7.820099410716723, 62.608856394441126 ], [ 7.821217194628224, 62.608282816244078 ], [ 7.82210332811146, 62.604631594924385 ], [ 7.821760017089591, 62.604433570845977 ], [ 7.821653196434868, 62.604067395914171 ], [ 7.821955733648306, 62.602820636479912 ], [ 7.822213812490734, 62.602563430958973 ], [ 7.823288103353867, 62.602167941038225 ], [ 7.823892962895576, 62.59967441147478 ], [ 7.826685725175711, 62.598646081458078 ], [ 7.826793677152706, 62.598200805080225 ], [ 7.829135011770719, 62.59741968733659 ], [ 7.829329246525466, 62.59661818530612 ], [ 7.830210009985906, 62.596212690826981 ], [ 7.830274743234483, 62.595945522854613 ], [ 7.82892327127115, 62.595064448783518 ], [ 7.829009593156162, 62.594708225757607 ], [ 7.82849472348073, 62.594411216139221 ], [ 7.828537886079385, 62.594233104787925 ], [ 7.829418587099159, 62.593827614453389 ], [ 7.829290123083981, 62.593550500331048 ], [ 7.829784402637642, 62.59312511348292 ], [ 7.830858246206908, 62.592729559137823 ], [ 7.830944536325237, 62.592373334478609 ], [ 7.832662603943311, 62.591740428139246 ], [ 7.833006749411354, 62.591126973816429 ], [ 7.835583649072417, 62.590177565496489 ], [ 7.835970006323153, 62.590197440310703 ], [ 7.83725838962182, 62.589722713811348 ], [ 7.837883304166305, 62.587140045695612 ], [ 7.837540080283389, 62.586942061644855 ], [ 7.836788997940805, 62.586813263385707 ], [ 7.836274180501504, 62.586516283201796 ], [ 7.833419990479356, 62.586189093912523 ] ] } }
]
}
