{
"type": "FeatureCollection",
"name": "loftskarstinden_19_wgs84",
"crs": { "type": "name", "properties": { "name": "urn:ogc:def:crs:OGC:1.3:CRS84" } },
"features": [
{ "type": "Feature", "properties": { "cat": 1 }, "geometry": { "type": "LineString", "coordinates": [ [ 7.823668784853116, 62.620762068517436 ], [ 7.822638293211925, 62.620167997717239 ], [ 7.821500981287437, 62.619207744274483 ], [ 7.821780840108836, 62.6188614876882 ], [ 7.821760473759742, 62.618139096076355 ], [ 7.820773360937709, 62.617366905188689 ], [ 7.820731392651457, 62.616733567612087 ], [ 7.81993769099803, 62.615971332100258 ], [ 7.81987411408919, 62.615427048231425 ], [ 7.819530697852955, 62.615229017235656 ], [ 7.81916697973109, 62.614308594276309 ], [ 7.818051625058089, 62.613259263600476 ], [ 7.81794482560668, 62.612893086125453 ], [ 7.816743033926238, 62.612199959566915 ], [ 7.817197295365272, 62.610329842401526 ], [ 7.81745548453738, 62.610072647197129 ], [ 7.820249465098503, 62.609044462751939 ], [ 7.820507616223985, 62.608787261378488 ], [ 7.821797065316704, 62.608312692351582 ], [ 7.822055196410258, 62.608055487840275 ], [ 7.822509043389736, 62.606185347712334 ], [ 7.822165712260408, 62.605987324359148 ], [ 7.822468252772421, 62.60474056386375 ], [ 7.821438322243386, 62.604146491822583 ], [ 7.82171925992372, 62.602988787228661 ], [ 7.822363851140556, 62.602751496783249 ], [ 7.822407065821334, 62.602573388045109 ], [ 7.823481354570823, 62.602177896606818 ], [ 7.823936162745571, 62.599496302059201 ], [ 7.826299266062325, 62.598626179524793 ], [ 7.826364041104869, 62.598359013940282 ], [ 7.829135011770719, 62.59741968733659 ], [ 7.829199758008535, 62.597152520041348 ], [ 7.828706428560686, 62.596766454863975 ], [ 7.829350827431804, 62.596529129498158 ], [ 7.829715682122768, 62.596638078521408 ], [ 7.830188431943205, 62.596301746807057 ], [ 7.830274743234483, 62.595945522854613 ], [ 7.829244946802455, 62.595351510283159 ], [ 7.828150442892678, 62.595024657473786 ], [ 7.82763557673591, 62.59472764473108 ], [ 7.828731087977665, 62.59424305240919 ], [ 7.829440165168836, 62.593738558592229 ], [ 7.832640124657274, 62.592640935152545 ], [ 7.833243061437797, 62.59095880172076 ], [ 7.836828933074767, 62.589880957362894 ], [ 7.836013932143151, 62.589207874082511 ], [ 7.835735362319681, 62.58874271383872 ], [ 7.834534087504341, 62.588049747577465 ], [ 7.834427154522588, 62.587683580889028 ], [ 7.833569147248966, 62.587188598621104 ], [ 7.833419990479356, 62.586189093912523 ] ] } }
]
}
