{
"type": "FeatureCollection",
"name": "loftskarstinden_10_wgs84",
"crs": { "type": "name", "properties": { "name": "urn:ogc:def:crs:OGC:1.3:CRS84" } },
"features": [
{ "type": "Feature", "properties": { "cat": 1 }, "geometry": { "type": "LineString", "coordinates": [ [ 7.823668784853116, 62.620762068517436 ], [ 7.823775677481971, 62.621128242871144 ], [ 7.824441085775465, 62.621613340289109 ], [ 7.824805043828489, 62.622533752745085 ], [ 7.826179206833548, 62.623325826479466 ], [ 7.826909542106016, 62.623543748678998 ], [ 7.828241678500397, 62.62370246558708 ], [ 7.828757035939252, 62.623999482759892 ], [ 7.83049760097904, 62.624089022768658 ], [ 7.830927597840918, 62.623930806095338 ], [ 7.831014002108191, 62.623574582978137 ], [ 7.831873970661809, 62.623258144781005 ], [ 7.832069327526972, 62.621645191418082 ], [ 7.833187384306052, 62.621071521030323 ], [ 7.833252159498835, 62.620804352265232 ], [ 7.833897058601127, 62.620567012715995 ], [ 7.834264056498347, 62.619053053274605 ], [ 7.833920501305435, 62.618855055818848 ], [ 7.834050024930745, 62.618320717210473 ], [ 7.833878251586393, 62.618221718382472 ], [ 7.834396303422335, 62.616084362795426 ], [ 7.835256014599107, 62.615767900247761 ], [ 7.835342336884453, 62.615411673328239 ], [ 7.836008677744979, 62.615085265389176 ], [ 7.836935565534192, 62.612067266420425 ], [ 7.837150458679586, 62.611988146896088 ], [ 7.837236744337334, 62.611631918302365 ], [ 7.837881408333736, 62.611394557133913 ], [ 7.838485282068275, 62.608900950968028 ], [ 7.83831354614632, 62.608801958107129 ], [ 7.839132162131645, 62.606229225419803 ], [ 7.838638557548144, 62.605843191650145 ], [ 7.838596207632682, 62.605209854257126 ], [ 7.837415785671163, 62.604427845706638 ], [ 7.837115501511291, 62.604051743477477 ], [ 7.837460514868803, 62.602626827073834 ], [ 7.837117121191391, 62.602428839677309 ], [ 7.837181809558635, 62.602161667892766 ], [ 7.836666731394279, 62.60186468561924 ], [ 7.836108532974012, 62.601745815723604 ], [ 7.835872987771888, 62.601102540187576 ], [ 7.835186260692665, 62.600706557550147 ], [ 7.834843770454211, 62.599697113933537 ], [ 7.835059436154824, 62.598806545224207 ], [ 7.835510598482407, 62.598559252069215 ], [ 7.835856440601487, 62.596322887962749 ], [ 7.836758666480171, 62.595828293686587 ], [ 7.83684489734841, 62.595472064572213 ], [ 7.836673241946503, 62.595373070784085 ], [ 7.83590039239967, 62.595333322142025 ], [ 7.835557090737651, 62.595135332153404 ], [ 7.834977459409961, 62.595105516512994 ], [ 7.833775954487888, 62.594412540594604 ], [ 7.834250363053612, 62.592453291831745 ], [ 7.835109374365587, 62.592136820633613 ], [ 7.835432751171399, 62.590800965139337 ], [ 7.835647490420309, 62.590721845829258 ], [ 7.835755271789902, 62.590276560181955 ], [ 7.836184739718257, 62.590118320093168 ], [ 7.83646413260081, 62.589772027689961 ], [ 7.83567069798965, 62.589009885290359 ], [ 7.833611388660743, 62.587821936093789 ], [ 7.833311307902007, 62.587445828428592 ], [ 7.833591583580269, 62.586288090858517 ], [ 7.833419990479356, 62.586189093912523 ] ] } }
]
}
