{
"type": "FeatureCollection",
"name": "loftskarstinden_17_wgs84",
"crs": { "type": "name", "properties": { "name": "urn:ogc:def:crs:OGC:1.3:CRS84" } },
"features": [
{ "type": "Feature", "properties": { "cat": 1 }, "geometry": { "type": "LineString", "coordinates": [ [ 7.823668784853116, 62.620762068517436 ], [ 7.823712024945061, 62.620583959729068 ], [ 7.821715967157909, 62.619128649794533 ], [ 7.821760473759742, 62.618139096076355 ], [ 7.820901833752445, 62.617644027259551 ], [ 7.820731392651457, 62.616733567612087 ], [ 7.81993769099803, 62.615971332100258 ], [ 7.819445501903612, 62.614773786933362 ], [ 7.818823580818542, 62.614110561775398 ], [ 7.818888465872024, 62.61384340117597 ], [ 7.817901565151792, 62.613071192851663 ], [ 7.817794768091046, 62.612705015294225 ], [ 7.818270600354349, 62.610745840480178 ], [ 7.818485531677527, 62.610666750233115 ], [ 7.818851838079847, 62.609964284685546 ], [ 7.822505391527036, 62.608619686412673 ], [ 7.823450247397356, 62.608758524358493 ], [ 7.824480373579497, 62.609352584201488 ], [ 7.83047269300406, 62.60966105191882 ], [ 7.833695951842166, 62.608474371749267 ], [ 7.833890155288885, 62.607672862964655 ], [ 7.834363042704609, 62.607336518981768 ], [ 7.834492494713363, 62.606802178970526 ], [ 7.834986933991923, 62.606376775871574 ], [ 7.835137941556291, 62.605753378233523 ], [ 7.83496623464548, 62.605654381645266 ], [ 7.835504644308052, 62.604239411448596 ], [ 7.836557260548642, 62.603932874799597 ], [ 7.837010115698004, 62.602062673997487 ], [ 7.835765158369634, 62.601547825257313 ], [ 7.835808290570141, 62.601369711245468 ], [ 7.835143125987348, 62.600884671335791 ], [ 7.835229394811822, 62.600528443743073 ], [ 7.834714364000257, 62.600231454902101 ], [ 7.834457290759912, 62.599677234329533 ], [ 7.834759234582718, 62.598430439040513 ], [ 7.834415906184154, 62.598232445879589 ], [ 7.834868785832936, 62.596362252334231 ], [ 7.834697132221875, 62.596263256138023 ], [ 7.834741122473463, 62.59527369120682 ], [ 7.833539616642898, 62.5945807132398 ], [ 7.833733709203587, 62.593779203130687 ], [ 7.834700574905056, 62.593017451284176 ], [ 7.835218010784304, 62.590880084103098 ], [ 7.835432751171399, 62.590800965139337 ], [ 7.835540536118507, 62.590355679706946 ], [ 7.836399471975226, 62.590039199529336 ], [ 7.836593449899405, 62.589237683866685 ], [ 7.835070468914468, 62.588257677260358 ], [ 7.835006640575227, 62.587713396836982 ], [ 7.833977022384136, 62.587119421632565 ], [ 7.834127927084899, 62.586496023651669 ], [ 7.833419990479356, 62.586189093912523 ] ] } }
]
}
