{
"type": "FeatureCollection",
"name": "loftskarstinden_25_wgs84",
"crs": { "type": "name", "properties": { "name": "urn:ogc:def:crs:OGC:1.3:CRS84" } },
"features": [
{ "type": "Feature", "properties": { "cat": 1 }, "geometry": { "type": "LineString", "coordinates": [ [ 7.823668784853116, 62.620762068517436 ], [ 7.823925812631185, 62.621316308321326 ], [ 7.824441085775465, 62.621613340289109 ], [ 7.824526371633148, 62.62206856875607 ], [ 7.824976810211071, 62.622632762647747 ], [ 7.826007432464793, 62.623226817948556 ], [ 7.826394211272395, 62.623246725044162 ], [ 7.827661499255172, 62.623672612073413 ], [ 7.828435071876005, 62.623712416226198 ], [ 7.828778643795761, 62.62391042741406 ], [ 7.829745620051814, 62.62396017433543 ], [ 7.830175618867822, 62.623801960006006 ], [ 7.830090242664894, 62.623346733766986 ], [ 7.831186803592812, 62.622862136486305 ], [ 7.831639370507863, 62.621803412152573 ], [ 7.833144200110178, 62.621249633513607 ], [ 7.833273750936163, 62.620715295999481 ], [ 7.833725273233621, 62.620468013536801 ], [ 7.834027515808264, 62.619221223973526 ], [ 7.833855737511477, 62.619122225050695 ], [ 7.83407161168797, 62.618231660757019 ], [ 7.833899838767147, 62.61813266196129 ], [ 7.834417887081305, 62.615995306245651 ], [ 7.833752432662955, 62.615510255778709 ], [ 7.834228176689995, 62.612739562511756 ], [ 7.833992600423316, 62.612096283397527 ], [ 7.833155503168051, 62.611512232952371 ], [ 7.833328164375942, 62.610799781876857 ], [ 7.833156435492071, 62.610700782762819 ], [ 7.833609635386225, 62.608830597736464 ], [ 7.834039389588031, 62.608672368166189 ], [ 7.834340572837198, 62.608237026357827 ], [ 7.834770314468741, 62.608078794364133 ], [ 7.835719483034122, 62.604160293386258 ], [ 7.835419223126865, 62.603784187834783 ], [ 7.834217368849852, 62.603091210978974 ], [ 7.834303656886941, 62.60273498422292 ], [ 7.834131969667973, 62.602635986874873 ], [ 7.834261399864364, 62.602101646773875 ], [ 7.835142265595494, 62.601696122540325 ], [ 7.835379507463738, 62.600716496570165 ], [ 7.834714364000257, 62.600231454902101 ], [ 7.835059436154824, 62.598806545224207 ], [ 7.834887768262606, 62.598707549068763 ], [ 7.834974032131832, 62.598351321564259 ], [ 7.834630703147178, 62.598153328924163 ], [ 7.83618392704056, 62.590929771979468 ], [ 7.835669046987062, 62.590632788710494 ], [ 7.835755271789902, 62.590276560181955 ], [ 7.836828933074767, 62.589880957362894 ], [ 7.837022898121155, 62.589079440926731 ], [ 7.835478355691912, 62.588188496038185 ], [ 7.835479182785986, 62.587377044346226 ], [ 7.834964369348484, 62.587080059380249 ], [ 7.835007479727262, 62.586901945311219 ], [ 7.83397788864437, 62.586307970481599 ], [ 7.833419990479356, 62.586189093912523 ] ] } }
]
}
