{
"type": "FeatureCollection",
"name": "loftskarstinden_07_wgs84",
"crs": { "type": "name", "properties": { "name": "urn:ogc:def:crs:OGC:1.3:CRS84" } },
"features": [
{ "type": "Feature", "properties": { "cat": 1 }, "geometry": { "type": "LineString", "coordinates": [ [ 7.823668784853116, 62.620762068517436 ], [ 7.821844455430893, 62.619405771206701 ], [ 7.821630730169755, 62.618673420272138 ], [ 7.821760473759742, 62.618139096076355 ], [ 7.820773360937709, 62.617366905188689 ], [ 7.820731392651457, 62.616733567612087 ], [ 7.81993769099803, 62.615971332100258 ], [ 7.81987411408919, 62.615427048231425 ], [ 7.819530697852955, 62.615229017235656 ], [ 7.81916697973109, 62.614308594276309 ], [ 7.818823580818542, 62.614110561775398 ], [ 7.818888465872024, 62.61384340117597 ], [ 7.818051625058089, 62.613259263600476 ], [ 7.81794482560668, 62.612893086125453 ], [ 7.817301343914455, 62.612318908492234 ], [ 7.817798829025264, 62.610270682325542 ], [ 7.822527003928617, 62.60853063209364 ], [ 7.823686759634073, 62.608590371202027 ], [ 7.824888576597174, 62.609283438283512 ], [ 7.830880887456623, 62.609591888347396 ], [ 7.834082545243251, 62.608494255011259 ], [ 7.834212008689431, 62.607959915417844 ], [ 7.835071480489053, 62.607643450742223 ], [ 7.835565926398445, 62.607218045682018 ], [ 7.835911060635628, 62.605793134771126 ], [ 7.835739350859488, 62.605694139095704 ], [ 7.835890338250258, 62.605070740367147 ], [ 7.835718632575638, 62.604971744721851 ], [ 7.83591275247587, 62.604170231975971 ], [ 7.836557260548642, 62.603932874799597 ], [ 7.837010115698004, 62.602062673997487 ], [ 7.836108532974012, 62.601745815723604 ], [ 7.83570130429348, 62.601003544822014 ], [ 7.834714364000257, 62.600231454902101 ], [ 7.834585826257793, 62.599954344659878 ], [ 7.834779935129287, 62.59915283332893 ], [ 7.835510598482407, 62.598559252069215 ], [ 7.835403623813547, 62.598193085572532 ], [ 7.835812483751409, 62.59731245369791 ], [ 7.835683946585527, 62.597035344473419 ], [ 7.833624099936112, 62.595847388169283 ], [ 7.833710368411696, 62.595491161506452 ], [ 7.83285215582162, 62.594996172036737 ], [ 7.832745224147073, 62.594630004083257 ], [ 7.832939338518644, 62.593828495377522 ], [ 7.833626770023622, 62.593413035749727 ], [ 7.833691464856681, 62.593145865665619 ], [ 7.834120985930376, 62.59298763266046 ], [ 7.834486679214685, 62.592285117685172 ], [ 7.834916183439447, 62.592126882000152 ], [ 7.835368913693855, 62.590256684761151 ], [ 7.836399471975226, 62.590039199529336 ], [ 7.83646413260081, 62.589772027689961 ], [ 7.836292510272876, 62.589673033882278 ], [ 7.836378724081434, 62.589316804817258 ], [ 7.834447856272346, 62.588405975265268 ], [ 7.833461347363124, 62.58763388232947 ], [ 7.833419990479356, 62.586189093912523 ] ] } }
]
}
