{
"type": "FeatureCollection",
"name": "loftskarstinden_13_wgs84",
"crs": { "type": "name", "properties": { "name": "urn:ogc:def:crs:OGC:1.3:CRS84" } },
"features": [
{ "type": "Feature", "properties": { "cat": 1 }, "geometry": { "type": "LineString", "coordinates": [ [ 7.823668784853116, 62.620762068517436 ], [ 7.823775677481971, 62.621128242871144 ], [ 7.824462704366049, 62.621524285757282 ], [ 7.824526371633148, 62.62206856875607 ], [ 7.824998428136886, 62.622543708024118 ], [ 7.824955192138269, 62.622721817266026 ], [ 7.825298729172895, 62.622919836548171 ], [ 7.825255494280139, 62.62309794589801 ], [ 7.826114361067039, 62.623592990997508 ], [ 7.828435071876005, 62.623712416226198 ], [ 7.828778643795761, 62.62391042741406 ], [ 7.830325807568339, 62.623990019295569 ], [ 7.830970800268309, 62.62375269454747 ], [ 7.831014002108191, 62.623574582978137 ], [ 7.832088959947766, 62.623179034364732 ], [ 7.832369710961379, 62.622021305842978 ], [ 7.832821261230206, 62.621774026687156 ], [ 7.832886041657634, 62.621506858163762 ], [ 7.83353095924348, 62.621269520558513 ], [ 7.833638912928151, 62.62082423893338 ], [ 7.834283809488857, 62.620586897561942 ], [ 7.83475871477698, 62.618627653979672 ], [ 7.835618497783451, 62.618311190177465 ], [ 7.835661661733141, 62.618133076651745 ], [ 7.836328062313652, 62.617806668001876 ], [ 7.836414379261759, 62.617450440348577 ], [ 7.837059179219123, 62.617213084833466 ], [ 7.837210213174959, 62.616589685330794 ], [ 7.837425139194682, 62.616510565831405 ], [ 7.837986040902515, 62.61419507854928 ], [ 7.837642514503749, 62.613997090647743 ], [ 7.839410178563844, 62.607505834246851 ], [ 7.839002796669707, 62.606763570914715 ], [ 7.839154481020582, 62.605328715214256 ], [ 7.837609057571231, 62.604437781979051 ], [ 7.837695309935619, 62.604081552640629 ], [ 7.837351898421279, 62.60388356558024 ], [ 7.837567527538366, 62.602992992505165 ], [ 7.837224129043855, 62.602795005306724 ], [ 7.837010115698004, 62.602062673997487 ], [ 7.835979976456706, 62.601468706511994 ], [ 7.836023107225025, 62.601290592414173 ], [ 7.835186260692665, 62.600706557550147 ], [ 7.834907607484148, 62.600241394531281 ], [ 7.83516640828306, 62.59917271194967 ], [ 7.834823068822194, 62.598974719640928 ], [ 7.835039585274796, 62.597272699618117 ], [ 7.834352955022181, 62.596876714191801 ], [ 7.834396087083057, 62.59669860061247 ], [ 7.833602532450929, 62.595936444821604 ], [ 7.833796634543099, 62.595134934757901 ], [ 7.833131636815668, 62.594649887518997 ], [ 7.833800167737328, 62.591889131150147 ], [ 7.834229669618734, 62.591730897547855 ], [ 7.834337476847531, 62.591285613350678 ], [ 7.834766967020229, 62.591127377933219 ], [ 7.834917880972072, 62.590503979230505 ], [ 7.836421025663483, 62.589950142254892 ], [ 7.83567069798965, 62.589009885290359 ], [ 7.834104641757722, 62.588207982884917 ], [ 7.833461347363124, 62.58763388232947 ], [ 7.833526027733903, 62.58736671212052 ], [ 7.833182831099522, 62.587168717714107 ], [ 7.833247512687469, 62.586901547650648 ], [ 7.832925884220815, 62.586614496021063 ], [ 7.832990566586508, 62.586347326087051 ], [ 7.833419990479356, 62.586189093912523 ] ] } }
]
}
