{
"type": "FeatureCollection",
"name": "loftskarstinden_14_wgs84",
"crs": { "type": "name", "properties": { "name": "urn:ogc:def:crs:OGC:1.3:CRS84" } },
"features": [
{ "type": "Feature", "properties": { "cat": 1 }, "geometry": { "type": "LineString", "coordinates": [ [ 7.823668784853116, 62.620762068517436 ], [ 7.82152260646869, 62.619118690287522 ], [ 7.821780840108836, 62.6188614876882 ], [ 7.821760473759742, 62.618139096076355 ], [ 7.820773360937709, 62.617366905188689 ], [ 7.820731392651457, 62.616733567612087 ], [ 7.81993769099803, 62.615971332100258 ], [ 7.81987411408919, 62.615427048231425 ], [ 7.819530697852955, 62.615229017235656 ], [ 7.81916697973109, 62.614308594276309 ], [ 7.818051625058089, 62.613259263600476 ], [ 7.817794768091046, 62.612705015294225 ], [ 7.817108029399892, 62.612308943496089 ], [ 7.817648784657712, 62.610082611515473 ], [ 7.819604717448303, 62.609281741286274 ], [ 7.819862876293087, 62.609024541211589 ], [ 7.822441774478782, 62.608075403157919 ], [ 7.82315489591033, 62.605136607975844 ], [ 7.8228115720628, 62.604938586311349 ], [ 7.822747952941837, 62.604394303163154 ], [ 7.821889679526127, 62.603899245405643 ], [ 7.822213812490734, 62.602563430958973 ], [ 7.822643532253181, 62.602405236030428 ], [ 7.82272995640036, 62.602049018295943 ], [ 7.823374518905194, 62.601811722786827 ], [ 7.823914562893949, 62.599585356769673 ], [ 7.826277674088089, 62.598715234708912 ], [ 7.826600450369567, 62.59819085443489 ], [ 7.828104143625702, 62.597637114634601 ], [ 7.829135011770719, 62.59741968733659 ], [ 7.829199758008535, 62.597152520041348 ], [ 7.828706428560686, 62.596766454863975 ], [ 7.829350827431804, 62.596529129498158 ], [ 7.829715682122768, 62.596638078521408 ], [ 7.829930479339713, 62.596558968809475 ], [ 7.830274743234483, 62.595945522854613 ], [ 7.829244946802455, 62.595351510283159 ], [ 7.829309686340015, 62.595084342844011 ], [ 7.830168826460023, 62.594767903846488 ], [ 7.830534637380775, 62.594065400846389 ], [ 7.831823276513538, 62.593590728073082 ], [ 7.832059615655337, 62.593422558354412 ], [ 7.832210601114697, 62.592799163562134 ], [ 7.833091209549206, 62.592393648765253 ], [ 7.833457807482418, 62.59087968587616 ], [ 7.835583649072417, 62.590177565496489 ], [ 7.835970006323153, 62.590197440310703 ], [ 7.836421025663483, 62.589950142254892 ], [ 7.836249402490221, 62.589851148382692 ], [ 7.836357170848885, 62.589405862091539 ], [ 7.834834189557396, 62.588425852900308 ], [ 7.835006640575227, 62.587713396836982 ], [ 7.834878146834185, 62.587436287454132 ], [ 7.834191738087094, 62.587040304242699 ], [ 7.834299524314489, 62.586595019782486 ], [ 7.833419990479356, 62.586189093912523 ] ] } }
]
}
