{
"type": "FeatureCollection",
"name": "loftskarstinden_30_wgs84",
"crs": { "type": "name", "properties": { "name": "urn:ogc:def:crs:OGC:1.3:CRS84" } },
"features": [
{ "type": "Feature", "properties": { "cat": 1 }, "geometry": { "type": "LineString", "coordinates": [ [ 7.823668784853116, 62.620762068517436 ], [ 7.824829020829571, 62.620821804669916 ], [ 7.825882342686064, 62.620515358223606 ], [ 7.826849202308226, 62.620565123630698 ], [ 7.828354053761668, 62.620011396952385 ], [ 7.830502724364806, 62.620031778320296 ], [ 7.831577557163362, 62.619636231942096 ], [ 7.831620747774901, 62.619458120030181 ], [ 7.832050670041149, 62.619299898879532 ], [ 7.833325376554334, 62.613234132567186 ], [ 7.833153634091227, 62.613135133265587 ], [ 7.833261555949671, 62.612689851489186 ], [ 7.832961248086654, 62.612313740002413 ], [ 7.835247526240853, 62.603685191728765 ], [ 7.834432202365815, 62.603012094828415 ], [ 7.834433084545227, 62.602200643928178 ], [ 7.834261399864364, 62.602101646773875 ], [ 7.835142265595494, 62.601696122540325 ], [ 7.835379507463738, 62.600716496570165 ], [ 7.834886039798432, 62.600330451378284 ], [ 7.83516640828306, 62.59917271194967 ], [ 7.834994737983177, 62.599073715893212 ], [ 7.835059436154824, 62.598806545224207 ], [ 7.836048002794906, 62.597955728986939 ], [ 7.836479215391972, 62.596174585880469 ], [ 7.836157460330227, 62.59588753998873 ], [ 7.836653298473454, 62.593839224131194 ], [ 7.836331565592374, 62.593552178941515 ], [ 7.836827342351361, 62.591503861614314 ], [ 7.836655709130333, 62.591404868105755 ], [ 7.836741924959898, 62.591048638845471 ], [ 7.835733715808816, 62.590365617322121 ], [ 7.836828933074767, 62.589880957362894 ], [ 7.836979795802169, 62.589257555727784 ], [ 7.836636554494511, 62.589059569216104 ], [ 7.836379528553738, 62.58850535281411 ], [ 7.835693075460817, 62.588109376391628 ], [ 7.835757737106034, 62.587842204892276 ], [ 7.835436074356937, 62.587555158587485 ], [ 7.833376871909902, 62.586367207379176 ], [ 7.833419990479356, 62.586189093912523 ] ] } }
]
}
