{
"type": "FeatureCollection",
"name": "loftskarstinden_16_wgs84",
"crs": { "type": "name", "properties": { "name": "urn:ogc:def:crs:OGC:1.3:CRS84" } },
"features": [
{ "type": "Feature", "properties": { "cat": 1 }, "geometry": { "type": "LineString", "coordinates": [ [ 7.823668784853116, 62.620762068517436 ], [ 7.823775677481971, 62.621128242871144 ], [ 7.824462704366049, 62.621524285757282 ], [ 7.82439784815335, 62.621791449336598 ], [ 7.824805043828489, 62.622533752745085 ], [ 7.826007432464793, 62.623226817948556 ], [ 7.827661499255172, 62.623672612073413 ], [ 7.828435071876005, 62.623712416226198 ], [ 7.828778643795761, 62.62391042741406 ], [ 7.830325807568339, 62.623990019295569 ], [ 7.831873970661809, 62.623258144781005 ], [ 7.832219518323567, 62.621833248698898 ], [ 7.833337579603427, 62.621259577169077 ], [ 7.833445536140097, 62.620814295732309 ], [ 7.834090433971601, 62.620576955272 ], [ 7.834565351807234, 62.618617712518443 ], [ 7.834221799415658, 62.618419715842485 ], [ 7.834329729616646, 62.617974433359926 ], [ 7.834544673330587, 62.617895318539212 ], [ 7.835341456014582, 62.616223124220966 ], [ 7.835986236906175, 62.615985773404745 ], [ 7.837215173142829, 62.611720975458823 ], [ 7.837644951713682, 62.611562735112436 ], [ 7.837774368082155, 62.611028391577378 ], [ 7.837989251357966, 62.610949270626364 ], [ 7.838636232546677, 62.6082775487709 ], [ 7.838851093187601, 62.608198426183662 ], [ 7.839303886494347, 62.606328217116314 ], [ 7.83904668131238, 62.60577400321948 ], [ 7.839197599878278, 62.605150599974699 ], [ 7.838897286126368, 62.604774501180202 ], [ 7.837716872660396, 62.603992495292637 ], [ 7.837632213416352, 62.602725820478263 ], [ 7.837117121191391, 62.602428839677309 ], [ 7.837181809558635, 62.602161667892766 ], [ 7.836666731394279, 62.60186468561924 ], [ 7.836108532974012, 62.601745815723604 ], [ 7.836066237407231, 62.601112478294951 ], [ 7.834757500071069, 62.600053341267326 ], [ 7.83529750076344, 62.597015467659332 ], [ 7.833430885541897, 62.59583744715782 ], [ 7.833474021211319, 62.595659333912387 ], [ 7.832787448343262, 62.595263341557562 ], [ 7.832830586808694, 62.595085228549017 ], [ 7.832337241929978, 62.594699176005385 ], [ 7.832488229795047, 62.594075780947435 ], [ 7.832703000887339, 62.593996666607801 ], [ 7.832682346500759, 62.59327427263009 ], [ 7.833326637038215, 62.593036927411092 ], [ 7.833820850567721, 62.592611525352829 ], [ 7.833928667965453, 62.592166241611551 ], [ 7.834572924252536, 62.591928890165555 ], [ 7.835111061361262, 62.590513917718006 ], [ 7.836421025663483, 62.589950142254892 ], [ 7.83567069798965, 62.589009885290359 ], [ 7.834297806896243, 62.588217922291307 ], [ 7.834340923357353, 62.588039808511965 ], [ 7.833997713653928, 62.5878418159338 ], [ 7.834105506469832, 62.587396531714518 ], [ 7.833783864512286, 62.587109481880809 ], [ 7.833956330993115, 62.586397027325113 ], [ 7.833419990479356, 62.586189093912523 ] ] } }
]
}
