{
"type": "FeatureCollection",
"name": "loftskarstinden_28_wgs84",
"crs": { "type": "name", "properties": { "name": "urn:ogc:def:crs:OGC:1.3:CRS84" } },
"features": [
{ "type": "Feature", "properties": { "cat": 1 }, "geometry": { "type": "LineString", "coordinates": [ [ 7.823668784853116, 62.620762068517436 ], [ 7.823925812631185, 62.621316308321326 ], [ 7.824441085775465, 62.621613340289109 ], [ 7.824396656015586, 62.622602895899362 ], [ 7.825920969454862, 62.623583037165815 ], [ 7.828241678500397, 62.62370246558708 ], [ 7.828757035939252, 62.623999482759892 ], [ 7.830304204275893, 62.624079074943026 ], [ 7.830949199128053, 62.62384175032409 ], [ 7.831014002108191, 62.623574582978137 ], [ 7.831658980234878, 62.623337254850483 ], [ 7.832134114358942, 62.621378023330792 ], [ 7.832349089005519, 62.62129891231428 ], [ 7.832457060536158, 62.620853631846323 ], [ 7.833101966873, 62.620616296070601 ], [ 7.83398710679124, 62.616964985885275 ], [ 7.833643576816018, 62.616766988089296 ], [ 7.833837850424339, 62.615965480351292 ], [ 7.832463806626411, 62.615173483654338 ], [ 7.832679686123774, 62.614282921576873 ], [ 7.832357783033947, 62.613995864916589 ], [ 7.832444133523953, 62.613639640172607 ], [ 7.831993676943109, 62.613075470132642 ], [ 7.832813921043373, 62.609691333860468 ], [ 7.833286854123194, 62.609354994150088 ], [ 7.833868577714727, 62.607761919517699 ], [ 7.834664206408826, 62.606901176206833 ], [ 7.835354514444322, 62.604051358523712 ], [ 7.834152651282895, 62.603358380989782 ], [ 7.834195796474123, 62.603180267654579 ], [ 7.833852418945123, 62.602982272439668 ], [ 7.834046572664151, 62.602180762747565 ], [ 7.833896461741133, 62.601992708510004 ], [ 7.834755759669918, 62.601676243406331 ], [ 7.834477105132645, 62.601211079510449 ], [ 7.834757500071069, 62.600053341267326 ], [ 7.834585826257793, 62.599954344659878 ], [ 7.834779935129287, 62.59915283332893 ], [ 7.835510598482407, 62.598559252069215 ], [ 7.835403623813547, 62.598193085572532 ], [ 7.83572707096842, 62.596857230377871 ], [ 7.835383753498144, 62.596659239747915 ], [ 7.835319911207653, 62.596114959290851 ], [ 7.834633302942657, 62.595718975543335 ], [ 7.834741122473463, 62.59527369120682 ], [ 7.834397829400603, 62.595075698480997 ], [ 7.835540536118507, 62.590355679706946 ], [ 7.836421025663483, 62.589950142254892 ], [ 7.836249402490221, 62.589851148382692 ], [ 7.836378724081434, 62.589316804817258 ], [ 7.836035486220983, 62.589118816872748 ], [ 7.835971639304195, 62.5885745366392 ], [ 7.835113580823775, 62.588079563179974 ], [ 7.834899702682354, 62.587347230443683 ], [ 7.834041696705771, 62.586852251101455 ], [ 7.834127927084899, 62.586496023651669 ], [ 7.833419990479356, 62.586189093912523 ] ] } }
]
}
