{
"type": "FeatureCollection",
"name": "loftskarstinden_24_wgs84",
"crs": { "type": "name", "properties": { "name": "urn:ogc:def:crs:OGC:1.3:CRS84" } },
"features": [
{ "type": "Feature", "properties": { "cat": 1 }, "geometry": { "type": "LineString", "coordinates": [ [ 7.823668784853116, 62.620762068517436 ], [ 7.821500981287437, 62.619207744274483 ], [ 7.821780840108836, 62.6188614876882 ], [ 7.821760473759742, 62.618139096076355 ], [ 7.820901833752445, 62.617644027259551 ], [ 7.820731392651457, 62.616733567612087 ], [ 7.81993769099803, 62.615971332100258 ], [ 7.81987411408919, 62.615427048231425 ], [ 7.819530697852955, 62.615229017235656 ], [ 7.81916697973109, 62.614308594276309 ], [ 7.818823580818542, 62.614110561775398 ], [ 7.818888465872024, 62.61384340117597 ], [ 7.818051625058089, 62.613259263600476 ], [ 7.817966455613596, 62.612804032754262 ], [ 7.817473027594378, 62.61241792650727 ], [ 7.818057012498921, 62.610013485929912 ], [ 7.819776392061806, 62.609380756343377 ], [ 7.819841255455675, 62.609113595002597 ], [ 7.821775450929716, 62.608401746530483 ], [ 7.822747952941837, 62.604394303163154 ], [ 7.821889679526127, 62.603899245405643 ], [ 7.82217059667087, 62.602741539621697 ], [ 7.823266499099055, 62.602256995587645 ], [ 7.82354616474594, 62.601910732813202 ], [ 7.823697383350447, 62.601287350440245 ], [ 7.823397304411374, 62.600911221476032 ], [ 7.823656526194801, 62.59984256601475 ], [ 7.823914562893949, 62.599585356769673 ], [ 7.826277674088089, 62.598715234708912 ], [ 7.826622040894293, 62.598101799180895 ], [ 7.829135011770719, 62.59741968733659 ], [ 7.829199758008535, 62.597152520041348 ], [ 7.828534793760021, 62.596667451338561 ], [ 7.828814341632077, 62.596321176389139 ], [ 7.828192568869954, 62.595657994997666 ], [ 7.828235735573745, 62.595479883796514 ], [ 7.827892484672788, 62.595281875630143 ], [ 7.828150442892678, 62.595024657473786 ], [ 7.827463956960563, 62.594628640092068 ], [ 7.827915115250251, 62.594381371455093 ], [ 7.828001446691619, 62.594025149183125 ], [ 7.828431010042594, 62.593866934284748 ], [ 7.828087775787238, 62.593668926825352 ], [ 7.828367298303795, 62.593322652423552 ], [ 7.828195683858186, 62.593223648757515 ], [ 7.828883165758969, 62.592808213205707 ], [ 7.828841025158, 62.592174875686261 ], [ 7.82948532084995, 62.591937548288172 ], [ 7.829871695782963, 62.591957440243682 ], [ 7.833307752943198, 62.590691631767491 ], [ 7.834295219728846, 62.590652275889958 ], [ 7.835583649072417, 62.590177565496489 ], [ 7.835970006323153, 62.590197440310703 ], [ 7.836657308893269, 62.589781963979078 ], [ 7.836593449899405, 62.589237683866685 ], [ 7.834898859787129, 62.588158681916696 ], [ 7.834835034698648, 62.587614401458929 ], [ 7.833826982010974, 62.586931368273987 ], [ 7.833891657160892, 62.586664197823644 ], [ 7.833376871909902, 62.586367207379176 ], [ 7.833419990479356, 62.586189093912523 ] ] } }
]
}
