{
"type": "FeatureCollection",
"name": "loftskarstinden_23_wgs84",
"crs": { "type": "name", "properties": { "name": "urn:ogc:def:crs:OGC:1.3:CRS84" } },
"features": [
{ "type": "Feature", "properties": { "cat": 1 }, "geometry": { "type": "LineString", "coordinates": [ [ 7.823668784853116, 62.620762068517436 ], [ 7.823775677481971, 62.621128242871144 ], [ 7.824462704366049, 62.621524285757282 ], [ 7.824590040600421, 62.622612851748201 ], [ 7.825920969454862, 62.623583037165815 ], [ 7.828241678500397, 62.62370246558708 ], [ 7.828757035939252, 62.623999482759892 ], [ 7.83049760097904, 62.624089022768658 ], [ 7.830927597840918, 62.623930806095338 ], [ 7.831207395828942, 62.623584529779457 ], [ 7.832088959947766, 62.623179034364732 ], [ 7.832261732739085, 62.622466586150864 ], [ 7.832691696411188, 62.622308363589269 ], [ 7.833079422715311, 62.621516802198293 ], [ 7.833509368066151, 62.621358576867465 ], [ 7.833638912928151, 62.62082423893338 ], [ 7.834283809488857, 62.620586897561942 ], [ 7.834541947436566, 62.620329670046196 ], [ 7.835015935420845, 62.619181875972117 ], [ 7.835660784752018, 62.618944527592852 ], [ 7.835855022014798, 62.618143016556985 ], [ 7.836069963057371, 62.618063899350027 ], [ 7.837321387700825, 62.612898593106877 ], [ 7.83843900453334, 62.612324874641061 ], [ 7.839625031487286, 62.607426710362219 ], [ 7.839453299896132, 62.607327718963106 ], [ 7.839776691206873, 62.605991853652895 ], [ 7.839089801635205, 62.605595888033434 ], [ 7.838961202674326, 62.605318780995795 ], [ 7.837415785671163, 62.604427845706638 ], [ 7.836943797333078, 62.603952749360644 ], [ 7.836815224707825, 62.60367564070151 ], [ 7.837181809558635, 62.602161667892766 ], [ 7.836709858778271, 62.60168657126313 ], [ 7.837356699215109, 62.599014853352493 ], [ 7.835790085025786, 62.598212962302114 ], [ 7.835919461010297, 62.597678619917161 ], [ 7.835640821616673, 62.597213458547564 ], [ 7.835856440601487, 62.596322887962749 ], [ 7.836329116837719, 62.595986534426793 ], [ 7.836157460330227, 62.59588753998873 ], [ 7.83626525782133, 62.595442254173626 ], [ 7.835921952450636, 62.595244265032861 ], [ 7.836137544904985, 62.594353693646696 ], [ 7.835965898155608, 62.594254699105363 ], [ 7.836741924959898, 62.591048638845471 ], [ 7.835733715808816, 62.590365617322121 ], [ 7.836614203094061, 62.589960078619249 ], [ 7.836851277743603, 62.588980447833322 ], [ 7.836572696587034, 62.588515289107882 ], [ 7.835543019483223, 62.587921324667775 ], [ 7.835436074356937, 62.587555158587485 ], [ 7.834084812188153, 62.586674137387256 ], [ 7.834127927084899, 62.586496023651669 ], [ 7.833419990479356, 62.586189093912523 ] ] } }
]
}
