{
"type": "FeatureCollection",
"name": "loftskarstinden_11_wgs84",
"crs": { "type": "name", "properties": { "name": "urn:ogc:def:crs:OGC:1.3:CRS84" } },
"features": [
{ "type": "Feature", "properties": { "cat": 1 }, "geometry": { "type": "LineString", "coordinates": [ [ 7.823668784853116, 62.620762068517436 ], [ 7.822316428629187, 62.619880918417216 ], [ 7.822381298265095, 62.619613755987039 ], [ 7.821715967157909, 62.619128649794533 ], [ 7.821760473759742, 62.618139096076355 ], [ 7.820773360937709, 62.617366905188689 ], [ 7.820731392651457, 62.616733567612087 ], [ 7.81993769099803, 62.615971332100258 ], [ 7.81987411408919, 62.615427048231425 ], [ 7.819530697852955, 62.615229017235656 ], [ 7.81916697973109, 62.614308594276309 ], [ 7.818823580818542, 62.614110561775398 ], [ 7.818866837667874, 62.613932454714501 ], [ 7.818051625058089, 62.613259263600476 ], [ 7.817623081708416, 62.612605997638362 ], [ 7.818185432280282, 62.610290609783782 ], [ 7.819474984155758, 62.609816063628571 ], [ 7.819926446812669, 62.609568825006519 ], [ 7.819991309378723, 62.60930166358478 ], [ 7.82428941639893, 62.607719735608519 ], [ 7.826222300279619, 62.60781927043157 ], [ 7.827424147830203, 62.608512316083186 ], [ 7.828970505633071, 62.60859191202109 ], [ 7.829615165693007, 62.608354589001706 ], [ 7.830001754072745, 62.608374483506047 ], [ 7.832988440384975, 62.607355982725089 ], [ 7.835373501215013, 62.60639665519917 ], [ 7.835934320620841, 62.604081174977431 ], [ 7.836557260548642, 62.603932874799597 ], [ 7.836686654328227, 62.603398531954184 ], [ 7.836514955260464, 62.603299537378739 ], [ 7.837031678617131, 62.60197361675754 ], [ 7.835829856450585, 62.60128065423153 ], [ 7.835916118507078, 62.600924426122191 ], [ 7.834714364000257, 62.600231454902101 ], [ 7.834757500071069, 62.600053341267326 ], [ 7.834414153583495, 62.599855347856554 ], [ 7.834780800899664, 62.598341382194 ], [ 7.834437473346885, 62.598143389097629 ], [ 7.834588439383355, 62.59751999147408 ], [ 7.83383799428916, 62.596579723065901 ], [ 7.833924262898747, 62.596223496273282 ], [ 7.8332376712942, 62.595827505880621 ], [ 7.832937520822671, 62.595451396468498 ], [ 7.83302379606254, 62.59509517032226 ], [ 7.832745224147073, 62.594630004083257 ], [ 7.832917770841189, 62.593917551921798 ], [ 7.832746137527192, 62.593818553599888 ], [ 7.832897111151614, 62.593195157903459 ], [ 7.833111874664098, 62.593116042830452 ], [ 7.833672552388864, 62.590800569685236 ], [ 7.835583649072417, 62.590177565496489 ], [ 7.835970006323153, 62.590197440310703 ], [ 7.836399471975226, 62.590039199529336 ], [ 7.836507238952568, 62.589593913103606 ], [ 7.836035486220983, 62.589118816872748 ], [ 7.833847669787646, 62.587653762550232 ], [ 7.833956330993115, 62.586397027325113 ], [ 7.833419990479356, 62.586189093912523 ] ] } }
]
}
