{
"type": "FeatureCollection",
"name": "loftskarstinden_15_wgs84",
"crs": { "type": "name", "properties": { "name": "urn:ogc:def:crs:OGC:1.3:CRS84" } },
"features": [
{ "type": "Feature", "properties": { "cat": 1 }, "geometry": { "type": "LineString", "coordinates": [ [ 7.823668784853116, 62.620762068517436 ], [ 7.823775677481971, 62.621128242871144 ], [ 7.824441085775465, 62.621613340289109 ], [ 7.824590040600421, 62.622612851748201 ], [ 7.826135976469513, 62.62350393616353 ], [ 7.828241678500397, 62.62370246558708 ], [ 7.828757035939252, 62.623999482759892 ], [ 7.830304204275893, 62.624079074943026 ], [ 7.830949199128053, 62.62384175032409 ], [ 7.831035602807816, 62.623485527185423 ], [ 7.831530384845399, 62.623060141025739 ], [ 7.832112518895111, 62.621467079365267 ], [ 7.832542468481922, 62.62130885707154 ], [ 7.832628843718478, 62.620952632557184 ], [ 7.833703683377435, 62.620557069893998 ], [ 7.834309056331994, 62.617252039415021 ], [ 7.834523994733495, 62.61717292455377 ], [ 7.83463191466265, 62.616727641696166 ], [ 7.835061780874745, 62.616569410503388 ], [ 7.835191271344706, 62.61603507038118 ], [ 7.83540619843865, 62.615955954006701 ], [ 7.836635216329737, 62.6116911622807 ], [ 7.838182565898742, 62.610959206683994 ], [ 7.838657019130022, 62.608999943632952 ], [ 7.838184942498357, 62.608524850292675 ], [ 7.838788716824935, 62.606031241438899 ], [ 7.83829511992514, 62.605645206558101 ], [ 7.838231215309549, 62.605100926600208 ], [ 7.837759203695851, 62.604625832697998 ], [ 7.837888579703451, 62.60409148849665 ], [ 7.837030055881655, 62.603596520517335 ], [ 7.837288817460486, 62.602527833473516 ], [ 7.836945426061516, 62.60232984568519 ], [ 7.836838422976556, 62.601963679906298 ], [ 7.837485259512552, 62.599291961348399 ], [ 7.837356699215109, 62.599014853352493 ], [ 7.835790085025786, 62.598212962302114 ], [ 7.836221317799257, 62.596431820269473 ], [ 7.836092780077972, 62.59615471141359 ], [ 7.833926029345067, 62.594600594474443 ], [ 7.834443555817004, 62.592463231412864 ], [ 7.83508781474035, 62.592225877623726 ], [ 7.835755271789902, 62.590276560181955 ], [ 7.836614203094061, 62.589960078619249 ], [ 7.836678861573291, 62.589692906650932 ], [ 7.836550344718762, 62.589415798495835 ], [ 7.834512529915967, 62.58813880450743 ], [ 7.83423399279786, 62.587673641708406 ], [ 7.833719187166126, 62.587376652250846 ], [ 7.833419990479356, 62.586189093912523 ] ] } }
]
}
