{
"type": "FeatureCollection",
"name": "loftskarstinden_31_wgs84",
"crs": { "type": "name", "properties": { "name": "urn:ogc:def:crs:OGC:1.3:CRS84" } },
"features": [
{ "type": "Feature", "properties": { "cat": 1 }, "geometry": { "type": "LineString", "coordinates": [ [ 7.823668784853116, 62.620762068517436 ], [ 7.822638293211925, 62.620167997717239 ], [ 7.821500981287437, 62.619207744274483 ], [ 7.821780840108836, 62.6188614876882 ], [ 7.821760473759742, 62.618139096076355 ], [ 7.820901833752445, 62.617644027259551 ], [ 7.820731392651457, 62.616733567612087 ], [ 7.81993769099803, 62.615971332100258 ], [ 7.81987411408919, 62.615427048231425 ], [ 7.819530697852955, 62.615229017235656 ], [ 7.819445501903612, 62.614773786933362 ], [ 7.818823580818542, 62.614110561775398 ], [ 7.818888465872024, 62.61384340117597 ], [ 7.818051625058089, 62.613259263600476 ], [ 7.81794482560668, 62.612893086125453 ], [ 7.817429765189969, 62.612596033060797 ], [ 7.816506452907033, 62.612368100008332 ], [ 7.815133044061978, 62.611575941280279 ], [ 7.815435951679586, 62.610329201072062 ], [ 7.820142650223399, 62.608678286746027 ], [ 7.820658942920639, 62.608163883785856 ], [ 7.821069650525595, 62.60647185756455 ], [ 7.820211347870991, 62.605976789082057 ], [ 7.820297814328736, 62.605620573435367 ], [ 7.81995450462457, 62.605422544930875 ], [ 7.820278745592131, 62.604086736460793 ], [ 7.820708497908749, 62.603928547939759 ], [ 7.820989461388746, 62.602770845167498 ], [ 7.823396122426049, 62.601722668210556 ], [ 7.82372132833845, 62.599575402028648 ], [ 7.825031913823012, 62.599011742082865 ], [ 7.825376310048264, 62.598398310033311 ], [ 7.826686811588375, 62.597834633386789 ], [ 7.827459710491128, 62.597874433770727 ], [ 7.828533760021864, 62.597478900144864 ], [ 7.828814341632077, 62.596321176389139 ], [ 7.828707456296255, 62.595955005972989 ], [ 7.82821415229516, 62.595568939399783 ], [ 7.828300484529776, 62.595212716954578 ], [ 7.828515274812444, 62.595133609327846 ], [ 7.828343649767377, 62.595034605699816 ], [ 7.828516304853359, 62.594322160466248 ], [ 7.828774248851494, 62.594064940961147 ], [ 7.828087775787238, 62.593668926825352 ], [ 7.828367298303795, 62.593322652423552 ], [ 7.827852458381923, 62.593025640838334 ], [ 7.828779339228002, 62.590007695798789 ], [ 7.827942942282561, 62.589423623584366 ], [ 7.828866654847225, 62.588840023486036 ], [ 7.828695063673698, 62.588741020751172 ], [ 7.828802939974731, 62.58829574177404 ], [ 7.829447149694685, 62.588058413376316 ], [ 7.829555011600593, 62.587613133619939 ], [ 7.830628653823734, 62.587217578288822 ], [ 7.830908081363033, 62.586871297491392 ], [ 7.833033687431508, 62.586169212770919 ], [ 7.833419990479356, 62.586189093912523 ] ] } }
]
}
