{
"type": "FeatureCollection",
"name": "loftskarstinden_05_wgs84",
"crs": { "type": "name", "properties": { "name": "urn:ogc:def:crs:OGC:1.3:CRS84" } },
"features": [
{ "type": "Feature", "properties": { "cat": 1 }, "geometry": { "type": "LineString", "coordinates": [ [ 7.823668784853116, 62.620762068517436 ], [ 7.822831661203299, 62.620177955777343 ], [ 7.82287490523449, 62.61999984730177 ], [ 7.82152260646869, 62.619118690287522 ], [ 7.821759215938876, 62.618950541728999 ], [ 7.821760473759742, 62.618139096076355 ], [ 7.820901833752445, 62.617644027259551 ], [ 7.820731392651457, 62.616733567612087 ], [ 7.81993769099803, 62.615971332100258 ], [ 7.819852487376223, 62.615516101942731 ], [ 7.819530697852955, 62.615229017235656 ], [ 7.819595579648216, 62.614961856263626 ], [ 7.819123723985767, 62.61448670144518 ], [ 7.81916697973109, 62.614308594276309 ], [ 7.818823580818542, 62.614110561775398 ], [ 7.818888465872024, 62.61384340117597 ], [ 7.818051625058089, 62.613259263600476 ], [ 7.817623081708416, 62.612605997638362 ], [ 7.818142178071952, 62.610468716670866 ], [ 7.818357107667452, 62.610389626598071 ], [ 7.818443612628823, 62.61003341262996 ], [ 7.819733149064515, 62.609558863877005 ], [ 7.81981963447133, 62.609202648788219 ], [ 7.820271084649362, 62.608955408880099 ], [ 7.822420162241801, 62.608164457466081 ], [ 7.825126233146926, 62.608303835440537 ], [ 7.826693067016574, 62.609105849259556 ], [ 7.830967239413408, 62.60923566453328 ], [ 7.833545813849343, 62.608286316769025 ], [ 7.833761597488919, 62.607395751695449 ], [ 7.834642631863763, 62.606990232921056 ], [ 7.835504644308052, 62.604239411448596 ], [ 7.836557260548642, 62.603932874799597 ], [ 7.836686654328227, 62.603398531954184 ], [ 7.836514955260464, 62.603299537378739 ], [ 7.837010115698004, 62.602062673997487 ], [ 7.836108532974012, 62.601745815723604 ], [ 7.83570130429348, 62.601003544822014 ], [ 7.834714364000257, 62.600231454902101 ], [ 7.834585826257793, 62.599954344659878 ], [ 7.834779935129287, 62.59915283332893 ], [ 7.835510598482407, 62.598559252069215 ], [ 7.835403623813547, 62.598193085572532 ], [ 7.835533006630921, 62.597658743639222 ], [ 7.835747796468117, 62.597579624865787 ], [ 7.835705508850219, 62.596946287428317 ], [ 7.833152300960619, 62.595372281560415 ], [ 7.832745224147073, 62.594630004083257 ], [ 7.832896203017223, 62.594006608460731 ], [ 7.832038045717921, 62.593511614731909 ], [ 7.832295952080805, 62.593254388198012 ], [ 7.832210601114697, 62.592799163562134 ], [ 7.834229669618734, 62.591730897547855 ], [ 7.834315915694681, 62.591374670200821 ], [ 7.834745407298495, 62.591216434869338 ], [ 7.835024827972327, 62.590870145730769 ], [ 7.835669046987062, 62.590632788710494 ], [ 7.835755271789902, 62.590276560181955 ], [ 7.836399471975226, 62.590039199529336 ], [ 7.83646413260081, 62.589772027689961 ], [ 7.83567069798965, 62.589009885290359 ], [ 7.833611388660743, 62.587821936093789 ], [ 7.833354428847783, 62.587267715015173 ], [ 7.833419990479356, 62.586189093912523 ] ] } }
]
}
