{
"type": "FeatureCollection",
"name": "loftskarstinden_21_wgs84",
"crs": { "type": "name", "properties": { "name": "urn:ogc:def:crs:OGC:1.3:CRS84" } },
"features": [
{ "type": "Feature", "properties": { "cat": 1 }, "geometry": { "type": "LineString", "coordinates": [ [ 7.823668784853116, 62.620762068517436 ], [ 7.82152260646869, 62.619118690287522 ], [ 7.821780840108836, 62.6188614876882 ], [ 7.821760473759742, 62.618139096076355 ], [ 7.820901833752445, 62.617644027259551 ], [ 7.820731392651457, 62.616733567612087 ], [ 7.81993769099803, 62.615971332100258 ], [ 7.819445501903612, 62.614773786933362 ], [ 7.818823580818542, 62.614110561775398 ], [ 7.818888465872024, 62.61384340117597 ], [ 7.818051625058089, 62.613259263600476 ], [ 7.817966455613596, 62.612804032754262 ], [ 7.817301343914455, 62.612318908492234 ], [ 7.817842084925041, 62.61009257556794 ], [ 7.823021642683125, 62.608105274140392 ], [ 7.82555602314803, 62.608145632497461 ], [ 7.826951163544832, 62.608848635217235 ], [ 7.831203713790702, 62.609067498115841 ], [ 7.833137643297357, 62.608355488464952 ], [ 7.83356830799296, 62.607385809851678 ], [ 7.83399804096008, 62.607227580119051 ], [ 7.834277633228052, 62.606881294832235 ], [ 7.835137072331892, 62.606564829306272 ], [ 7.835719483034122, 62.604160293386258 ], [ 7.836557260548642, 62.603932874799597 ], [ 7.836665089064649, 62.603487589108482 ], [ 7.836343257331984, 62.603200542607389 ], [ 7.836795295852609, 62.602141794305538 ], [ 7.836108532974012, 62.601745815723604 ], [ 7.835851422184506, 62.601191597212221 ], [ 7.83533637389748, 62.600894610431098 ], [ 7.835401074027065, 62.600627439631644 ], [ 7.834585826257793, 62.599954344659878 ], [ 7.834628962588335, 62.599776231068255 ], [ 7.834113950519913, 62.599479240264493 ], [ 7.833835324576158, 62.599014075472851 ], [ 7.834266689142248, 62.597232941286194 ], [ 7.834095032734526, 62.597133944310897 ], [ 7.834202866832345, 62.596688660590964 ], [ 7.833881128886989, 62.596401609680299 ], [ 7.834075227324752, 62.595600099180018 ], [ 7.83321700546291, 62.59510511182976 ], [ 7.832294101221209, 62.594877288830887 ], [ 7.831822338284804, 62.594402178211979 ], [ 7.832189032202907, 62.592888219977091 ], [ 7.834422857682501, 62.591740837093596 ], [ 7.834703141463561, 62.590583097413294 ], [ 7.836421025663483, 62.589950142254892 ], [ 7.83567069798965, 62.589009885290359 ], [ 7.834104641757722, 62.588207982884917 ], [ 7.834169317936674, 62.58794081232076 ], [ 7.833054356539149, 62.586891606911593 ], [ 7.832990566586508, 62.586347326087051 ], [ 7.833419990479356, 62.586189093912523 ] ] } }
]
}
