{
"type": "FeatureCollection",
"name": "loftskarstinden_26_wgs84",
"crs": { "type": "name", "properties": { "name": "urn:ogc:def:crs:OGC:1.3:CRS84" } },
"features": [
{ "type": "Feature", "properties": { "cat": 1 }, "geometry": { "type": "LineString", "coordinates": [ [ 7.823668784853116, 62.620762068517436 ], [ 7.823775677481971, 62.621128242871144 ], [ 7.824462704366049, 62.621524285757282 ], [ 7.824590040600421, 62.622612851748201 ], [ 7.826135976469513, 62.62350393616353 ], [ 7.827489717876457, 62.623573605272107 ], [ 7.827661499255172, 62.623672612073413 ], [ 7.828435071876005, 62.623712416226198 ], [ 7.828778643795761, 62.62391042741406 ], [ 7.829939015743755, 62.623970122921541 ], [ 7.831250595940334, 62.623406418113284 ], [ 7.831789559282584, 62.621991469868647 ], [ 7.833337579603427, 62.621259577169077 ], [ 7.833445536140097, 62.620814295732309 ], [ 7.834090433971601, 62.620576955272 ], [ 7.834565351807234, 62.618617712518443 ], [ 7.834393575041153, 62.618518714278487 ], [ 7.834501503124475, 62.618073431634372 ], [ 7.834931389998777, 62.617915201124994 ], [ 7.836613643278575, 62.611780219318852 ], [ 7.836828535120809, 62.611701100272654 ], [ 7.836957966928594, 62.611166757705327 ], [ 7.837839074287257, 62.610761219737583 ], [ 7.837903779172985, 62.61049404784962 ], [ 7.83833353598588, 62.610335805085128 ], [ 7.839003560403488, 62.60595211838411 ], [ 7.838488400110831, 62.605655141724661 ], [ 7.838596207632682, 62.605209854257126 ], [ 7.837737640515067, 62.604714890046154 ], [ 7.837759997670378, 62.603814380580609 ], [ 7.837438151826402, 62.603527336414444 ], [ 7.837546762347363, 62.602270597758832 ], [ 7.836108532974012, 62.601745815723604 ], [ 7.83570130429348, 62.601003544822014 ], [ 7.834714364000257, 62.600231454902101 ], [ 7.834650530533792, 62.599687174264417 ], [ 7.833985421236076, 62.599202129583482 ], [ 7.834740261093004, 62.596085142408462 ], [ 7.83285215582162, 62.594996172036737 ], [ 7.832745224147073, 62.594630004083257 ], [ 7.832896203017223, 62.594006608460731 ], [ 7.832574505351617, 62.593719555082181 ], [ 7.833112775305363, 62.592304592167565 ], [ 7.833542286878877, 62.592146360815242 ], [ 7.833650106306203, 62.591701077316465 ], [ 7.834337476847531, 62.591285613350678 ], [ 7.83448840081689, 62.590662215249758 ], [ 7.836421025663483, 62.589950142254892 ], [ 7.83567069798965, 62.589009885290359 ], [ 7.833611388660743, 62.587821936093789 ], [ 7.833354428847783, 62.587267715015173 ], [ 7.833570024791227, 62.586377147626784 ], [ 7.833419990479356, 62.586189093912523 ] ] } }
]
}
