{
"type": "FeatureCollection",
"name": "loftskarstinden_29_wgs84",
"crs": { "type": "name", "properties": { "name": "urn:ogc:def:crs:OGC:1.3:CRS84" } },
"features": [
{ "type": "Feature", "properties": { "cat": 1 }, "geometry": { "type": "LineString", "coordinates": [ [ 7.823668784853116, 62.620762068517436 ], [ 7.824958718809686, 62.620287476882218 ], [ 7.825345458466933, 62.620307386352309 ], [ 7.826398756593537, 62.620000935683841 ], [ 7.828139078404611, 62.620090501803936 ], [ 7.82914913535198, 62.619962140517018 ], [ 7.83088946540443, 62.620051672441413 ], [ 7.832609177418036, 62.619418789216276 ], [ 7.832652361445501, 62.619240676895387 ], [ 7.833082275173895, 62.619082452449625 ], [ 7.833666090958441, 62.615866481450141 ], [ 7.833537504625488, 62.615589369592591 ], [ 7.83199173863073, 62.614698369480699 ], [ 7.83207809609702, 62.614342145058934 ], [ 7.831584456639769, 62.613956085860174 ], [ 7.832168297908209, 62.610740121429302 ], [ 7.832383193460022, 62.610661009281777 ], [ 7.832599033797614, 62.609770446784864 ], [ 7.83302880714933, 62.609612220589483 ], [ 7.833546729719105, 62.60747486634547 ], [ 7.833375018643649, 62.607375867742007 ], [ 7.833569221637576, 62.606574359395594 ], [ 7.833247388745429, 62.606287305737268 ], [ 7.833376855006966, 62.605752966954036 ], [ 7.833205154120182, 62.605653968279704 ], [ 7.833377770975662, 62.604941516527127 ], [ 7.833850618525728, 62.604605173736097 ], [ 7.834044785739512, 62.603803664233972 ], [ 7.833637584160069, 62.603061387679809 ], [ 7.833853316943479, 62.602170821758541 ], [ 7.833681634411089, 62.602071823919736 ], [ 7.833724780054721, 62.601893710735823 ], [ 7.834154430711087, 62.60173547939781 ], [ 7.834348565961701, 62.600933969030841 ], [ 7.834048353693638, 62.600557861173321 ], [ 7.834135519734152, 62.599390183557539 ], [ 7.833963851745466, 62.599291186263528 ], [ 7.83454704468111, 62.596075202916161 ], [ 7.83285215582162, 62.594996172036737 ], [ 7.832122464688903, 62.594778289697601 ], [ 7.832165606243101, 62.594600176936709 ], [ 7.83167227783875, 62.594214122264347 ], [ 7.831844847166663, 62.593501671738636 ], [ 7.831673219837739, 62.593402672177476 ], [ 7.832255583500876, 62.590998149993787 ], [ 7.833973542618271, 62.590365226017013 ], [ 7.834081347399583, 62.589919941982807 ], [ 7.835369747471308, 62.589445233165783 ], [ 7.834854900583438, 62.589148247341107 ], [ 7.83446855790151, 62.589128369635297 ], [ 7.833610509670053, 62.588633387065336 ], [ 7.833954595502625, 62.588019929584043 ], [ 7.832796515535803, 62.587148835744529 ], [ 7.832990566586508, 62.586347326087051 ], [ 7.833419990479356, 62.586189093912523 ] ] } }
]
}
