{
"type": "FeatureCollection",
"name": "loftskarstinden_09_wgs84",
"crs": { "type": "name", "properties": { "name": "urn:ogc:def:crs:OGC:1.3:CRS84" } },
"features": [
{ "type": "Feature", "properties": { "cat": 1 }, "geometry": { "type": "LineString", "coordinates": [ [ 7.823668784853116, 62.620762068517436 ], [ 7.823775677481971, 62.621128242871144 ], [ 7.824462704366049, 62.621524285757282 ], [ 7.824611659667079, 62.62252379720001 ], [ 7.825942585427809, 62.623493982369546 ], [ 7.827296325806026, 62.623563653340447 ], [ 7.827468106467315, 62.62366266037008 ], [ 7.828241678500397, 62.62370246558708 ], [ 7.828778643795761, 62.62391042741406 ], [ 7.830325807568339, 62.623990019295569 ], [ 7.831873970661809, 62.623258144781005 ], [ 7.832262709138197, 62.621655136592132 ], [ 7.833380762658494, 62.621081464610448 ], [ 7.833445536140097, 62.620814295732309 ], [ 7.834305397633903, 62.620497841091748 ], [ 7.834434923421947, 62.619963502158001 ], [ 7.834864838718691, 62.619805272241031 ], [ 7.835015935420845, 62.619181875972117 ], [ 7.835660784752018, 62.618944527592852 ], [ 7.835855022014798, 62.618143016556985 ], [ 7.836069963057371, 62.618063899350027 ], [ 7.837278243339825, 62.613076707415132 ], [ 7.837557857269878, 62.612730415853648 ], [ 7.838202543254701, 62.61249305350092 ], [ 7.839281569444636, 62.607228727368025 ], [ 7.838787947067561, 62.6068426938862 ], [ 7.839047442082632, 62.604962550645823 ], [ 7.838017163982448, 62.604368596324491 ], [ 7.838060287885871, 62.604190481504773 ], [ 7.837566729758102, 62.603804444571637 ], [ 7.837717666665283, 62.603181043174374 ], [ 7.837460514868803, 62.602626827073834 ], [ 7.837117121191391, 62.602428839677309 ], [ 7.837181809558635, 62.602161667892766 ], [ 7.835829856450585, 62.60128065423153 ], [ 7.834585826257793, 62.599954344659878 ], [ 7.834779935129287, 62.59915283332893 ], [ 7.835510598482407, 62.598559252069215 ], [ 7.835403623813547, 62.598193085572532 ], [ 7.835834879362179, 62.596411945045304 ], [ 7.834976604797898, 62.595916967808741 ], [ 7.834891207527361, 62.595461744186316 ], [ 7.832831498666256, 62.594273778045377 ], [ 7.832896203017223, 62.594006608460731 ], [ 7.832402874314457, 62.593620556368705 ], [ 7.832145893939787, 62.593066332790954 ], [ 7.832661691991216, 62.592551878646233 ], [ 7.833542286878877, 62.592146360815242 ], [ 7.834122730053855, 62.591364730539951 ], [ 7.834552222502987, 62.591206495815115 ], [ 7.834724700729311, 62.590494040477324 ], [ 7.836614203094061, 62.589960078619249 ], [ 7.836678861573291, 62.589692906650932 ], [ 7.836250211453393, 62.589039696442818 ], [ 7.833182831099522, 62.587168717714107 ], [ 7.833333752754776, 62.58654532082442 ], [ 7.833162159101748, 62.586446323553581 ], [ 7.833419990479356, 62.586189093912523 ] ] } }
]
}
