{
"type": "FeatureCollection",
"name": "loftskarstinden_03_wgs84",
"crs": { "type": "name", "properties": { "name": "urn:ogc:def:crs:OGC:1.3:CRS84" } },
"features": [
{ "type": "Feature", "properties": { "cat": 1 }, "geometry": { "type": "LineString", "coordinates": [ [ 7.823668784853116, 62.620762068517436 ], [ 7.823540274333251, 62.620484948483544 ], [ 7.822338051988164, 62.619791864279193 ], [ 7.822209557624736, 62.619514743238923 ], [ 7.82152260646869, 62.619118690287522 ], [ 7.821759215938876, 62.618950541728999 ], [ 7.821760473759742, 62.618139096076355 ], [ 7.821073559473112, 62.61774304141467 ], [ 7.820773360937709, 62.617366905188689 ], [ 7.820731392651457, 62.616733567612087 ], [ 7.81993769099803, 62.615971332100258 ], [ 7.81987411408919, 62.615427048231425 ], [ 7.819530697852955, 62.615229017235656 ], [ 7.81916697973109, 62.614308594276309 ], [ 7.818823580818542, 62.614110561775398 ], [ 7.818888465872024, 62.61384340117597 ], [ 7.818051625058089, 62.613259263600476 ], [ 7.81794482560668, 62.612893086125453 ], [ 7.817086397278342, 62.612397996705432 ], [ 7.817648784657712, 62.610082611515473 ], [ 7.822376937327207, 62.608342566066298 ], [ 7.823729977159001, 62.608412262095278 ], [ 7.825103480050695, 62.609204337459083 ], [ 7.830902475665901, 62.609502832401908 ], [ 7.834104122850889, 62.608405198425736 ], [ 7.834147277626238, 62.608227085238632 ], [ 7.834577020104197, 62.608068853852011 ], [ 7.835719483034122, 62.604160293386258 ], [ 7.836772094294211, 62.603853755047872 ], [ 7.837181809558635, 62.602161667892766 ], [ 7.836666731394279, 62.60186468561924 ], [ 7.836108532974012, 62.601745815723604 ], [ 7.83570130429348, 62.601003544822014 ], [ 7.834714364000257, 62.600231454902101 ], [ 7.834585826257793, 62.599954344659878 ], [ 7.834779935129287, 62.59915283332893 ], [ 7.835510598482407, 62.598559252069215 ], [ 7.835403623813547, 62.598193085572532 ], [ 7.835533006630921, 62.597658743639222 ], [ 7.835747796468117, 62.597579624865787 ], [ 7.835856440601487, 62.596322887962749 ], [ 7.836758666480171, 62.595828293686587 ], [ 7.83684489734841, 62.595472064572213 ], [ 7.836673241946503, 62.595373070784085 ], [ 7.83590039239967, 62.595333322142025 ], [ 7.835557090737651, 62.595135332153404 ], [ 7.83302379606254, 62.59509517032226 ], [ 7.832745224147073, 62.594630004083257 ], [ 7.832896203017223, 62.594006608460731 ], [ 7.832038045717921, 62.593511614731909 ], [ 7.832295952080805, 62.593254388198012 ], [ 7.832189032202907, 62.592888219977091 ], [ 7.833327531661266, 62.592225476664559 ], [ 7.834616045892727, 62.591750776373623 ], [ 7.834788526595521, 62.591038320991764 ], [ 7.835454308453665, 62.590711908063561 ], [ 7.835540536118507, 62.590355679706946 ], [ 7.836399471975226, 62.590039199529336 ], [ 7.83646413260081, 62.589772027689961 ], [ 7.836207104582181, 62.589217810942891 ], [ 7.833461347363124, 62.58763388232947 ], [ 7.833419990479356, 62.586189093912523 ] ] } }
]
}
