{
"type": "FeatureCollection",
"name": "loftskarstinden_18_wgs84",
"crs": { "type": "name", "properties": { "name": "urn:ogc:def:crs:OGC:1.3:CRS84" } },
"features": [
{ "type": "Feature", "properties": { "cat": 1 }, "geometry": { "type": "LineString", "coordinates": [ [ 7.823668784853116, 62.620762068517436 ], [ 7.823925812631185, 62.621316308321326 ], [ 7.824441085775465, 62.621613340289109 ], [ 7.824611659667079, 62.62252379720001 ], [ 7.826157591725017, 62.62341488132418 ], [ 7.828241678500397, 62.62370246558708 ], [ 7.828757035939252, 62.623999482759892 ], [ 7.829724015047836, 62.624049229869769 ], [ 7.831250595940334, 62.623406418113284 ], [ 7.832047731622652, 62.621734247436478 ], [ 7.832692660746774, 62.621496913863176 ], [ 7.833037190849859, 62.62088346475484 ], [ 7.834541947436566, 62.620329670046196 ], [ 7.834972765668264, 62.619359989218609 ], [ 7.83583256823172, 62.61904352436369 ], [ 7.836048382443174, 62.618152956196226 ], [ 7.836263323062176, 62.618073838685604 ], [ 7.837471571414659, 62.613086644642138 ], [ 7.838116265999659, 62.612849282805399 ], [ 7.838202543254701, 62.61249305350092 ], [ 7.838417436302759, 62.612413932023557 ], [ 7.839797507569055, 62.606714248755047 ], [ 7.839625779364302, 62.606615257614138 ], [ 7.839755132811749, 62.606080911377681 ], [ 7.839089801635205, 62.605595888033434 ], [ 7.839025882450321, 62.605051608241332 ], [ 7.837158630232384, 62.60387362900196 ], [ 7.837546762347363, 62.602270597758832 ], [ 7.837010115698004, 62.602062673997487 ], [ 7.836538169181268, 62.601587576844715 ], [ 7.836775363970784, 62.600607947858585 ], [ 7.836153327074218, 62.599944798379866 ], [ 7.836325831260801, 62.599232341433137 ], [ 7.835982483208303, 62.599034351862102 ], [ 7.835940190490355, 62.598401014428994 ], [ 7.835425187982703, 62.598104028597021 ], [ 7.835339779660979, 62.59764880510162 ], [ 7.834996456010718, 62.597450813434307 ], [ 7.835212945786066, 62.59574879277131 ], [ 7.832981566822254, 62.594461832850449 ], [ 7.833693233051823, 62.591522963879513 ], [ 7.834380598713874, 62.59110749963434 ], [ 7.83448840081689, 62.590662215249758 ], [ 7.836421025663483, 62.589950142254892 ], [ 7.83567069798965, 62.589009885290359 ], [ 7.835112742473627, 62.588891014714612 ], [ 7.834597907485142, 62.588594028102655 ], [ 7.833461347363124, 62.58763388232947 ], [ 7.833182831099522, 62.587168717714107 ], [ 7.833333752754776, 62.58654532082442 ], [ 7.833162159101748, 62.586446323553581 ], [ 7.833419990479356, 62.586189093912523 ] ] } }
]
}
