{
"type": "FeatureCollection",
"name": "loftskarstinden_22_wgs84",
"crs": { "type": "name", "properties": { "name": "urn:ogc:def:crs:OGC:1.3:CRS84" } },
"features": [
{ "type": "Feature", "properties": { "cat": 1 }, "geometry": { "type": "LineString", "coordinates": [ [ 7.823668784853116, 62.620762068517436 ], [ 7.823925812631185, 62.621316308321326 ], [ 7.824441085775465, 62.621613340289109 ], [ 7.824504752731031, 62.62215762329339 ], [ 7.824976810211071, 62.622632762647747 ], [ 7.826179206833548, 62.623325826479466 ], [ 7.828048285271717, 62.623692514681906 ], [ 7.828563640558296, 62.623989532539767 ], [ 7.83049760097904, 62.624089022768658 ], [ 7.830927597840918, 62.623930806095338 ], [ 7.831207395828942, 62.623584529779457 ], [ 7.83163738154047, 62.62342631076698 ], [ 7.832435466523669, 62.620942687950624 ], [ 7.833510308300533, 62.620547126805953 ], [ 7.833790041921463, 62.620200844433086 ], [ 7.834027515808264, 62.619221223973526 ], [ 7.833683960355317, 62.619023225931862 ], [ 7.834202043888822, 62.616885871502234 ], [ 7.834416979845957, 62.616806756772533 ], [ 7.834740728378723, 62.615470908041388 ], [ 7.83523531680857, 62.615045506102312 ], [ 7.836441897685297, 62.611681224022782 ], [ 7.836656789234268, 62.611602105237161 ], [ 7.836764651557509, 62.611156819939239 ], [ 7.837839074287257, 62.610761219737583 ], [ 7.838118658149396, 62.61041492664063 ], [ 7.838959673676835, 62.606941686036905 ], [ 7.838724032213777, 62.606298414016777 ], [ 7.839113632751548, 62.603072472550842 ], [ 7.837911717854026, 62.602379526706819 ], [ 7.837010115698004, 62.602062673997487 ], [ 7.836023107225025, 62.601290592414173 ], [ 7.836087802278549, 62.601023421227289 ], [ 7.835057716735619, 62.600429447658598 ], [ 7.835275087203363, 62.597915975979433 ], [ 7.835103423540179, 62.59781698014686 ], [ 7.835577813581672, 62.595857726633994 ], [ 7.835062857333028, 62.595560740091983 ], [ 7.834312442633224, 62.594620474646156 ], [ 7.834485816205532, 62.593096568869967 ], [ 7.835151648970205, 62.592770158083283 ], [ 7.835518147944919, 62.591256188429398 ], [ 7.835346520578068, 62.591157193388888 ], [ 7.835432751171399, 62.590800965139337 ], [ 7.835647490420309, 62.590721845829258 ], [ 7.835755271789902, 62.590276560181955 ], [ 7.836807380671031, 62.589970014717935 ], [ 7.836936692897678, 62.58943567050742 ], [ 7.834727251797743, 62.588059686377299 ], [ 7.834878146834185, 62.587436287454132 ], [ 7.834191738087094, 62.587040304242699 ], [ 7.834299524314489, 62.586595019782486 ], [ 7.833419990479356, 62.586189093912523 ] ] } }
]
}
