{
"type": "FeatureCollection",
"name": "loftskarstinden_12_wgs84",
"crs": { "type": "name", "properties": { "name": "urn:ogc:def:crs:OGC:1.3:CRS84" } },
"features": [
{ "type": "Feature", "properties": { "cat": 1 }, "geometry": { "type": "LineString", "coordinates": [ [ 7.823668784853116, 62.620762068517436 ], [ 7.823712024945061, 62.620583959729068 ], [ 7.821500981287437, 62.619207744274483 ], [ 7.821780840108836, 62.6188614876882 ], [ 7.821760473759742, 62.618139096076355 ], [ 7.820901833752445, 62.617644027259551 ], [ 7.820731392651457, 62.616733567612087 ], [ 7.81993769099803, 62.615971332100258 ], [ 7.819852487376223, 62.615516101942731 ], [ 7.819530697852955, 62.615229017235656 ], [ 7.819595579648216, 62.614961856263626 ], [ 7.818823580818542, 62.614110561775398 ], [ 7.818888465872024, 62.61384340117597 ], [ 7.818051625058089, 62.613259263600476 ], [ 7.817473027594378, 62.61241792650727 ], [ 7.817927247336727, 62.610547806396944 ], [ 7.819883204367259, 62.609746932594128 ], [ 7.819969688670309, 62.609390717397403 ], [ 7.822741907863918, 62.608451534914266 ], [ 7.823901661031753, 62.608511272201149 ], [ 7.824760097489882, 62.609006319793103 ], [ 7.830924063728453, 62.609413776451071 ], [ 7.833287778993996, 62.608543543853258 ], [ 7.833546729719105, 62.60747486634547 ], [ 7.835265639968686, 62.606841939442191 ], [ 7.835523642127285, 62.60658470825274 ], [ 7.836062886473915, 62.604358284356138 ], [ 7.836685831708452, 62.604209983676419 ], [ 7.837181809558635, 62.602161667892766 ], [ 7.836688295159538, 62.60177562844386 ], [ 7.837356699215109, 62.599014853352493 ], [ 7.835961753244256, 62.598311957351285 ], [ 7.836069564816336, 62.597866671882464 ], [ 7.835640821616673, 62.597213458547564 ], [ 7.835705508850219, 62.596946287428317 ], [ 7.833817314476847, 62.595857328915002 ], [ 7.833989844529516, 62.595144875202479 ], [ 7.833303276081398, 62.594748885447288 ], [ 7.834035607379828, 62.592532408765457 ], [ 7.834315049637911, 62.592186121345101 ], [ 7.834744553276847, 62.592027886180752 ], [ 7.835024827972327, 62.590870145730769 ], [ 7.835454308453665, 62.590711908063561 ], [ 7.835540536118507, 62.590355679706946 ], [ 7.836614203094061, 62.589960078619249 ], [ 7.836678861573291, 62.589692906650932 ], [ 7.836421830107371, 62.589138690252639 ], [ 7.834534087504341, 62.588049747577465 ], [ 7.834835034698648, 62.587614401458929 ], [ 7.833633825423385, 62.586921428331848 ], [ 7.833720060939425, 62.586565201204564 ], [ 7.833376871909902, 62.586367207379176 ], [ 7.833419990479356, 62.586189093912523 ] ] } }
]
}
