{
"type": "FeatureCollection",
"name": "loftskarstinden_08_wgs84",
"crs": { "type": "name", "properties": { "name": "urn:ogc:def:crs:OGC:1.3:CRS84" } },
"features": [
{ "type": "Feature", "properties": { "cat": 1 }, "geometry": { "type": "LineString", "coordinates": [ [ 7.823668784853116, 62.620762068517436 ], [ 7.823046650860464, 62.620098859298615 ], [ 7.821672717788902, 62.619306757838537 ], [ 7.82152260646869, 62.619118690287522 ], [ 7.821780840108836, 62.6188614876882 ], [ 7.821760473759742, 62.618139096076355 ], [ 7.820901833752445, 62.617644027259551 ], [ 7.820731392651457, 62.616733567612087 ], [ 7.81993769099803, 62.615971332100258 ], [ 7.819852487376223, 62.615516101942731 ], [ 7.819530697852955, 62.615229017235656 ], [ 7.819595579648216, 62.614961856263626 ], [ 7.819123723985767, 62.61448670144518 ], [ 7.81916697973109, 62.614308594276309 ], [ 7.818823580818542, 62.614110561775398 ], [ 7.818888465872024, 62.61384340117597 ], [ 7.818051625058089, 62.613259263600476 ], [ 7.81794482560668, 62.612893086125453 ], [ 7.816914715032354, 62.612298978234072 ], [ 7.817390597048141, 62.610339807098981 ], [ 7.819776392061806, 62.609380756343377 ], [ 7.81981963447133, 62.609202648788219 ], [ 7.823043253063892, 62.608016219713711 ], [ 7.825964207050477, 62.608076483170819 ], [ 7.826822666650673, 62.608571518384188 ], [ 7.82720925547973, 62.608591420634575 ], [ 7.827552650163724, 62.60878943243624 ], [ 7.83180519755811, 62.609008276957532 ], [ 7.834168854793944, 62.608138028637057 ], [ 7.83423358541722, 62.607870858800183 ], [ 7.835780787070687, 62.607138927824685 ], [ 7.836233753017805, 62.605268731070012 ], [ 7.835933476185583, 62.60489262639652 ], [ 7.836062886473915, 62.604358284356138 ], [ 7.836685831708452, 62.604209983676419 ], [ 7.83696536219003, 62.603863692157823 ], [ 7.837288817460486, 62.602527833473516 ], [ 7.837181809558635, 62.602161667892766 ], [ 7.835829856450585, 62.60128065423153 ], [ 7.835872987771888, 62.601102540187576 ], [ 7.834714364000257, 62.600231454902101 ], [ 7.835059436154824, 62.598806545224207 ], [ 7.834952466384307, 62.598440378448416 ], [ 7.83460913655386, 62.598242385743745 ], [ 7.834975748714245, 62.596728419082531 ], [ 7.83328080810222, 62.595649392710484 ], [ 7.833410215009796, 62.595115053071545 ], [ 7.833131636815668, 62.594649887518997 ], [ 7.833368873579612, 62.59367026488043 ], [ 7.833583639402464, 62.593591149112356 ], [ 7.833820850567721, 62.592611525352829 ], [ 7.834358173295124, 62.592008007660546 ], [ 7.834509101481963, 62.591384609596027 ], [ 7.834723847430317, 62.591305491800121 ], [ 7.834810086024373, 62.59094926404493 ], [ 7.835454308453665, 62.590711908063561 ], [ 7.835755271789902, 62.590276560181955 ], [ 7.836184739718257, 62.590118320093168 ], [ 7.83646413260081, 62.589772027689961 ], [ 7.83567069798965, 62.589009885290359 ], [ 7.834104641757722, 62.588207982884917 ], [ 7.834190876370157, 62.587851755455311 ], [ 7.833847669787646, 62.587653762550232 ], [ 7.833612266178332, 62.587010485100294 ], [ 7.833784736039116, 62.586298030802865 ], [ 7.833419990479356, 62.586189093912523 ] ] } }
]
}
