{
"type": "FeatureCollection",
"name": "loftskarstinden_20_wgs84",
"crs": { "type": "name", "properties": { "name": "urn:ogc:def:crs:OGC:1.3:CRS84" } },
"features": [
{ "type": "Feature", "properties": { "cat": 1 }, "geometry": { "type": "LineString", "coordinates": [ [ 7.823668784853116, 62.620762068517436 ], [ 7.823947432491907, 62.62122725388658 ], [ 7.824462704366049, 62.621524285757282 ], [ 7.82439784815335, 62.621791449336598 ], [ 7.824998428136886, 62.622543708024118 ], [ 7.824933573918482, 62.622810871878904 ], [ 7.826114361067039, 62.623592990997508 ], [ 7.828435071876005, 62.623712416226198 ], [ 7.828778643795761, 62.62391042741406 ], [ 7.830325807568339, 62.623990019295569 ], [ 7.830970800268309, 62.62375269454747 ], [ 7.831014002108191, 62.623574582978137 ], [ 7.832088959947766, 62.623179034364732 ], [ 7.832563095147976, 62.622031250635672 ], [ 7.83301464399915, 62.621783970834748 ], [ 7.833079422715311, 62.621516802198293 ], [ 7.833509368066151, 62.621358576867465 ], [ 7.833595731894669, 62.621002351599522 ], [ 7.834283809488857, 62.620586897561942 ], [ 7.834780299693295, 62.618538597391591 ], [ 7.835425136507943, 62.618301249930887 ], [ 7.835704825095941, 62.617954963104602 ], [ 7.837235922099516, 62.612443370013139 ], [ 7.837450817264732, 62.612364250053652 ], [ 7.837558671202533, 62.611918964028717 ], [ 7.837988450946283, 62.611760722640035 ], [ 7.838225700942294, 62.610781091968228 ], [ 7.838440581221615, 62.610701970281099 ], [ 7.838871885079127, 62.608920821086059 ], [ 7.838378241357828, 62.608534785865871 ], [ 7.838938877941239, 62.606219291090916 ], [ 7.838660119068861, 62.605754134140419 ], [ 7.838789485116168, 62.605219788969656 ], [ 7.837415785671163, 62.604427845706638 ], [ 7.836943797333078, 62.603952749360644 ], [ 7.837030055881655, 62.603596520517335 ], [ 7.836514955260464, 62.603299537378739 ], [ 7.837031678617131, 62.60197361675754 ], [ 7.836688295159538, 62.60177562844386 ], [ 7.837356699215109, 62.599014853352493 ], [ 7.835961753244256, 62.598311957351285 ], [ 7.836069564816336, 62.597866671882464 ], [ 7.835726233747359, 62.597668681911081 ], [ 7.835812483751409, 62.59731245369791 ], [ 7.835640821616673, 62.597213458547564 ], [ 7.835834879362179, 62.596411945045304 ], [ 7.836758666480171, 62.595828293686587 ], [ 7.836952682638636, 62.595026778058852 ], [ 7.838456025429739, 62.594472921850844 ], [ 7.83852067981702, 62.594205748976172 ], [ 7.839164946065565, 62.593968376448409 ], [ 7.839745281271665, 62.593186721299922 ], [ 7.840818999152299, 62.592791088527918 ], [ 7.840862084984029, 62.592612972317355 ], [ 7.84017547905141, 62.592217015889489 ], [ 7.840218567680567, 62.5920388999156 ], [ 7.839875273235754, 62.591840920655635 ], [ 7.837643196802207, 62.591365488799923 ], [ 7.836741924959898, 62.591048638845471 ], [ 7.835712159681317, 62.590454674456936 ], [ 7.835755271789902, 62.590276560181955 ], [ 7.836614203094061, 62.589960078619249 ], [ 7.836678861573291, 62.589692906650932 ], [ 7.836357170848885, 62.589405862091539 ], [ 7.836271764669418, 62.588950639184738 ], [ 7.835413690583046, 62.588455667360442 ], [ 7.835479182785986, 62.587377044346226 ], [ 7.833419990479356, 62.586189093912523 ] ] } }
]
}
