{
"type": "FeatureCollection",
"name": "multi_path_smooth_galtatind_22",
"crs": { "type": "name", "properties": { "name": "urn:ogc:def:crs:EPSG::25833" } },
"features": [
{ "type": "Feature", "properties": { "cat": 1 }, "geometry": { "type": "LineString", "coordinates": [ [ 131960.0, 6962970.0 ], [ 131940.0, 6962960.0 ], [ 131940.0, 6962940.0 ], [ 131920.0, 6962920.0 ], [ 131920.0, 6962670.0 ], [ 132000.0, 6962590.0 ], [ 132030.0, 6962550.0 ], [ 132040.0, 6962510.0 ], [ 132140.0, 6962410.0 ], [ 132150.0, 6962100.0 ], [ 132120.0, 6962070.0 ], [ 132120.0, 6961840.0 ], [ 132110.0, 6961830.0 ], [ 132110.0, 6961680.0 ], [ 132100.0, 6961670.0 ], [ 132100.0, 6961460.0 ], [ 132210.0, 6961350.0 ], [ 132210.0, 6961310.0 ], [ 132340.0, 6961200.0 ], [ 132340.0, 6961170.0 ], [ 132310.0, 6961130.0 ], [ 132380.0, 6961070.0 ], [ 132380.0, 6961030.0 ], [ 132360.0, 6961010.0 ], [ 132370.0, 6960980.0 ], [ 132360.0, 6960870.0 ], [ 132370.0, 6960860.0 ], [ 132370.0, 6960810.0 ], [ 132390.0, 6960790.0 ], [ 132400.0, 6960710.0 ], [ 132510.0, 6960580.0 ], [ 132520.0, 6960430.0 ], [ 132620.0, 6960330.0 ], [ 132570.0, 6960230.0 ], [ 132470.0, 6960150.0 ], [ 132460.0, 6960090.0 ], [ 132420.0, 6960040.0 ], [ 132400.0, 6959970.0 ], [ 132400.0, 6959950.0 ], [ 132420.0, 6959930.0 ] ] } }
]
}
