{
"type": "FeatureCollection",
"name": "multi_path_smooth_galtatind_31",
"crs": { "type": "name", "properties": { "name": "urn:ogc:def:crs:EPSG::25833" } },
"features": [
{ "type": "Feature", "properties": { "cat": 1 }, "geometry": { "type": "LineString", "coordinates": [ [ 131960.0, 6962970.0 ], [ 131950.0, 6962960.0 ], [ 131950.0, 6962720.0 ], [ 131960.0, 6962690.0 ], [ 132010.0, 6962640.0 ], [ 132030.0, 6962600.0 ], [ 132030.0, 6962550.0 ], [ 132150.0, 6962430.0 ], [ 132150.0, 6962110.0 ], [ 132120.0, 6962080.0 ], [ 132120.0, 6961780.0 ], [ 132250.0, 6961650.0 ], [ 132250.0, 6961630.0 ], [ 132320.0, 6961510.0 ], [ 132320.0, 6961270.0 ], [ 132350.0, 6961230.0 ], [ 132340.0, 6961110.0 ], [ 132380.0, 6961060.0 ], [ 132380.0, 6961030.0 ], [ 132360.0, 6961010.0 ], [ 132360.0, 6960870.0 ], [ 132390.0, 6960810.0 ], [ 132400.0, 6960710.0 ], [ 132440.0, 6960670.0 ], [ 132450.0, 6960510.0 ], [ 132520.0, 6960440.0 ], [ 132520.0, 6960420.0 ], [ 132580.0, 6960360.0 ], [ 132600.0, 6960360.0 ], [ 132620.0, 6960330.0 ], [ 132570.0, 6960230.0 ], [ 132480.0, 6960150.0 ], [ 132470.0, 6960130.0 ], [ 132480.0, 6960120.0 ], [ 132470.0, 6960050.0 ], [ 132440.0, 6960010.0 ], [ 132420.0, 6959930.0 ] ] } }
]
}
