{
"type": "FeatureCollection",
"name": "multi_path_smooth_galtatind_17",
"crs": { "type": "name", "properties": { "name": "urn:ogc:def:crs:EPSG::25833" } },
"features": [
{ "type": "Feature", "properties": { "cat": 1 }, "geometry": { "type": "LineString", "coordinates": [ [ 131960.0, 6962970.0 ], [ 131950.0, 6962960.0 ], [ 131950.0, 6962740.0 ], [ 131960.0, 6962700.0 ], [ 131980.0, 6962650.0 ], [ 132020.0, 6962610.0 ], [ 132020.0, 6962580.0 ], [ 132150.0, 6962450.0 ], [ 132210.0, 6962450.0 ], [ 132260.0, 6962510.0 ], [ 132580.0, 6962510.0 ], [ 132720.0, 6962380.0 ], [ 132770.0, 6962310.0 ], [ 132770.0, 6962270.0 ], [ 132790.0, 6962250.0 ], [ 132790.0, 6962190.0 ], [ 132800.0, 6962180.0 ], [ 132790.0, 6961920.0 ], [ 132810.0, 6961910.0 ], [ 132820.0, 6961870.0 ], [ 132820.0, 6961720.0 ], [ 132810.0, 6961680.0 ], [ 132740.0, 6961610.0 ], [ 132730.0, 6961550.0 ], [ 132680.0, 6961500.0 ], [ 132660.0, 6961460.0 ], [ 132650.0, 6960980.0 ], [ 132500.0, 6960820.0 ], [ 132500.0, 6960670.0 ], [ 132520.0, 6960640.0 ], [ 132520.0, 6960590.0 ], [ 132550.0, 6960560.0 ], [ 132560.0, 6960400.0 ], [ 132620.0, 6960330.0 ], [ 132600.0, 6960300.0 ], [ 132590.0, 6960240.0 ], [ 132500.0, 6960140.0 ], [ 132500.0, 6960070.0 ], [ 132460.0, 6960030.0 ], [ 132460.0, 6959960.0 ], [ 132420.0, 6959930.0 ] ] } }
]
}
