{
"type": "FeatureCollection",
"name": "multi_path_smooth_galtatind_34",
"crs": { "type": "name", "properties": { "name": "urn:ogc:def:crs:EPSG::25833" } },
"features": [
{ "type": "Feature", "properties": { "cat": 1 }, "geometry": { "type": "LineString", "coordinates": [ [ 131960.0, 6962970.0 ], [ 131940.0, 6962960.0 ], [ 131940.0, 6962870.0 ], [ 131960.0, 6962850.0 ], [ 131960.0, 6962710.0 ], [ 131990.0, 6962680.0 ], [ 131990.0, 6962650.0 ], [ 132030.0, 6962600.0 ], [ 132030.0, 6962580.0 ], [ 132130.0, 6962480.0 ], [ 132180.0, 6962480.0 ], [ 132230.0, 6962530.0 ], [ 132580.0, 6962530.0 ], [ 132730.0, 6962380.0 ], [ 132770.0, 6962310.0 ], [ 132770.0, 6962270.0 ], [ 132790.0, 6962250.0 ], [ 132790.0, 6962020.0 ], [ 132740.0, 6961960.0 ], [ 132740.0, 6961890.0 ], [ 132690.0, 6961830.0 ], [ 132680.0, 6961780.0 ], [ 132660.0, 6961750.0 ], [ 132660.0, 6961690.0 ], [ 132700.0, 6961640.0 ], [ 132700.0, 6961530.0 ], [ 132660.0, 6961480.0 ], [ 132660.0, 6961320.0 ], [ 132680.0, 6961290.0 ], [ 132670.0, 6961250.0 ], [ 132670.0, 6961040.0 ], [ 132690.0, 6961010.0 ], [ 132680.0, 6960930.0 ], [ 132660.0, 6960900.0 ], [ 132660.0, 6960470.0 ], [ 132590.0, 6960380.0 ], [ 132620.0, 6960330.0 ], [ 132610.0, 6960320.0 ], [ 132610.0, 6960240.0 ], [ 132510.0, 6960140.0 ], [ 132490.0, 6960040.0 ], [ 132430.0, 6959970.0 ], [ 132420.0, 6959930.0 ] ] } }
]
}
