{
"type": "FeatureCollection",
"name": "multi_path_smooth_galtatind_03",
"crs": { "type": "name", "properties": { "name": "urn:ogc:def:crs:EPSG::25833" } },
"features": [
{ "type": "Feature", "properties": { "cat": 1 }, "geometry": { "type": "LineString", "coordinates": [ [ 131960.0, 6962970.0 ], [ 131910.0, 6962920.0 ], [ 131910.0, 6962670.0 ], [ 132090.0, 6962480.0 ], [ 132130.0, 6962450.0 ], [ 132200.0, 6962450.0 ], [ 132280.0, 6962530.0 ], [ 132580.0, 6962530.0 ], [ 132730.0, 6962390.0 ], [ 132730.0, 6962370.0 ], [ 132750.0, 6962350.0 ], [ 132760.0, 6961910.0 ], [ 132810.0, 6961870.0 ], [ 132810.0, 6961680.0 ], [ 132780.0, 6961650.0 ], [ 132750.0, 6961640.0 ], [ 132720.0, 6961560.0 ], [ 132660.0, 6961480.0 ], [ 132650.0, 6961450.0 ], [ 132650.0, 6961360.0 ], [ 132680.0, 6961290.0 ], [ 132670.0, 6961250.0 ], [ 132670.0, 6961190.0 ], [ 132680.0, 6961180.0 ], [ 132670.0, 6961040.0 ], [ 132710.0, 6960980.0 ], [ 132710.0, 6960940.0 ], [ 132700.0, 6960930.0 ], [ 132660.0, 6960930.0 ], [ 132640.0, 6960910.0 ], [ 132510.0, 6960920.0 ], [ 132490.0, 6960870.0 ], [ 132490.0, 6960800.0 ], [ 132440.0, 6960750.0 ], [ 132450.0, 6960720.0 ], [ 132440.0, 6960680.0 ], [ 132490.0, 6960600.0 ], [ 132550.0, 6960540.0 ], [ 132550.0, 6960460.0 ], [ 132580.0, 6960420.0 ], [ 132580.0, 6960380.0 ], [ 132620.0, 6960340.0 ], [ 132620.0, 6960310.0 ], [ 132600.0, 6960250.0 ], [ 132440.0, 6960090.0 ], [ 132420.0, 6959930.0 ] ] } }
]
}
