{
"type": "FeatureCollection",
"name": "multi_path_smooth_galtatind_19",
"crs": { "type": "name", "properties": { "name": "urn:ogc:def:crs:EPSG::25833" } },
"features": [
{ "type": "Feature", "properties": { "cat": 1 }, "geometry": { "type": "LineString", "coordinates": [ [ 131960.0, 6962970.0 ], [ 131910.0, 6962930.0 ], [ 131910.0, 6962740.0 ], [ 131920.0, 6962700.0 ], [ 132130.0, 6962490.0 ], [ 132190.0, 6962490.0 ], [ 132240.0, 6962540.0 ], [ 132560.0, 6962540.0 ], [ 132600.0, 6962500.0 ], [ 132620.0, 6962500.0 ], [ 132710.0, 6962410.0 ], [ 132720.0, 6962370.0 ], [ 132720.0, 6962260.0 ], [ 132740.0, 6962220.0 ], [ 132740.0, 6961850.0 ], [ 132780.0, 6961800.0 ], [ 132790.0, 6961680.0 ], [ 132730.0, 6961620.0 ], [ 132730.0, 6961600.0 ], [ 132700.0, 6961570.0 ], [ 132690.0, 6961510.0 ], [ 132660.0, 6961480.0 ], [ 132640.0, 6961420.0 ], [ 132640.0, 6961050.0 ], [ 132630.0, 6961040.0 ], [ 132630.0, 6960980.0 ], [ 132530.0, 6960860.0 ], [ 132530.0, 6960770.0 ], [ 132570.0, 6960680.0 ], [ 132570.0, 6960440.0 ], [ 132580.0, 6960430.0 ], [ 132580.0, 6960380.0 ], [ 132630.0, 6960330.0 ], [ 132630.0, 6960300.0 ], [ 132600.0, 6960260.0 ], [ 132600.0, 6960220.0 ], [ 132530.0, 6960150.0 ], [ 132530.0, 6960110.0 ], [ 132510.0, 6960060.0 ], [ 132470.0, 6960020.0 ], [ 132470.0, 6959970.0 ], [ 132420.0, 6959930.0 ] ] } }
]
}
