{
"type": "FeatureCollection",
"name": "multi_path_smooth_galtatind_26",
"crs": { "type": "name", "properties": { "name": "urn:ogc:def:crs:EPSG::25833" } },
"features": [
{ "type": "Feature", "properties": { "cat": 1 }, "geometry": { "type": "LineString", "coordinates": [ [ 131960.0, 6962970.0 ], [ 131870.0, 6962890.0 ], [ 131870.0, 6962680.0 ], [ 132010.0, 6962550.0 ], [ 132040.0, 6962480.0 ], [ 132100.0, 6962420.0 ], [ 132100.0, 6962230.0 ], [ 132080.0, 6962200.0 ], [ 132080.0, 6962060.0 ], [ 132070.0, 6962030.0 ], [ 132020.0, 6961970.0 ], [ 132020.0, 6961820.0 ], [ 132100.0, 6961720.0 ], [ 132100.0, 6961480.0 ], [ 132210.0, 6961360.0 ], [ 132220.0, 6961290.0 ], [ 132340.0, 6961200.0 ], [ 132340.0, 6961130.0 ], [ 132370.0, 6961100.0 ], [ 132380.0, 6961070.0 ], [ 132380.0, 6961030.0 ], [ 132290.0, 6960950.0 ], [ 132290.0, 6960890.0 ], [ 132270.0, 6960870.0 ], [ 132270.0, 6960850.0 ], [ 132460.0, 6960650.0 ], [ 132460.0, 6960460.0 ], [ 132490.0, 6960430.0 ], [ 132520.0, 6960420.0 ], [ 132580.0, 6960360.0 ], [ 132600.0, 6960360.0 ], [ 132620.0, 6960340.0 ], [ 132620.0, 6960260.0 ], [ 132610.0, 6960240.0 ], [ 132530.0, 6960160.0 ], [ 132500.0, 6960110.0 ], [ 132410.0, 6960010.0 ], [ 132420.0, 6959930.0 ] ] } }
]
}
