{
"type": "FeatureCollection",
"name": "multi_path_smooth_galtatind_14",
"crs": { "type": "name", "properties": { "name": "urn:ogc:def:crs:EPSG::25833" } },
"features": [
{ "type": "Feature", "properties": { "cat": 1 }, "geometry": { "type": "LineString", "coordinates": [ [ 131960.0, 6962970.0 ], [ 131920.0, 6962950.0 ], [ 131880.0, 6962910.0 ], [ 131890.0, 6962700.0 ], [ 131920.0, 6962640.0 ], [ 132010.0, 6962550.0 ], [ 132020.0, 6962520.0 ], [ 132110.0, 6962420.0 ], [ 132110.0, 6962210.0 ], [ 132090.0, 6962190.0 ], [ 132090.0, 6962050.0 ], [ 132030.0, 6961990.0 ], [ 132030.0, 6961860.0 ], [ 132060.0, 6961830.0 ], [ 132060.0, 6961810.0 ], [ 132110.0, 6961760.0 ], [ 132100.0, 6961460.0 ], [ 132210.0, 6961350.0 ], [ 132210.0, 6961320.0 ], [ 132340.0, 6961200.0 ], [ 132340.0, 6961170.0 ], [ 132310.0, 6961130.0 ], [ 132340.0, 6961100.0 ], [ 132360.0, 6961110.0 ], [ 132380.0, 6961070.0 ], [ 132380.0, 6961030.0 ], [ 132320.0, 6960970.0 ], [ 132260.0, 6960940.0 ], [ 132230.0, 6960910.0 ], [ 132280.0, 6960850.0 ], [ 132310.0, 6960790.0 ], [ 132480.0, 6960620.0 ], [ 132480.0, 6960450.0 ], [ 132580.0, 6960360.0 ], [ 132600.0, 6960360.0 ], [ 132620.0, 6960330.0 ], [ 132620.0, 6960290.0 ], [ 132600.0, 6960250.0 ], [ 132520.0, 6960160.0 ], [ 132520.0, 6960090.0 ], [ 132510.0, 6960060.0 ], [ 132470.0, 6960020.0 ], [ 132470.0, 6959970.0 ], [ 132420.0, 6959930.0 ] ] } }
]
}
