{
"type": "FeatureCollection",
"name": "multi_path_smooth_galtatind_32",
"crs": { "type": "name", "properties": { "name": "urn:ogc:def:crs:EPSG::25833" } },
"features": [
{ "type": "Feature", "properties": { "cat": 1 }, "geometry": { "type": "LineString", "coordinates": [ [ 131960.0, 6962970.0 ], [ 131900.0, 6962910.0 ], [ 131900.0, 6962700.0 ], [ 131910.0, 6962670.0 ], [ 132000.0, 6962580.0 ], [ 132000.0, 6962540.0 ], [ 132030.0, 6962510.0 ], [ 132040.0, 6962470.0 ], [ 132060.0, 6962450.0 ], [ 132060.0, 6962110.0 ], [ 132070.0, 6962100.0 ], [ 132070.0, 6962040.0 ], [ 132010.0, 6961980.0 ], [ 132010.0, 6961840.0 ], [ 132090.0, 6961710.0 ], [ 132090.0, 6961470.0 ], [ 132210.0, 6961350.0 ], [ 132220.0, 6961290.0 ], [ 132320.0, 6961190.0 ], [ 132310.0, 6961130.0 ], [ 132210.0, 6961020.0 ], [ 132210.0, 6960900.0 ], [ 132180.0, 6960870.0 ], [ 132120.0, 6960860.0 ], [ 132100.0, 6960840.0 ], [ 132090.0, 6960800.0 ], [ 132120.0, 6960700.0 ], [ 132090.0, 6960670.0 ], [ 132090.0, 6960650.0 ], [ 132140.0, 6960600.0 ], [ 132140.0, 6960580.0 ], [ 132110.0, 6960520.0 ], [ 132110.0, 6960490.0 ], [ 132080.0, 6960450.0 ], [ 132040.0, 6960350.0 ], [ 132070.0, 6960300.0 ], [ 132140.0, 6960300.0 ], [ 132160.0, 6960310.0 ], [ 132250.0, 6960220.0 ], [ 132250.0, 6960200.0 ], [ 132270.0, 6960180.0 ], [ 132320.0, 6960180.0 ], [ 132360.0, 6960200.0 ], [ 132380.0, 6960200.0 ], [ 132400.0, 6960180.0 ], [ 132390.0, 6960100.0 ], [ 132350.0, 6959980.0 ], [ 132420.0, 6959930.0 ] ] } }
]
}
