{
"type": "FeatureCollection",
"name": "multi_path_smooth_galtatind_06",
"crs": { "type": "name", "properties": { "name": "urn:ogc:def:crs:EPSG::25833" } },
"features": [
{ "type": "Feature", "properties": { "cat": 1 }, "geometry": { "type": "LineString", "coordinates": [ [ 131960.0, 6962970.0 ], [ 131900.0, 6962920.0 ], [ 131900.0, 6962700.0 ], [ 132010.0, 6962580.0 ], [ 132010.0, 6962540.0 ], [ 132140.0, 6962420.0 ], [ 132210.0, 6962400.0 ], [ 132310.0, 6962400.0 ], [ 132360.0, 6962450.0 ], [ 132380.0, 6962450.0 ], [ 132400.0, 6962470.0 ], [ 132610.0, 6962470.0 ], [ 132680.0, 6962400.0 ], [ 132690.0, 6962280.0 ], [ 132710.0, 6962260.0 ], [ 132710.0, 6962230.0 ], [ 132770.0, 6962160.0 ], [ 132770.0, 6961910.0 ], [ 132800.0, 6961880.0 ], [ 132800.0, 6961670.0 ], [ 132740.0, 6961610.0 ], [ 132650.0, 6961450.0 ], [ 132650.0, 6961360.0 ], [ 132680.0, 6961290.0 ], [ 132670.0, 6961250.0 ], [ 132670.0, 6961030.0 ], [ 132620.0, 6960970.0 ], [ 132610.0, 6960930.0 ], [ 132530.0, 6960850.0 ], [ 132530.0, 6960650.0 ], [ 132550.0, 6960630.0 ], [ 132550.0, 6960390.0 ], [ 132580.0, 6960360.0 ], [ 132610.0, 6960350.0 ], [ 132620.0, 6960310.0 ], [ 132570.0, 6960230.0 ], [ 132460.0, 6960120.0 ], [ 132440.0, 6959950.0 ], [ 132420.0, 6959930.0 ] ] } }
]
}
