{
"type": "FeatureCollection",
"name": "multi_path_smooth_galtatind_29",
"crs": { "type": "name", "properties": { "name": "urn:ogc:def:crs:EPSG::25833" } },
"features": [
{ "type": "Feature", "properties": { "cat": 1 }, "geometry": { "type": "LineString", "coordinates": [ [ 131960.0, 6962970.0 ], [ 131930.0, 6962960.0 ], [ 131870.0, 6962900.0 ], [ 131870.0, 6962690.0 ], [ 132010.0, 6962560.0 ], [ 132010.0, 6962530.0 ], [ 132080.0, 6962440.0 ], [ 132090.0, 6962030.0 ], [ 132040.0, 6961980.0 ], [ 132040.0, 6961860.0 ], [ 132110.0, 6961770.0 ], [ 132100.0, 6961470.0 ], [ 132230.0, 6961340.0 ], [ 132230.0, 6961310.0 ], [ 132340.0, 6961180.0 ], [ 132310.0, 6961140.0 ], [ 132310.0, 6961110.0 ], [ 132230.0, 6961030.0 ], [ 132230.0, 6960950.0 ], [ 132220.0, 6960940.0 ], [ 132230.0, 6960910.0 ], [ 132220.0, 6960900.0 ], [ 132240.0, 6960870.0 ], [ 132240.0, 6960830.0 ], [ 132260.0, 6960810.0 ], [ 132260.0, 6960770.0 ], [ 132270.0, 6960760.0 ], [ 132260.0, 6960620.0 ], [ 132560.0, 6960280.0 ], [ 132470.0, 6960190.0 ], [ 132470.0, 6960130.0 ], [ 132440.0, 6960090.0 ], [ 132440.0, 6960060.0 ], [ 132410.0, 6960030.0 ], [ 132410.0, 6959940.0 ], [ 132420.0, 6959930.0 ] ] } }
]
}
