{
"type": "FeatureCollection",
"name": "multi_path_smooth_galtatind_20",
"crs": { "type": "name", "properties": { "name": "urn:ogc:def:crs:EPSG::25833" } },
"features": [
{ "type": "Feature", "properties": { "cat": 1 }, "geometry": { "type": "LineString", "coordinates": [ [ 131960.0, 6962970.0 ], [ 131930.0, 6962950.0 ], [ 131930.0, 6962700.0 ], [ 131940.0, 6962660.0 ], [ 132150.0, 6962440.0 ], [ 132210.0, 6962400.0 ], [ 132310.0, 6962400.0 ], [ 132360.0, 6962450.0 ], [ 132400.0, 6962460.0 ], [ 132560.0, 6962460.0 ], [ 132600.0, 6962470.0 ], [ 132680.0, 6962390.0 ], [ 132690.0, 6962370.0 ], [ 132690.0, 6962290.0 ], [ 132710.0, 6962270.0 ], [ 132710.0, 6962240.0 ], [ 132770.0, 6962170.0 ], [ 132770.0, 6961910.0 ], [ 132800.0, 6961880.0 ], [ 132800.0, 6961660.0 ], [ 132770.0, 6961620.0 ], [ 132770.0, 6961510.0 ], [ 132730.0, 6961440.0 ], [ 132730.0, 6961360.0 ], [ 132710.0, 6961340.0 ], [ 132690.0, 6961260.0 ], [ 132690.0, 6961050.0 ], [ 132680.0, 6961020.0 ], [ 132710.0, 6960980.0 ], [ 132710.0, 6960890.0 ], [ 132780.0, 6960820.0 ], [ 132780.0, 6960790.0 ], [ 132810.0, 6960760.0 ], [ 132830.0, 6960670.0 ], [ 132880.0, 6960620.0 ], [ 132880.0, 6960600.0 ], [ 132840.0, 6960560.0 ], [ 132840.0, 6960540.0 ], [ 132820.0, 6960520.0 ], [ 132700.0, 6960480.0 ], [ 132650.0, 6960450.0 ], [ 132590.0, 6960390.0 ], [ 132590.0, 6960370.0 ], [ 132620.0, 6960330.0 ], [ 132610.0, 6960250.0 ], [ 132460.0, 6960100.0 ], [ 132420.0, 6959930.0 ] ] } }
]
}
