{
"type": "FeatureCollection",
"name": "multi_path_smooth_galtatind_13",
"crs": { "type": "name", "properties": { "name": "urn:ogc:def:crs:EPSG::25833" } },
"features": [
{ "type": "Feature", "properties": { "cat": 1 }, "geometry": { "type": "LineString", "coordinates": [ [ 131960.0, 6962970.0 ], [ 131920.0, 6962940.0 ], [ 131920.0, 6962690.0 ], [ 132010.0, 6962590.0 ], [ 132010.0, 6962560.0 ], [ 132130.0, 6962440.0 ], [ 132270.0, 6962430.0 ], [ 132330.0, 6962490.0 ], [ 132590.0, 6962490.0 ], [ 132710.0, 6962380.0 ], [ 132710.0, 6962310.0 ], [ 132740.0, 6962280.0 ], [ 132740.0, 6962220.0 ], [ 132760.0, 6962180.0 ], [ 132760.0, 6961910.0 ], [ 132810.0, 6961870.0 ], [ 132810.0, 6961680.0 ], [ 132780.0, 6961640.0 ], [ 132780.0, 6961330.0 ], [ 132650.0, 6961210.0 ], [ 132640.0, 6961150.0 ], [ 132600.0, 6961110.0 ], [ 132580.0, 6961050.0 ], [ 132530.0, 6961000.0 ], [ 132510.0, 6960960.0 ], [ 132510.0, 6960920.0 ], [ 132490.0, 6960870.0 ], [ 132490.0, 6960790.0 ], [ 132510.0, 6960740.0 ], [ 132510.0, 6960560.0 ], [ 132530.0, 6960540.0 ], [ 132530.0, 6960490.0 ], [ 132550.0, 6960470.0 ], [ 132550.0, 6960400.0 ], [ 132620.0, 6960330.0 ], [ 132570.0, 6960230.0 ], [ 132480.0, 6960150.0 ], [ 132440.0, 6960090.0 ], [ 132440.0, 6960060.0 ], [ 132420.0, 6960040.0 ], [ 132420.0, 6960010.0 ], [ 132400.0, 6959980.0 ], [ 132400.0, 6959950.0 ], [ 132420.0, 6959930.0 ] ] } }
]
}
