{
"type": "FeatureCollection",
"name": "multi_path_smooth_galtatind_33",
"crs": { "type": "name", "properties": { "name": "urn:ogc:def:crs:EPSG::25833" } },
"features": [
{ "type": "Feature", "properties": { "cat": 1 }, "geometry": { "type": "LineString", "coordinates": [ [ 131960.0, 6962970.0 ], [ 131930.0, 6962950.0 ], [ 131930.0, 6962700.0 ], [ 131950.0, 6962680.0 ], [ 131950.0, 6962660.0 ], [ 132020.0, 6962590.0 ], [ 132020.0, 6962570.0 ], [ 132170.0, 6962420.0 ], [ 132160.0, 6961770.0 ], [ 132310.0, 6961620.0 ], [ 132370.0, 6961610.0 ], [ 132460.0, 6961520.0 ], [ 132480.0, 6961470.0 ], [ 132560.0, 6961390.0 ], [ 132560.0, 6961350.0 ], [ 132580.0, 6961310.0 ], [ 132580.0, 6961090.0 ], [ 132560.0, 6961070.0 ], [ 132560.0, 6960990.0 ], [ 132510.0, 6960940.0 ], [ 132500.0, 6960910.0 ], [ 132480.0, 6960780.0 ], [ 132500.0, 6960740.0 ], [ 132500.0, 6960670.0 ], [ 132520.0, 6960650.0 ], [ 132520.0, 6960580.0 ], [ 132540.0, 6960560.0 ], [ 132540.0, 6960490.0 ], [ 132570.0, 6960430.0 ], [ 132570.0, 6960380.0 ], [ 132640.0, 6960330.0 ], [ 132640.0, 6960250.0 ], [ 132630.0, 6960240.0 ], [ 132630.0, 6960180.0 ], [ 132460.0, 6960000.0 ], [ 132460.0, 6959960.0 ], [ 132420.0, 6959930.0 ] ] } }
]
}
