{
"type": "FeatureCollection",
"name": "multi_path_smooth_galtatind_21",
"crs": { "type": "name", "properties": { "name": "urn:ogc:def:crs:EPSG::25833" } },
"features": [
{ "type": "Feature", "properties": { "cat": 1 }, "geometry": { "type": "LineString", "coordinates": [ [ 131960.0, 6962970.0 ], [ 131900.0, 6962940.0 ], [ 131840.0, 6962880.0 ], [ 131840.0, 6962730.0 ], [ 132260.0, 6962310.0 ], [ 132320.0, 6962310.0 ], [ 132350.0, 6962340.0 ], [ 132480.0, 6962340.0 ], [ 132510.0, 6962330.0 ], [ 132570.0, 6962270.0 ], [ 132610.0, 6962270.0 ], [ 132670.0, 6962210.0 ], [ 132670.0, 6962110.0 ], [ 132730.0, 6962050.0 ], [ 132730.0, 6962010.0 ], [ 132750.0, 6961990.0 ], [ 132750.0, 6961960.0 ], [ 132840.0, 6961870.0 ], [ 132840.0, 6961750.0 ], [ 132810.0, 6961710.0 ], [ 132810.0, 6961680.0 ], [ 132690.0, 6961550.0 ], [ 132690.0, 6961510.0 ], [ 132600.0, 6961350.0 ], [ 132600.0, 6961150.0 ], [ 132590.0, 6961140.0 ], [ 132590.0, 6961100.0 ], [ 132560.0, 6961060.0 ], [ 132550.0, 6960920.0 ], [ 132510.0, 6960870.0 ], [ 132510.0, 6960760.0 ], [ 132530.0, 6960730.0 ], [ 132540.0, 6960440.0 ], [ 132570.0, 6960410.0 ], [ 132570.0, 6960390.0 ], [ 132640.0, 6960330.0 ], [ 132630.0, 6960260.0 ], [ 132550.0, 6960170.0 ], [ 132550.0, 6960090.0 ], [ 132530.0, 6960030.0 ], [ 132420.0, 6959930.0 ] ] } }
]
}
