{
"type": "FeatureCollection",
"name": "multi_path_smooth_galtatind_30",
"crs": { "type": "name", "properties": { "name": "urn:ogc:def:crs:EPSG::25833" } },
"features": [
{ "type": "Feature", "properties": { "cat": 1 }, "geometry": { "type": "LineString", "coordinates": [ [ 131960.0, 6962970.0 ], [ 131940.0, 6962960.0 ], [ 131940.0, 6962940.0 ], [ 131920.0, 6962920.0 ], [ 131920.0, 6962700.0 ], [ 132020.0, 6962600.0 ], [ 132020.0, 6962580.0 ], [ 132170.0, 6962430.0 ], [ 132270.0, 6962430.0 ], [ 132320.0, 6962480.0 ], [ 132600.0, 6962470.0 ], [ 132690.0, 6962380.0 ], [ 132690.0, 6962340.0 ], [ 132710.0, 6962320.0 ], [ 132730.0, 6962210.0 ], [ 132750.0, 6962190.0 ], [ 132750.0, 6961930.0 ], [ 132740.0, 6961900.0 ], [ 132670.0, 6961830.0 ], [ 132670.0, 6961810.0 ], [ 132650.0, 6961790.0 ], [ 132650.0, 6961700.0 ], [ 132640.0, 6961690.0 ], [ 132680.0, 6961640.0 ], [ 132680.0, 6961620.0 ], [ 132650.0, 6961590.0 ], [ 132650.0, 6961490.0 ], [ 132660.0, 6961480.0 ], [ 132650.0, 6961360.0 ], [ 132680.0, 6961290.0 ], [ 132670.0, 6961250.0 ], [ 132680.0, 6961150.0 ], [ 132670.0, 6961110.0 ], [ 132650.0, 6961090.0 ], [ 132640.0, 6961020.0 ], [ 132620.0, 6960980.0 ], [ 132620.0, 6960930.0 ], [ 132600.0, 6960900.0 ], [ 132580.0, 6960820.0 ], [ 132580.0, 6960380.0 ], [ 132660.0, 6960300.0 ], [ 132660.0, 6960010.0 ], [ 132540.0, 6959940.0 ], [ 132480.0, 6959940.0 ], [ 132470.0, 6959930.0 ], [ 132440.0, 6959940.0 ], [ 132420.0, 6959930.0 ] ] } }
]
}
