{
"type": "FeatureCollection",
"name": "multi_path_smooth_galtatind_05",
"crs": { "type": "name", "properties": { "name": "urn:ogc:def:crs:EPSG::25833" } },
"features": [
{ "type": "Feature", "properties": { "cat": 1 }, "geometry": { "type": "LineString", "coordinates": [ [ 131960.0, 6962970.0 ], [ 131920.0, 6962940.0 ], [ 131920.0, 6962690.0 ], [ 132070.0, 6962530.0 ], [ 132140.0, 6962470.0 ], [ 132200.0, 6962470.0 ], [ 132270.0, 6962540.0 ], [ 132580.0, 6962540.0 ], [ 132730.0, 6962400.0 ], [ 132730.0, 6962340.0 ], [ 132770.0, 6962300.0 ], [ 132790.0, 6962250.0 ], [ 132780.0, 6961930.0 ], [ 132810.0, 6961910.0 ], [ 132820.0, 6961870.0 ], [ 132820.0, 6961720.0 ], [ 132810.0, 6961680.0 ], [ 132780.0, 6961650.0 ], [ 132750.0, 6961640.0 ], [ 132720.0, 6961560.0 ], [ 132660.0, 6961480.0 ], [ 132650.0, 6961450.0 ], [ 132650.0, 6961360.0 ], [ 132680.0, 6961290.0 ], [ 132670.0, 6961250.0 ], [ 132670.0, 6961190.0 ], [ 132680.0, 6961180.0 ], [ 132670.0, 6961110.0 ], [ 132520.0, 6960950.0 ], [ 132490.0, 6960870.0 ], [ 132490.0, 6960800.0 ], [ 132440.0, 6960750.0 ], [ 132450.0, 6960720.0 ], [ 132440.0, 6960670.0 ], [ 132530.0, 6960540.0 ], [ 132530.0, 6960500.0 ], [ 132550.0, 6960480.0 ], [ 132560.0, 6960440.0 ], [ 132590.0, 6960410.0 ], [ 132590.0, 6960370.0 ], [ 132620.0, 6960340.0 ], [ 132620.0, 6960310.0 ], [ 132570.0, 6960230.0 ], [ 132450.0, 6960110.0 ], [ 132430.0, 6960050.0 ], [ 132420.0, 6959930.0 ] ] } }
]
}
