{
"type": "FeatureCollection",
"name": "multi_path_smooth_galtatind_37",
"crs": { "type": "name", "properties": { "name": "urn:ogc:def:crs:EPSG::25833" } },
"features": [
{ "type": "Feature", "properties": { "cat": 1 }, "geometry": { "type": "LineString", "coordinates": [ [ 131960.0, 6962970.0 ], [ 131880.0, 6962900.0 ], [ 131880.0, 6962700.0 ], [ 132040.0, 6962530.0 ], [ 132040.0, 6962470.0 ], [ 132070.0, 6962440.0 ], [ 132080.0, 6962040.0 ], [ 132030.0, 6961990.0 ], [ 132030.0, 6961820.0 ], [ 132100.0, 6961730.0 ], [ 132100.0, 6961480.0 ], [ 132230.0, 6961350.0 ], [ 132230.0, 6961320.0 ], [ 132320.0, 6961210.0 ], [ 132310.0, 6961040.0 ], [ 132340.0, 6961010.0 ], [ 132340.0, 6960990.0 ], [ 132270.0, 6960940.0 ], [ 132270.0, 6960850.0 ], [ 132280.0, 6960830.0 ], [ 132260.0, 6960750.0 ], [ 132260.0, 6960700.0 ], [ 132270.0, 6960690.0 ], [ 132260.0, 6960670.0 ], [ 132260.0, 6960590.0 ], [ 132560.0, 6960280.0 ], [ 132470.0, 6960190.0 ], [ 132470.0, 6960130.0 ], [ 132430.0, 6960070.0 ], [ 132430.0, 6959960.0 ], [ 132420.0, 6959930.0 ] ] } }
]
}
