{
"type": "FeatureCollection",
"name": "multi_path_smooth_galtatind_12",
"crs": { "type": "name", "properties": { "name": "urn:ogc:def:crs:EPSG::25833" } },
"features": [
{ "type": "Feature", "properties": { "cat": 1 }, "geometry": { "type": "LineString", "coordinates": [ [ 131960.0, 6962970.0 ], [ 131940.0, 6962960.0 ], [ 131950.0, 6962670.0 ], [ 132020.0, 6962600.0 ], [ 132020.0, 6962560.0 ], [ 132170.0, 6962410.0 ], [ 132220.0, 6962380.0 ], [ 132330.0, 6962380.0 ], [ 132390.0, 6962440.0 ], [ 132460.0, 6962440.0 ], [ 132510.0, 6962400.0 ], [ 132550.0, 6962360.0 ], [ 132550.0, 6962290.0 ], [ 132570.0, 6962270.0 ], [ 132600.0, 6962270.0 ], [ 132670.0, 6962200.0 ], [ 132670.0, 6962120.0 ], [ 132730.0, 6962060.0 ], [ 132730.0, 6962030.0 ], [ 132750.0, 6962010.0 ], [ 132750.0, 6961910.0 ], [ 132800.0, 6961880.0 ], [ 132800.0, 6961660.0 ], [ 132730.0, 6961590.0 ], [ 132730.0, 6961550.0 ], [ 132660.0, 6961480.0 ], [ 132660.0, 6961460.0 ], [ 132640.0, 6961440.0 ], [ 132640.0, 6961270.0 ], [ 132620.0, 6961250.0 ], [ 132610.0, 6961150.0 ], [ 132570.0, 6961080.0 ], [ 132560.0, 6960920.0 ], [ 132520.0, 6960880.0 ], [ 132530.0, 6960630.0 ], [ 132540.0, 6960590.0 ], [ 132560.0, 6960570.0 ], [ 132560.0, 6960440.0 ], [ 132580.0, 6960420.0 ], [ 132580.0, 6960380.0 ], [ 132630.0, 6960330.0 ], [ 132630.0, 6960300.0 ], [ 132610.0, 6960240.0 ], [ 132500.0, 6960130.0 ], [ 132510.0, 6960080.0 ], [ 132440.0, 6960010.0 ], [ 132440.0, 6959970.0 ], [ 132420.0, 6959950.0 ], [ 132420.0, 6959930.0 ] ] } }
]
}
