{
"type": "FeatureCollection",
"name": "multi_path_smooth_galtatind_04",
"crs": { "type": "name", "properties": { "name": "urn:ogc:def:crs:EPSG::25833" } },
"features": [
{ "type": "Feature", "properties": { "cat": 1 }, "geometry": { "type": "LineString", "coordinates": [ [ 131960.0, 6962970.0 ], [ 131940.0, 6962950.0 ], [ 131940.0, 6962710.0 ], [ 131950.0, 6962700.0 ], [ 131950.0, 6962660.0 ], [ 132010.0, 6962600.0 ], [ 132010.0, 6962570.0 ], [ 132150.0, 6962430.0 ], [ 132270.0, 6962430.0 ], [ 132360.0, 6962510.0 ], [ 132450.0, 6962510.0 ], [ 132460.0, 6962500.0 ], [ 132590.0, 6962500.0 ], [ 132690.0, 6962400.0 ], [ 132700.0, 6962280.0 ], [ 132740.0, 6962230.0 ], [ 132750.0, 6961920.0 ], [ 132800.0, 6961880.0 ], [ 132800.0, 6961820.0 ], [ 132790.0, 6961810.0 ], [ 132800.0, 6961670.0 ], [ 132750.0, 6961640.0 ], [ 132720.0, 6961560.0 ], [ 132660.0, 6961480.0 ], [ 132650.0, 6961450.0 ], [ 132650.0, 6961360.0 ], [ 132680.0, 6961290.0 ], [ 132670.0, 6961250.0 ], [ 132670.0, 6961190.0 ], [ 132680.0, 6961180.0 ], [ 132670.0, 6961040.0 ], [ 132610.0, 6960970.0 ], [ 132610.0, 6960940.0 ], [ 132590.0, 6960920.0 ], [ 132570.0, 6960920.0 ], [ 132520.0, 6960870.0 ], [ 132520.0, 6960770.0 ], [ 132550.0, 6960740.0 ], [ 132560.0, 6960380.0 ], [ 132610.0, 6960350.0 ], [ 132620.0, 6960310.0 ], [ 132600.0, 6960250.0 ], [ 132440.0, 6960090.0 ], [ 132420.0, 6959930.0 ] ] } }
]
}
