{
"type": "FeatureCollection",
"name": "multi_path_smooth_galtatind_15",
"crs": { "type": "name", "properties": { "name": "urn:ogc:def:crs:EPSG::25833" } },
"features": [
{ "type": "Feature", "properties": { "cat": 1 }, "geometry": { "type": "LineString", "coordinates": [ [ 131960.0, 6962970.0 ], [ 131940.0, 6962960.0 ], [ 131940.0, 6962700.0 ], [ 132020.0, 6962620.0 ], [ 132030.0, 6962580.0 ], [ 132140.0, 6962470.0 ], [ 132200.0, 6962470.0 ], [ 132260.0, 6962530.0 ], [ 132580.0, 6962530.0 ], [ 132600.0, 6962510.0 ], [ 132640.0, 6962510.0 ], [ 132730.0, 6962420.0 ], [ 132740.0, 6962370.0 ], [ 132760.0, 6962350.0 ], [ 132760.0, 6962220.0 ], [ 132780.0, 6962200.0 ], [ 132780.0, 6961930.0 ], [ 132810.0, 6961910.0 ], [ 132810.0, 6961880.0 ], [ 132830.0, 6961860.0 ], [ 132830.0, 6961730.0 ], [ 132810.0, 6961710.0 ], [ 132810.0, 6961680.0 ], [ 132750.0, 6961640.0 ], [ 132740.0, 6961590.0 ], [ 132690.0, 6961530.0 ], [ 132670.0, 6961480.0 ], [ 132670.0, 6961360.0 ], [ 132650.0, 6961340.0 ], [ 132650.0, 6961270.0 ], [ 132630.0, 6961250.0 ], [ 132630.0, 6961210.0 ], [ 132620.0, 6961200.0 ], [ 132620.0, 6960940.0 ], [ 132550.0, 6960860.0 ], [ 132550.0, 6960620.0 ], [ 132580.0, 6960590.0 ], [ 132580.0, 6960430.0 ], [ 132590.0, 6960420.0 ], [ 132590.0, 6960370.0 ], [ 132620.0, 6960330.0 ], [ 132570.0, 6960230.0 ], [ 132490.0, 6960150.0 ], [ 132490.0, 6960130.0 ], [ 132470.0, 6960110.0 ], [ 132470.0, 6960080.0 ], [ 132440.0, 6960040.0 ], [ 132420.0, 6959930.0 ] ] } }
]
}
