{
"type": "FeatureCollection",
"name": "multi_path_smooth_galtatind_08",
"crs": { "type": "name", "properties": { "name": "urn:ogc:def:crs:EPSG::25833" } },
"features": [
{ "type": "Feature", "properties": { "cat": 1 }, "geometry": { "type": "LineString", "coordinates": [ [ 131960.0, 6962970.0 ], [ 131890.0, 6962910.0 ], [ 131890.0, 6962700.0 ], [ 131900.0, 6962670.0 ], [ 132120.0, 6962440.0 ], [ 132220.0, 6962370.0 ], [ 132320.0, 6962370.0 ], [ 132390.0, 6962440.0 ], [ 132470.0, 6962440.0 ], [ 132500.0, 6962410.0 ], [ 132520.0, 6962410.0 ], [ 132730.0, 6962210.0 ], [ 132750.0, 6962160.0 ], [ 132740.0, 6962020.0 ], [ 132760.0, 6962000.0 ], [ 132760.0, 6961910.0 ], [ 132810.0, 6961870.0 ], [ 132810.0, 6961680.0 ], [ 132730.0, 6961590.0 ], [ 132730.0, 6961570.0 ], [ 132660.0, 6961480.0 ], [ 132660.0, 6961320.0 ], [ 132650.0, 6961280.0 ], [ 132630.0, 6961260.0 ], [ 132630.0, 6961090.0 ], [ 132530.0, 6960980.0 ], [ 132530.0, 6960920.0 ], [ 132510.0, 6960870.0 ], [ 132510.0, 6960760.0 ], [ 132520.0, 6960750.0 ], [ 132520.0, 6960640.0 ], [ 132540.0, 6960570.0 ], [ 132540.0, 6960500.0 ], [ 132550.0, 6960490.0 ], [ 132550.0, 6960450.0 ], [ 132580.0, 6960420.0 ], [ 132590.0, 6960370.0 ], [ 132610.0, 6960350.0 ], [ 132620.0, 6960310.0 ], [ 132570.0, 6960230.0 ], [ 132480.0, 6960150.0 ], [ 132480.0, 6960110.0 ], [ 132460.0, 6960090.0 ], [ 132440.0, 6960020.0 ], [ 132440.0, 6959940.0 ], [ 132420.0, 6959930.0 ] ] } }
]
}
