{
"type": "FeatureCollection",
"name": "multi_path_smooth_galtatind_24",
"crs": { "type": "name", "properties": { "name": "urn:ogc:def:crs:EPSG::25833" } },
"features": [
{ "type": "Feature", "properties": { "cat": 1 }, "geometry": { "type": "LineString", "coordinates": [ [ 131960.0, 6962970.0 ], [ 131930.0, 6962960.0 ], [ 131890.0, 6962920.0 ], [ 131890.0, 6962710.0 ], [ 131910.0, 6962690.0 ], [ 131910.0, 6962670.0 ], [ 132230.0, 6962360.0 ], [ 132320.0, 6962370.0 ], [ 132400.0, 6962450.0 ], [ 132470.0, 6962450.0 ], [ 132570.0, 6962350.0 ], [ 132590.0, 6962350.0 ], [ 132680.0, 6962270.0 ], [ 132680.0, 6962240.0 ], [ 132740.0, 6962170.0 ], [ 132750.0, 6961860.0 ], [ 132780.0, 6961830.0 ], [ 132780.0, 6961710.0 ], [ 132790.0, 6961680.0 ], [ 132740.0, 6961620.0 ], [ 132740.0, 6961560.0 ], [ 132680.0, 6961500.0 ], [ 132670.0, 6961460.0 ], [ 132670.0, 6961330.0 ], [ 132650.0, 6961310.0 ], [ 132650.0, 6961280.0 ], [ 132620.0, 6961250.0 ], [ 132620.0, 6961140.0 ], [ 132600.0, 6961120.0 ], [ 132600.0, 6961070.0 ], [ 132550.0, 6961010.0 ], [ 132540.0, 6960940.0 ], [ 132490.0, 6960870.0 ], [ 132500.0, 6960440.0 ], [ 132570.0, 6960360.0 ], [ 132600.0, 6960360.0 ], [ 132620.0, 6960330.0 ], [ 132610.0, 6960320.0 ], [ 132610.0, 6960280.0 ], [ 132540.0, 6960170.0 ], [ 132540.0, 6960120.0 ], [ 132460.0, 6960020.0 ], [ 132460.0, 6959950.0 ], [ 132420.0, 6959930.0 ] ] } }
]
}
