{
"type": "FeatureCollection",
"name": "multi_path_smooth_galtatind_09",
"crs": { "type": "name", "properties": { "name": "urn:ogc:def:crs:EPSG::25833" } },
"features": [
{ "type": "Feature", "properties": { "cat": 1 }, "geometry": { "type": "LineString", "coordinates": [ [ 131960.0, 6962970.0 ], [ 131910.0, 6962930.0 ], [ 131910.0, 6962680.0 ], [ 132170.0, 6962420.0 ], [ 132290.0, 6962410.0 ], [ 132370.0, 6962480.0 ], [ 132590.0, 6962480.0 ], [ 132700.0, 6962370.0 ], [ 132700.0, 6962320.0 ], [ 132780.0, 6962180.0 ], [ 132770.0, 6961910.0 ], [ 132800.0, 6961880.0 ], [ 132800.0, 6961820.0 ], [ 132790.0, 6961810.0 ], [ 132800.0, 6961670.0 ], [ 132730.0, 6961590.0 ], [ 132650.0, 6961450.0 ], [ 132650.0, 6961360.0 ], [ 132680.0, 6961290.0 ], [ 132670.0, 6961250.0 ], [ 132670.0, 6961050.0 ], [ 132620.0, 6961000.0 ], [ 132610.0, 6960950.0 ], [ 132490.0, 6960830.0 ], [ 132490.0, 6960800.0 ], [ 132460.0, 6960760.0 ], [ 132440.0, 6960700.0 ], [ 132460.0, 6960640.0 ], [ 132500.0, 6960590.0 ], [ 132520.0, 6960500.0 ], [ 132540.0, 6960480.0 ], [ 132540.0, 6960400.0 ], [ 132630.0, 6960330.0 ], [ 132630.0, 6960300.0 ], [ 132600.0, 6960230.0 ], [ 132420.0, 6960040.0 ], [ 132420.0, 6959970.0 ], [ 132410.0, 6959960.0 ], [ 132420.0, 6959930.0 ] ] } }
]
}
