{
"type": "FeatureCollection",
"name": "multi_path_smooth_galtatind_28",
"crs": { "type": "name", "properties": { "name": "urn:ogc:def:crs:EPSG::25833" } },
"features": [
{ "type": "Feature", "properties": { "cat": 1 }, "geometry": { "type": "LineString", "coordinates": [ [ 131960.0, 6962970.0 ], [ 131890.0, 6962910.0 ], [ 131890.0, 6962710.0 ], [ 132000.0, 6962590.0 ], [ 132020.0, 6962540.0 ], [ 132160.0, 6962400.0 ], [ 132160.0, 6962290.0 ], [ 132190.0, 6962250.0 ], [ 132190.0, 6962120.0 ], [ 132200.0, 6962110.0 ], [ 132200.0, 6961940.0 ], [ 132170.0, 6961900.0 ], [ 132170.0, 6961770.0 ], [ 132320.0, 6961620.0 ], [ 132370.0, 6961620.0 ], [ 132450.0, 6961540.0 ], [ 132460.0, 6961490.0 ], [ 132570.0, 6961390.0 ], [ 132570.0, 6961370.0 ], [ 132600.0, 6961340.0 ], [ 132610.0, 6961260.0 ], [ 132630.0, 6961240.0 ], [ 132620.0, 6960440.0 ], [ 132590.0, 6960410.0 ], [ 132590.0, 6960370.0 ], [ 132630.0, 6960320.0 ], [ 132630.0, 6960300.0 ], [ 132620.0, 6960290.0 ], [ 132610.0, 6960200.0 ], [ 132570.0, 6960150.0 ], [ 132570.0, 6960120.0 ], [ 132540.0, 6960080.0 ], [ 132540.0, 6960040.0 ], [ 132420.0, 6959930.0 ] ] } }
]
}
