{
"type": "FeatureCollection",
"name": "multi_path_smooth_galtatind_02",
"crs": { "type": "name", "properties": { "name": "urn:ogc:def:crs:EPSG::25833" } },
"features": [
{ "type": "Feature", "properties": { "cat": 1 }, "geometry": { "type": "LineString", "coordinates": [ [ 131960.0, 6962970.0 ], [ 131930.0, 6962930.0 ], [ 131930.0, 6962700.0 ], [ 131950.0, 6962680.0 ], [ 131950.0, 6962650.0 ], [ 132160.0, 6962440.0 ], [ 132220.0, 6962440.0 ], [ 132250.0, 6962470.0 ], [ 132250.0, 6962500.0 ], [ 132270.0, 6962520.0 ], [ 132580.0, 6962520.0 ], [ 132670.0, 6962430.0 ], [ 132700.0, 6962280.0 ], [ 132740.0, 6962210.0 ], [ 132790.0, 6962160.0 ], [ 132780.0, 6961930.0 ], [ 132810.0, 6961910.0 ], [ 132820.0, 6961870.0 ], [ 132820.0, 6961720.0 ], [ 132810.0, 6961680.0 ], [ 132780.0, 6961650.0 ], [ 132750.0, 6961640.0 ], [ 132720.0, 6961560.0 ], [ 132660.0, 6961480.0 ], [ 132650.0, 6961450.0 ], [ 132650.0, 6961360.0 ], [ 132680.0, 6961290.0 ], [ 132670.0, 6961250.0 ], [ 132670.0, 6961190.0 ], [ 132680.0, 6961180.0 ], [ 132670.0, 6961020.0 ], [ 132580.0, 6960920.0 ], [ 132520.0, 6960920.0 ], [ 132500.0, 6960900.0 ], [ 132490.0, 6960800.0 ], [ 132440.0, 6960750.0 ], [ 132450.0, 6960720.0 ], [ 132440.0, 6960670.0 ], [ 132480.0, 6960610.0 ], [ 132540.0, 6960550.0 ], [ 132540.0, 6960490.0 ], [ 132580.0, 6960420.0 ], [ 132570.0, 6960370.0 ], [ 132610.0, 6960350.0 ], [ 132620.0, 6960310.0 ], [ 132600.0, 6960250.0 ], [ 132440.0, 6960090.0 ], [ 132420.0, 6959930.0 ] ] } }
]
}
