{
"type": "FeatureCollection",
"name": "multi_path_smooth_galtatind_36",
"crs": { "type": "name", "properties": { "name": "urn:ogc:def:crs:EPSG::25833" } },
"features": [
{ "type": "Feature", "properties": { "cat": 1 }, "geometry": { "type": "LineString", "coordinates": [ [ 131960.0, 6962970.0 ], [ 131910.0, 6962930.0 ], [ 131910.0, 6962680.0 ], [ 132130.0, 6962440.0 ], [ 132130.0, 6962050.0 ], [ 132140.0, 6962040.0 ], [ 132140.0, 6961850.0 ], [ 132150.0, 6961840.0 ], [ 132150.0, 6961790.0 ], [ 132320.0, 6961620.0 ], [ 132340.0, 6961620.0 ], [ 132580.0, 6961380.0 ], [ 132610.0, 6961250.0 ], [ 132600.0, 6960420.0 ], [ 132590.0, 6960410.0 ], [ 132590.0, 6960370.0 ], [ 132630.0, 6960330.0 ], [ 132630.0, 6960240.0 ], [ 132610.0, 6960180.0 ], [ 132540.0, 6960110.0 ], [ 132540.0, 6960090.0 ], [ 132520.0, 6960070.0 ], [ 132520.0, 6960030.0 ], [ 132420.0, 6959930.0 ] ] } }
]
}
