{
"type": "FeatureCollection",
"name": "multi_path_smooth_galtatind_18",
"crs": { "type": "name", "properties": { "name": "urn:ogc:def:crs:EPSG::25833" } },
"features": [
{ "type": "Feature", "properties": { "cat": 1 }, "geometry": { "type": "LineString", "coordinates": [ [ 131960.0, 6962970.0 ], [ 131920.0, 6962950.0 ], [ 131860.0, 6962890.0 ], [ 131860.0, 6962700.0 ], [ 132020.0, 6962540.0 ], [ 132020.0, 6962520.0 ], [ 132120.0, 6962420.0 ], [ 132120.0, 6962100.0 ], [ 132100.0, 6962070.0 ], [ 132100.0, 6962030.0 ], [ 132040.0, 6961970.0 ], [ 132040.0, 6961810.0 ], [ 132070.0, 6961780.0 ], [ 132070.0, 6961740.0 ], [ 132100.0, 6961710.0 ], [ 132100.0, 6961470.0 ], [ 132210.0, 6961360.0 ], [ 132220.0, 6961290.0 ], [ 132340.0, 6961200.0 ], [ 132340.0, 6961170.0 ], [ 132320.0, 6961150.0 ], [ 132370.0, 6961100.0 ], [ 132380.0, 6961070.0 ], [ 132380.0, 6961030.0 ], [ 132350.0, 6961000.0 ], [ 132360.0, 6960970.0 ], [ 132360.0, 6960870.0 ], [ 132430.0, 6960790.0 ], [ 132440.0, 6960680.0 ], [ 132460.0, 6960650.0 ], [ 132460.0, 6960580.0 ], [ 132470.0, 6960570.0 ], [ 132470.0, 6960460.0 ], [ 132580.0, 6960360.0 ], [ 132600.0, 6960360.0 ], [ 132620.0, 6960340.0 ], [ 132570.0, 6960230.0 ], [ 132540.0, 6960220.0 ], [ 132510.0, 6960190.0 ], [ 132430.0, 6960070.0 ], [ 132420.0, 6959970.0 ], [ 132410.0, 6959960.0 ], [ 132420.0, 6959930.0 ] ] } }
]
}
