{
"type": "FeatureCollection",
"name": "multi_path_smooth_galtatind_07",
"crs": { "type": "name", "properties": { "name": "urn:ogc:def:crs:EPSG::25833" } },
"features": [
{ "type": "Feature", "properties": { "cat": 1 }, "geometry": { "type": "LineString", "coordinates": [ [ 131960.0, 6962970.0 ], [ 131930.0, 6962950.0 ], [ 131940.0, 6962690.0 ], [ 132000.0, 6962630.0 ], [ 132020.0, 6962580.0 ], [ 132150.0, 6962460.0 ], [ 132210.0, 6962460.0 ], [ 132260.0, 6962510.0 ], [ 132580.0, 6962520.0 ], [ 132710.0, 6962400.0 ], [ 132730.0, 6962360.0 ], [ 132730.0, 6962330.0 ], [ 132800.0, 6962240.0 ], [ 132800.0, 6962030.0 ], [ 132780.0, 6961990.0 ], [ 132780.0, 6961930.0 ], [ 132810.0, 6961910.0 ], [ 132830.0, 6961830.0 ], [ 132830.0, 6961740.0 ], [ 132810.0, 6961710.0 ], [ 132810.0, 6961680.0 ], [ 132780.0, 6961650.0 ], [ 132750.0, 6961640.0 ], [ 132720.0, 6961560.0 ], [ 132660.0, 6961480.0 ], [ 132650.0, 6961450.0 ], [ 132650.0, 6961360.0 ], [ 132680.0, 6961290.0 ], [ 132670.0, 6961250.0 ], [ 132680.0, 6961150.0 ], [ 132670.0, 6961120.0 ], [ 132550.0, 6961000.0 ], [ 132550.0, 6960960.0 ], [ 132500.0, 6960910.0 ], [ 132490.0, 6960870.0 ], [ 132490.0, 6960780.0 ], [ 132520.0, 6960730.0 ], [ 132520.0, 6960700.0 ], [ 132540.0, 6960680.0 ], [ 132550.0, 6960600.0 ], [ 132570.0, 6960580.0 ], [ 132570.0, 6960370.0 ], [ 132620.0, 6960340.0 ], [ 132620.0, 6960310.0 ], [ 132610.0, 6960300.0 ], [ 132610.0, 6960260.0 ], [ 132500.0, 6960170.0 ], [ 132440.0, 6960090.0 ], [ 132420.0, 6959930.0 ] ] } }
]
}
