{
"type": "FeatureCollection",
"name": "multi_path_smooth_galtatind_10",
"crs": { "type": "name", "properties": { "name": "urn:ogc:def:crs:EPSG::25833" } },
"features": [
{ "type": "Feature", "properties": { "cat": 1 }, "geometry": { "type": "LineString", "coordinates": [ [ 131960.0, 6962970.0 ], [ 131940.0, 6962960.0 ], [ 131960.0, 6962680.0 ], [ 132010.0, 6962630.0 ], [ 132020.0, 6962600.0 ], [ 132140.0, 6962480.0 ], [ 132190.0, 6962490.0 ], [ 132250.0, 6962550.0 ], [ 132560.0, 6962550.0 ], [ 132630.0, 6962510.0 ], [ 132730.0, 6962410.0 ], [ 132760.0, 6962300.0 ], [ 132810.0, 6962240.0 ], [ 132810.0, 6962120.0 ], [ 132790.0, 6962060.0 ], [ 132790.0, 6961920.0 ], [ 132810.0, 6961910.0 ], [ 132820.0, 6961870.0 ], [ 132820.0, 6961720.0 ], [ 132810.0, 6961680.0 ], [ 132780.0, 6961650.0 ], [ 132750.0, 6961640.0 ], [ 132730.0, 6961570.0 ], [ 132690.0, 6961530.0 ], [ 132660.0, 6961420.0 ], [ 132660.0, 6961320.0 ], [ 132680.0, 6961290.0 ], [ 132670.0, 6961040.0 ], [ 132710.0, 6960980.0 ], [ 132710.0, 6960940.0 ], [ 132700.0, 6960930.0 ], [ 132660.0, 6960930.0 ], [ 132640.0, 6960910.0 ], [ 132610.0, 6960910.0 ], [ 132540.0, 6960840.0 ], [ 132540.0, 6960620.0 ], [ 132580.0, 6960580.0 ], [ 132580.0, 6960430.0 ], [ 132590.0, 6960420.0 ], [ 132590.0, 6960370.0 ], [ 132610.0, 6960350.0 ], [ 132620.0, 6960310.0 ], [ 132570.0, 6960230.0 ], [ 132450.0, 6960110.0 ], [ 132430.0, 6960070.0 ], [ 132430.0, 6959940.0 ], [ 132420.0, 6959930.0 ] ] } }
]
}
