{
"type": "FeatureCollection",
"name": "multi_path_smooth_galtatind_25",
"crs": { "type": "name", "properties": { "name": "urn:ogc:def:crs:EPSG::25833" } },
"features": [
{ "type": "Feature", "properties": { "cat": 1 }, "geometry": { "type": "LineString", "coordinates": [ [ 131960.0, 6962970.0 ], [ 131940.0, 6962960.0 ], [ 131940.0, 6962720.0 ], [ 131950.0, 6962680.0 ], [ 131980.0, 6962650.0 ], [ 131980.0, 6962630.0 ], [ 132200.0, 6962410.0 ], [ 132270.0, 6962410.0 ], [ 132370.0, 6962500.0 ], [ 132580.0, 6962500.0 ], [ 132700.0, 6962380.0 ], [ 132700.0, 6962290.0 ], [ 132730.0, 6962260.0 ], [ 132760.0, 6962200.0 ], [ 132760.0, 6961910.0 ], [ 132810.0, 6961870.0 ], [ 132810.0, 6961680.0 ], [ 132770.0, 6961630.0 ], [ 132770.0, 6961480.0 ], [ 132750.0, 6961450.0 ], [ 132750.0, 6961340.0 ], [ 132760.0, 6961310.0 ], [ 132690.0, 6961260.0 ], [ 132690.0, 6961230.0 ], [ 132650.0, 6961160.0 ], [ 132650.0, 6961120.0 ], [ 132630.0, 6961100.0 ], [ 132630.0, 6961060.0 ], [ 132610.0, 6961040.0 ], [ 132600.0, 6960950.0 ], [ 132540.0, 6960890.0 ], [ 132540.0, 6960690.0 ], [ 132550.0, 6960680.0 ], [ 132550.0, 6960600.0 ], [ 132560.0, 6960590.0 ], [ 132570.0, 6960390.0 ], [ 132640.0, 6960330.0 ], [ 132640.0, 6960250.0 ], [ 132620.0, 6960230.0 ], [ 132620.0, 6960200.0 ], [ 132560.0, 6960140.0 ], [ 132560.0, 6960100.0 ], [ 132540.0, 6960080.0 ], [ 132540.0, 6960050.0 ], [ 132570.0, 6960020.0 ], [ 132570.0, 6959960.0 ], [ 132540.0, 6959940.0 ], [ 132420.0, 6959930.0 ] ] } }
]
}
