{
"type": "FeatureCollection",
"name": "multi_path_smooth_galtatind_35",
"crs": { "type": "name", "properties": { "name": "urn:ogc:def:crs:EPSG::25833" } },
"features": [
{ "type": "Feature", "properties": { "cat": 1 }, "geometry": { "type": "LineString", "coordinates": [ [ 131960.0, 6962970.0 ], [ 131880.0, 6962930.0 ], [ 131820.0, 6962870.0 ], [ 131820.0, 6962730.0 ], [ 132010.0, 6962550.0 ], [ 132100.0, 6962430.0 ], [ 132100.0, 6961790.0 ], [ 132280.0, 6961600.0 ], [ 132280.0, 6961570.0 ], [ 132310.0, 6961540.0 ], [ 132310.0, 6961520.0 ], [ 132350.0, 6961490.0 ], [ 132350.0, 6961400.0 ], [ 132320.0, 6961360.0 ], [ 132320.0, 6961270.0 ], [ 132350.0, 6961230.0 ], [ 132330.0, 6961160.0 ], [ 132330.0, 6961110.0 ], [ 132350.0, 6961080.0 ], [ 132350.0, 6961000.0 ], [ 132320.0, 6960970.0 ], [ 132310.0, 6960900.0 ], [ 132270.0, 6960860.0 ], [ 132300.0, 6960820.0 ], [ 132310.0, 6960780.0 ], [ 132420.0, 6960680.0 ], [ 132420.0, 6960600.0 ], [ 132460.0, 6960560.0 ], [ 132460.0, 6960510.0 ], [ 132590.0, 6960360.0 ], [ 132630.0, 6960350.0 ], [ 132650.0, 6960330.0 ], [ 132650.0, 6960220.0 ], [ 132630.0, 6960160.0 ], [ 132600.0, 6960130.0 ], [ 132600.0, 6960090.0 ], [ 132470.0, 6959950.0 ], [ 132420.0, 6959930.0 ] ] } }
]
}
