{
"type": "FeatureCollection",
"name": "multi_path_smooth_galtatind_38",
"crs": { "type": "name", "properties": { "name": "urn:ogc:def:crs:EPSG::25833" } },
"features": [
{ "type": "Feature", "properties": { "cat": 1 }, "geometry": { "type": "LineString", "coordinates": [ [ 131960.0, 6962970.0 ], [ 131940.0, 6962960.0 ], [ 131940.0, 6962720.0 ], [ 131950.0, 6962690.0 ], [ 132020.0, 6962620.0 ], [ 132030.0, 6962590.0 ], [ 132060.0, 6962560.0 ], [ 132130.0, 6962500.0 ], [ 132170.0, 6962500.0 ], [ 132230.0, 6962560.0 ], [ 132610.0, 6962570.0 ], [ 132720.0, 6962460.0 ], [ 132720.0, 6962350.0 ], [ 132750.0, 6962310.0 ], [ 132750.0, 6962220.0 ], [ 132780.0, 6962190.0 ], [ 132780.0, 6961930.0 ], [ 132810.0, 6961910.0 ], [ 132810.0, 6961680.0 ], [ 132780.0, 6961630.0 ], [ 132780.0, 6961330.0 ], [ 132690.0, 6961250.0 ], [ 132690.0, 6961190.0 ], [ 132670.0, 6961140.0 ], [ 132670.0, 6961110.0 ], [ 132690.0, 6961090.0 ], [ 132690.0, 6961000.0 ], [ 132710.0, 6960980.0 ], [ 132710.0, 6960940.0 ], [ 132700.0, 6960930.0 ], [ 132700.0, 6960480.0 ], [ 132650.0, 6960450.0 ], [ 132590.0, 6960380.0 ], [ 132610.0, 6960350.0 ], [ 132630.0, 6960350.0 ], [ 132670.0, 6960310.0 ], [ 132670.0, 6960010.0 ], [ 132540.0, 6959940.0 ], [ 132420.0, 6959930.0 ] ] } }
]
}
