{
"type": "FeatureCollection",
"name": "multi_path_smooth_galtatind_16",
"crs": { "type": "name", "properties": { "name": "urn:ogc:def:crs:EPSG::25833" } },
"features": [
{ "type": "Feature", "properties": { "cat": 1 }, "geometry": { "type": "LineString", "coordinates": [ [ 131960.0, 6962970.0 ], [ 131900.0, 6962910.0 ], [ 131900.0, 6962690.0 ], [ 132000.0, 6962570.0 ], [ 132010.0, 6962540.0 ], [ 132170.0, 6962390.0 ], [ 132300.0, 6962390.0 ], [ 132400.0, 6962460.0 ], [ 132460.0, 6962460.0 ], [ 132510.0, 6962430.0 ], [ 132670.0, 6962260.0 ], [ 132680.0, 6962240.0 ], [ 132680.0, 6962120.0 ], [ 132730.0, 6962070.0 ], [ 132740.0, 6961920.0 ], [ 132770.0, 6961890.0 ], [ 132800.0, 6961880.0 ], [ 132800.0, 6961830.0 ], [ 132790.0, 6961820.0 ], [ 132790.0, 6961730.0 ], [ 132800.0, 6961720.0 ], [ 132800.0, 6961670.0 ], [ 132790.0, 6961660.0 ], [ 132790.0, 6961360.0 ], [ 132780.0, 6961330.0 ], [ 132700.0, 6961260.0 ], [ 132700.0, 6961210.0 ], [ 132670.0, 6961140.0 ], [ 132670.0, 6961110.0 ], [ 132500.0, 6960940.0 ], [ 132500.0, 6960920.0 ], [ 132470.0, 6960880.0 ], [ 132500.0, 6960520.0 ], [ 132530.0, 6960470.0 ], [ 132530.0, 6960420.0 ], [ 132580.0, 6960360.0 ], [ 132600.0, 6960360.0 ], [ 132630.0, 6960330.0 ], [ 132630.0, 6960300.0 ], [ 132620.0, 6960290.0 ], [ 132620.0, 6960250.0 ], [ 132480.0, 6960110.0 ], [ 132480.0, 6960080.0 ], [ 132450.0, 6960040.0 ], [ 132450.0, 6959950.0 ], [ 132420.0, 6959930.0 ] ] } }
]
}
