{
"type": "FeatureCollection",
"name": "multi_path_smooth_galtatind_23",
"crs": { "type": "name", "properties": { "name": "urn:ogc:def:crs:EPSG::25833" } },
"features": [
{ "type": "Feature", "properties": { "cat": 1 }, "geometry": { "type": "LineString", "coordinates": [ [ 131960.0, 6962970.0 ], [ 131950.0, 6962970.0 ], [ 131960.0, 6962700.0 ], [ 132030.0, 6962610.0 ], [ 132030.0, 6962590.0 ], [ 132140.0, 6962490.0 ], [ 132160.0, 6962490.0 ], [ 132230.0, 6962560.0 ], [ 132610.0, 6962560.0 ], [ 132720.0, 6962450.0 ], [ 132730.0, 6962380.0 ], [ 132750.0, 6962360.0 ], [ 132750.0, 6962320.0 ], [ 132810.0, 6962250.0 ], [ 132810.0, 6962020.0 ], [ 132790.0, 6961970.0 ], [ 132790.0, 6961920.0 ], [ 132830.0, 6961890.0 ], [ 132830.0, 6961690.0 ], [ 132780.0, 6961640.0 ], [ 132780.0, 6961330.0 ], [ 132700.0, 6961260.0 ], [ 132700.0, 6961210.0 ], [ 132680.0, 6961190.0 ], [ 132680.0, 6961150.0 ], [ 132670.0, 6961140.0 ], [ 132670.0, 6961050.0 ], [ 132690.0, 6961000.0 ], [ 132670.0, 6960970.0 ], [ 132670.0, 6960940.0 ], [ 132590.0, 6960860.0 ], [ 132560.0, 6960750.0 ], [ 132560.0, 6960690.0 ], [ 132590.0, 6960650.0 ], [ 132590.0, 6960540.0 ], [ 132610.0, 6960460.0 ], [ 132610.0, 6960430.0 ], [ 132590.0, 6960410.0 ], [ 132590.0, 6960370.0 ], [ 132630.0, 6960330.0 ], [ 132630.0, 6960300.0 ], [ 132590.0, 6960240.0 ], [ 132510.0, 6960160.0 ], [ 132510.0, 6960100.0 ], [ 132450.0, 6960030.0 ], [ 132440.0, 6960010.0 ], [ 132440.0, 6959940.0 ], [ 132420.0, 6959930.0 ] ] } }
]
}
