{
"type": "FeatureCollection",
"name": "multi_path_smooth_galtatind_27",
"crs": { "type": "name", "properties": { "name": "urn:ogc:def:crs:EPSG::25833" } },
"features": [
{ "type": "Feature", "properties": { "cat": 1 }, "geometry": { "type": "LineString", "coordinates": [ [ 131960.0, 6962970.0 ], [ 131930.0, 6962960.0 ], [ 131830.0, 6962880.0 ], [ 131830.0, 6962750.0 ], [ 131840.0, 6962710.0 ], [ 132010.0, 6962550.0 ], [ 132010.0, 6962530.0 ], [ 132130.0, 6962410.0 ], [ 132130.0, 6962170.0 ], [ 132140.0, 6962160.0 ], [ 132140.0, 6962090.0 ], [ 132130.0, 6962080.0 ], [ 132130.0, 6961800.0 ], [ 132310.0, 6961620.0 ], [ 132360.0, 6961610.0 ], [ 132460.0, 6961510.0 ], [ 132480.0, 6961470.0 ], [ 132560.0, 6961390.0 ], [ 132560.0, 6961370.0 ], [ 132590.0, 6961340.0 ], [ 132590.0, 6960930.0 ], [ 132550.0, 6960880.0 ], [ 132550.0, 6960400.0 ], [ 132580.0, 6960360.0 ], [ 132610.0, 6960350.0 ], [ 132620.0, 6960310.0 ], [ 132590.0, 6960270.0 ], [ 132590.0, 6960220.0 ], [ 132550.0, 6960180.0 ], [ 132540.0, 6960070.0 ], [ 132430.0, 6959960.0 ], [ 132420.0, 6959930.0 ] ] } }
]
}
