{
"type": "FeatureCollection",
"name": "multi_path_smooth_kyrkjetaket_22",
"crs": { "type": "name", "properties": { "name": "urn:ogc:def:crs:EPSG::25833" } },
"features": [
{ "type": "Feature", "properties": { "cat": 1 }, "geometry": { "type": "LineString", "coordinates": [ [ 136480.0, 6962330.0 ], [ 136480.0, 6962310.0 ], [ 136460.0, 6962290.0 ], [ 136430.0, 6962290.0 ], [ 136330.0, 6962240.0 ], [ 136170.0, 6962070.0 ], [ 136170.0, 6961980.0 ], [ 136100.0, 6961910.0 ], [ 136070.0, 6961910.0 ], [ 136050.0, 6961890.0 ], [ 136050.0, 6961840.0 ], [ 136030.0, 6961820.0 ], [ 136020.0, 6961730.0 ], [ 135980.0, 6961680.0 ], [ 135980.0, 6961610.0 ], [ 136020.0, 6961570.0 ], [ 136050.0, 6961570.0 ], [ 136140.0, 6961470.0 ], [ 136150.0, 6961430.0 ], [ 136150.0, 6961300.0 ], [ 136260.0, 6961190.0 ], [ 136260.0, 6961070.0 ], [ 136320.0, 6960990.0 ], [ 136330.0, 6960770.0 ], [ 136150.0, 6960580.0 ], [ 136110.0, 6960570.0 ], [ 136080.0, 6960540.0 ], [ 136000.0, 6960530.0 ], [ 135970.0, 6960510.0 ], [ 135920.0, 6960510.0 ], [ 135910.0, 6960500.0 ], [ 134540.0, 6960490.0 ], [ 134520.0, 6960470.0 ], [ 134390.0, 6960470.0 ], [ 134380.0, 6960480.0 ], [ 134290.0, 6960480.0 ], [ 134280.0, 6960490.0 ], [ 134150.0, 6960500.0 ], [ 134140.0, 6960510.0 ], [ 133670.0, 6960520.0 ], [ 133510.0, 6960560.0 ], [ 133270.0, 6960570.0 ], [ 133180.0, 6960600.0 ], [ 133100.0, 6960580.0 ], [ 133020.0, 6960600.0 ], [ 132910.0, 6960590.0 ], [ 132850.0, 6960570.0 ], [ 132830.0, 6960520.0 ], [ 132740.0, 6960500.0 ], [ 132590.0, 6960410.0 ], [ 132590.0, 6960370.0 ], [ 132620.0, 6960340.0 ], [ 132620.0, 6960310.0 ], [ 132570.0, 6960230.0 ], [ 132450.0, 6960110.0 ], [ 132450.0, 6960070.0 ], [ 132410.0, 6960030.0 ], [ 132420.0, 6959930.0 ] ] } }
]
}
