{
"type": "FeatureCollection",
"name": "multi_path_smooth_kyrkjetaket_07",
"crs": { "type": "name", "properties": { "name": "urn:ogc:def:crs:EPSG::25833" } },
"features": [
{ "type": "Feature", "properties": { "cat": 1 }, "geometry": { "type": "LineString", "coordinates": [ [ 136480.0, 6962330.0 ], [ 136470.0, 6962300.0 ], [ 136360.0, 6962260.0 ], [ 136320.0, 6962230.0 ], [ 136170.0, 6962070.0 ], [ 136150.0, 6962030.0 ], [ 136150.0, 6961970.0 ], [ 136080.0, 6961890.0 ], [ 136080.0, 6961870.0 ], [ 136060.0, 6961850.0 ], [ 136060.0, 6961820.0 ], [ 136020.0, 6961770.0 ], [ 136010.0, 6961720.0 ], [ 135940.0, 6961650.0 ], [ 135930.0, 6961590.0 ], [ 135610.0, 6961260.0 ], [ 135570.0, 6961260.0 ], [ 135510.0, 6961210.0 ], [ 135350.0, 6961200.0 ], [ 135330.0, 6961180.0 ], [ 134920.0, 6961180.0 ], [ 134880.0, 6961200.0 ], [ 134710.0, 6961200.0 ], [ 134670.0, 6961230.0 ], [ 134290.0, 6961230.0 ], [ 134270.0, 6961210.0 ], [ 133830.0, 6961200.0 ], [ 133760.0, 6961220.0 ], [ 133650.0, 6961220.0 ], [ 133630.0, 6961240.0 ], [ 133350.0, 6961240.0 ], [ 133310.0, 6961270.0 ], [ 133030.0, 6961260.0 ], [ 132960.0, 6961310.0 ], [ 132820.0, 6961310.0 ], [ 132800.0, 6961330.0 ], [ 132780.0, 6961330.0 ], [ 132670.0, 6961230.0 ], [ 132670.0, 6961030.0 ], [ 132620.0, 6960970.0 ], [ 132610.0, 6960930.0 ], [ 132530.0, 6960850.0 ], [ 132530.0, 6960650.0 ], [ 132550.0, 6960630.0 ], [ 132550.0, 6960460.0 ], [ 132580.0, 6960420.0 ], [ 132590.0, 6960370.0 ], [ 132620.0, 6960340.0 ], [ 132620.0, 6960310.0 ], [ 132610.0, 6960300.0 ], [ 132610.0, 6960260.0 ], [ 132500.0, 6960170.0 ], [ 132440.0, 6960090.0 ], [ 132420.0, 6959930.0 ] ] } }
]
}
