{
"type": "FeatureCollection",
"name": "multi_path_smooth_kyrkjetaket_20",
"crs": { "type": "name", "properties": { "name": "urn:ogc:def:crs:EPSG::25833" } },
"features": [
{ "type": "Feature", "properties": { "cat": 1 }, "geometry": { "type": "LineString", "coordinates": [ [ 136480.0, 6962330.0 ], [ 136500.0, 6962300.0 ], [ 136580.0, 6962260.0 ], [ 136680.0, 6962260.0 ], [ 136700.0, 6962190.0 ], [ 136740.0, 6962140.0 ], [ 136740.0, 6962110.0 ], [ 136960.0, 6961870.0 ], [ 136960.0, 6961830.0 ], [ 137050.0, 6961740.0 ], [ 137140.0, 6961740.0 ], [ 137210.0, 6961670.0 ], [ 137220.0, 6961630.0 ], [ 137220.0, 6961480.0 ], [ 137170.0, 6961430.0 ], [ 137160.0, 6961290.0 ], [ 137100.0, 6961220.0 ], [ 137100.0, 6961090.0 ], [ 137090.0, 6961070.0 ], [ 136980.0, 6960960.0 ], [ 136950.0, 6960960.0 ], [ 136670.0, 6960690.0 ], [ 136640.0, 6960670.0 ], [ 136610.0, 6960670.0 ], [ 136470.0, 6960580.0 ], [ 136220.0, 6960340.0 ], [ 136050.0, 6960340.0 ], [ 136040.0, 6960330.0 ], [ 134950.0, 6960330.0 ], [ 134940.0, 6960320.0 ], [ 134870.0, 6960320.0 ], [ 134850.0, 6960300.0 ], [ 134830.0, 6960300.0 ], [ 134750.0, 6960220.0 ], [ 134110.0, 6960220.0 ], [ 134090.0, 6960200.0 ], [ 134060.0, 6960200.0 ], [ 133870.0, 6960010.0 ], [ 133810.0, 6960010.0 ], [ 133740.0, 6959940.0 ], [ 133670.0, 6959930.0 ], [ 133640.0, 6959950.0 ], [ 133570.0, 6959950.0 ], [ 133500.0, 6959970.0 ], [ 133450.0, 6959960.0 ], [ 133410.0, 6959980.0 ], [ 133380.0, 6959980.0 ], [ 133350.0, 6960010.0 ], [ 133290.0, 6960020.0 ], [ 133220.0, 6960070.0 ], [ 133190.0, 6960070.0 ], [ 133090.0, 6959980.0 ], [ 133100.0, 6959940.0 ], [ 133100.0, 6959900.0 ], [ 133090.0, 6959890.0 ], [ 133070.0, 6959890.0 ], [ 133000.0, 6959840.0 ], [ 132950.0, 6959840.0 ], [ 132940.0, 6959830.0 ], [ 132880.0, 6959830.0 ], [ 132850.0, 6959850.0 ], [ 132730.0, 6959880.0 ], [ 132630.0, 6959980.0 ], [ 132610.0, 6959980.0 ], [ 132540.0, 6959940.0 ], [ 132470.0, 6959940.0 ], [ 132460.0, 6959930.0 ], [ 132440.0, 6959940.0 ], [ 132420.0, 6959930.0 ] ] } }
]
}
