{
"type": "FeatureCollection",
"name": "multi_path_smooth_kyrkjetaket_31",
"crs": { "type": "name", "properties": { "name": "urn:ogc:def:crs:EPSG::25833" } },
"features": [
{ "type": "Feature", "properties": { "cat": 1 }, "geometry": { "type": "LineString", "coordinates": [ [ 136480.0, 6962330.0 ], [ 136470.0, 6962300.0 ], [ 136330.0, 6962240.0 ], [ 136180.0, 6962080.0 ], [ 136180.0, 6961980.0 ], [ 136060.0, 6961850.0 ], [ 136040.0, 6961770.0 ], [ 135990.0, 6961690.0 ], [ 135990.0, 6961670.0 ], [ 135950.0, 6961620.0 ], [ 135580.0, 6961260.0 ], [ 135560.0, 6961250.0 ], [ 135420.0, 6961250.0 ], [ 135390.0, 6961240.0 ], [ 135330.0, 6961180.0 ], [ 135060.0, 6961170.0 ], [ 134990.0, 6961190.0 ], [ 134840.0, 6961190.0 ], [ 134790.0, 6961240.0 ], [ 134770.0, 6961240.0 ], [ 134750.0, 6961260.0 ], [ 134420.0, 6961260.0 ], [ 134410.0, 6961250.0 ], [ 134340.0, 6961250.0 ], [ 134330.0, 6961240.0 ], [ 134100.0, 6961240.0 ], [ 134090.0, 6961230.0 ], [ 133710.0, 6961230.0 ], [ 133670.0, 6961240.0 ], [ 133650.0, 6961260.0 ], [ 133430.0, 6961260.0 ], [ 133420.0, 6961250.0 ], [ 133350.0, 6961250.0 ], [ 133330.0, 6961270.0 ], [ 133170.0, 6961260.0 ], [ 133140.0, 6961320.0 ], [ 133080.0, 6961370.0 ], [ 132950.0, 6961360.0 ], [ 132860.0, 6961270.0 ], [ 132820.0, 6961270.0 ], [ 132750.0, 6961200.0 ], [ 132750.0, 6961170.0 ], [ 132720.0, 6961140.0 ], [ 132710.0, 6961030.0 ], [ 132660.0, 6960970.0 ], [ 132660.0, 6960930.0 ], [ 132640.0, 6960910.0 ], [ 132640.0, 6960880.0 ], [ 132600.0, 6960820.0 ], [ 132600.0, 6960760.0 ], [ 132590.0, 6960750.0 ], [ 132590.0, 6960510.0 ], [ 132560.0, 6960460.0 ], [ 132550.0, 6960390.0 ], [ 132620.0, 6960340.0 ], [ 132630.0, 6960250.0 ], [ 132470.0, 6960080.0 ], [ 132470.0, 6960050.0 ], [ 132430.0, 6960000.0 ], [ 132420.0, 6959930.0 ] ] } }
]
}
