{
"type": "FeatureCollection",
"name": "multi_path_smooth_kyrkjetaket_13",
"crs": { "type": "name", "properties": { "name": "urn:ogc:def:crs:EPSG::25833" } },
"features": [
{ "type": "Feature", "properties": { "cat": 1 }, "geometry": { "type": "LineString", "coordinates": [ [ 136480.0, 6962330.0 ], [ 136480.0, 6962310.0 ], [ 136460.0, 6962290.0 ], [ 136410.0, 6962280.0 ], [ 136330.0, 6962240.0 ], [ 136160.0, 6962070.0 ], [ 136160.0, 6961970.0 ], [ 136080.0, 6961890.0 ], [ 136040.0, 6961780.0 ], [ 136000.0, 6961720.0 ], [ 135940.0, 6961660.0 ], [ 135920.0, 6961590.0 ], [ 135580.0, 6961270.0 ], [ 135530.0, 6961240.0 ], [ 135440.0, 6961240.0 ], [ 135420.0, 6961220.0 ], [ 135370.0, 6961210.0 ], [ 135330.0, 6961180.0 ], [ 135280.0, 6961180.0 ], [ 135270.0, 6961170.0 ], [ 134990.0, 6961170.0 ], [ 134970.0, 6961190.0 ], [ 134930.0, 6961200.0 ], [ 134820.0, 6961200.0 ], [ 134810.0, 6961210.0 ], [ 134370.0, 6961210.0 ], [ 134360.0, 6961220.0 ], [ 134290.0, 6961220.0 ], [ 134280.0, 6961210.0 ], [ 134200.0, 6961210.0 ], [ 134190.0, 6961200.0 ], [ 134070.0, 6961200.0 ], [ 134060.0, 6961210.0 ], [ 133810.0, 6961220.0 ], [ 133770.0, 6961250.0 ], [ 133720.0, 6961250.0 ], [ 133610.0, 6961360.0 ], [ 133420.0, 6961360.0 ], [ 133410.0, 6961350.0 ], [ 133250.0, 6961350.0 ], [ 133210.0, 6961340.0 ], [ 133180.0, 6961370.0 ], [ 132890.0, 6961380.0 ], [ 132870.0, 6961360.0 ], [ 132840.0, 6961360.0 ], [ 132800.0, 6961330.0 ], [ 132780.0, 6961330.0 ], [ 132690.0, 6961250.0 ], [ 132690.0, 6961160.0 ], [ 132670.0, 6961140.0 ], [ 132670.0, 6961040.0 ], [ 132710.0, 6960980.0 ], [ 132710.0, 6960940.0 ], [ 132700.0, 6960930.0 ], [ 132660.0, 6960930.0 ], [ 132640.0, 6960910.0 ], [ 132610.0, 6960910.0 ], [ 132540.0, 6960840.0 ], [ 132540.0, 6960610.0 ], [ 132570.0, 6960580.0 ], [ 132560.0, 6960390.0 ], [ 132580.0, 6960360.0 ], [ 132600.0, 6960360.0 ], [ 132630.0, 6960330.0 ], [ 132630.0, 6960300.0 ], [ 132600.0, 6960230.0 ], [ 132520.0, 6960150.0 ], [ 132520.0, 6960090.0 ], [ 132510.0, 6960060.0 ], [ 132470.0, 6960020.0 ], [ 132470.0, 6959970.0 ], [ 132420.0, 6959930.0 ] ] } }
]
}
