{
"type": "FeatureCollection",
"name": "multi_path_smooth_kyrkjetaket_01",
"crs": { "type": "name", "properties": { "name": "urn:ogc:def:crs:EPSG::25833" } },
"features": [
{ "type": "Feature", "properties": { "cat": 1 }, "geometry": { "type": "LineString", "coordinates": [ [ 136480.0, 6962330.0 ], [ 136470.0, 6962300.0 ], [ 136320.0, 6962230.0 ], [ 136170.0, 6962070.0 ], [ 136160.0, 6961980.0 ], [ 136070.0, 6961890.0 ], [ 136070.0, 6961860.0 ], [ 136040.0, 6961810.0 ], [ 136030.0, 6961750.0 ], [ 135930.0, 6961600.0 ], [ 135610.0, 6961280.0 ], [ 135570.0, 6961270.0 ], [ 135500.0, 6961210.0 ], [ 135410.0, 6961210.0 ], [ 135380.0, 6961190.0 ], [ 135330.0, 6961190.0 ], [ 135320.0, 6961180.0 ], [ 135100.0, 6961180.0 ], [ 135090.0, 6961190.0 ], [ 134740.0, 6961200.0 ], [ 134670.0, 6961230.0 ], [ 134250.0, 6961230.0 ], [ 134240.0, 6961220.0 ], [ 134060.0, 6961220.0 ], [ 134050.0, 6961210.0 ], [ 133770.0, 6961220.0 ], [ 133760.0, 6961230.0 ], [ 133420.0, 6961230.0 ], [ 133400.0, 6961250.0 ], [ 133350.0, 6961250.0 ], [ 133290.0, 6961330.0 ], [ 133210.0, 6961340.0 ], [ 133170.0, 6961410.0 ], [ 133100.0, 6961450.0 ], [ 132890.0, 6961450.0 ], [ 132840.0, 6961430.0 ], [ 132790.0, 6961380.0 ], [ 132780.0, 6961330.0 ], [ 132700.0, 6961260.0 ], [ 132670.0, 6961250.0 ], [ 132670.0, 6961190.0 ], [ 132680.0, 6961180.0 ], [ 132670.0, 6961040.0 ], [ 132710.0, 6960980.0 ], [ 132710.0, 6960940.0 ], [ 132700.0, 6960930.0 ], [ 132660.0, 6960930.0 ], [ 132640.0, 6960910.0 ], [ 132520.0, 6960920.0 ], [ 132490.0, 6960870.0 ], [ 132490.0, 6960800.0 ], [ 132440.0, 6960750.0 ], [ 132450.0, 6960730.0 ], [ 132440.0, 6960680.0 ], [ 132460.0, 6960640.0 ], [ 132530.0, 6960560.0 ], [ 132530.0, 6960500.0 ], [ 132580.0, 6960420.0 ], [ 132570.0, 6960370.0 ], [ 132620.0, 6960340.0 ], [ 132620.0, 6960310.0 ], [ 132600.0, 6960250.0 ], [ 132440.0, 6960090.0 ], [ 132420.0, 6959930.0 ] ] } }
]
}
