{
"type": "FeatureCollection",
"name": "multi_path_smooth_kyrkjetaket_32",
"crs": { "type": "name", "properties": { "name": "urn:ogc:def:crs:EPSG::25833" } },
"features": [
{ "type": "Feature", "properties": { "cat": 1 }, "geometry": { "type": "LineString", "coordinates": [ [ 136480.0, 6962330.0 ], [ 136530.0, 6962280.0 ], [ 136530.0, 6962120.0 ], [ 136550.0, 6962100.0 ], [ 136550.0, 6962060.0 ], [ 136580.0, 6962020.0 ], [ 136580.0, 6961960.0 ], [ 136640.0, 6961890.0 ], [ 136640.0, 6961840.0 ], [ 136620.0, 6961820.0 ], [ 136550.0, 6961820.0 ], [ 136520.0, 6961790.0 ], [ 136450.0, 6961790.0 ], [ 136410.0, 6961770.0 ], [ 136260.0, 6961630.0 ], [ 136260.0, 6961490.0 ], [ 136300.0, 6961450.0 ], [ 136300.0, 6961020.0 ], [ 136320.0, 6961000.0 ], [ 136330.0, 6960770.0 ], [ 136220.0, 6960660.0 ], [ 136190.0, 6960650.0 ], [ 136160.0, 6960620.0 ], [ 136130.0, 6960620.0 ], [ 136090.0, 6960580.0 ], [ 136070.0, 6960580.0 ], [ 135970.0, 6960510.0 ], [ 135940.0, 6960510.0 ], [ 135900.0, 6960470.0 ], [ 134980.0, 6960470.0 ], [ 134960.0, 6960490.0 ], [ 134540.0, 6960490.0 ], [ 134520.0, 6960470.0 ], [ 134390.0, 6960470.0 ], [ 134380.0, 6960480.0 ], [ 134290.0, 6960480.0 ], [ 134280.0, 6960490.0 ], [ 134150.0, 6960500.0 ], [ 134140.0, 6960510.0 ], [ 133670.0, 6960520.0 ], [ 133510.0, 6960560.0 ], [ 133360.0, 6960560.0 ], [ 133350.0, 6960570.0 ], [ 133280.0, 6960570.0 ], [ 133150.0, 6960600.0 ], [ 133100.0, 6960580.0 ], [ 133060.0, 6960580.0 ], [ 133030.0, 6960550.0 ], [ 132930.0, 6960520.0 ], [ 132900.0, 6960490.0 ], [ 132890.0, 6960430.0 ], [ 132820.0, 6960360.0 ], [ 132780.0, 6960290.0 ], [ 132420.0, 6959930.0 ] ] } }
]
}
