{
"type": "FeatureCollection",
"name": "multi_path_smooth_kyrkjetaket_03",
"crs": { "type": "name", "properties": { "name": "urn:ogc:def:crs:EPSG::25833" } },
"features": [
{ "type": "Feature", "properties": { "cat": 1 }, "geometry": { "type": "LineString", "coordinates": [ [ 136480.0, 6962330.0 ], [ 136470.0, 6962300.0 ], [ 136320.0, 6962230.0 ], [ 136170.0, 6962060.0 ], [ 136160.0, 6962040.0 ], [ 136160.0, 6961970.0 ], [ 136070.0, 6961880.0 ], [ 136060.0, 6961830.0 ], [ 136040.0, 6961810.0 ], [ 136040.0, 6961770.0 ], [ 136000.0, 6961700.0 ], [ 135960.0, 6961660.0 ], [ 135960.0, 6961610.0 ], [ 135890.0, 6961540.0 ], [ 135840.0, 6961520.0 ], [ 135590.0, 6961280.0 ], [ 135550.0, 6961270.0 ], [ 135530.0, 6961250.0 ], [ 135480.0, 6961240.0 ], [ 135460.0, 6961220.0 ], [ 135430.0, 6961220.0 ], [ 135380.0, 6961190.0 ], [ 134990.0, 6961190.0 ], [ 134980.0, 6961200.0 ], [ 134860.0, 6961200.0 ], [ 134810.0, 6961220.0 ], [ 134480.0, 6961230.0 ], [ 134470.0, 6961240.0 ], [ 134080.0, 6961230.0 ], [ 134070.0, 6961220.0 ], [ 133410.0, 6961230.0 ], [ 133390.0, 6961250.0 ], [ 133350.0, 6961250.0 ], [ 133290.0, 6961330.0 ], [ 133220.0, 6961330.0 ], [ 133150.0, 6961430.0 ], [ 133030.0, 6961440.0 ], [ 132980.0, 6961460.0 ], [ 132900.0, 6961460.0 ], [ 132850.0, 6961430.0 ], [ 132780.0, 6961360.0 ], [ 132780.0, 6961330.0 ], [ 132740.0, 6961290.0 ], [ 132670.0, 6961250.0 ], [ 132670.0, 6961190.0 ], [ 132680.0, 6961180.0 ], [ 132670.0, 6961040.0 ], [ 132710.0, 6960980.0 ], [ 132710.0, 6960940.0 ], [ 132700.0, 6960930.0 ], [ 132660.0, 6960930.0 ], [ 132640.0, 6960910.0 ], [ 132510.0, 6960920.0 ], [ 132490.0, 6960870.0 ], [ 132490.0, 6960800.0 ], [ 132440.0, 6960750.0 ], [ 132450.0, 6960720.0 ], [ 132440.0, 6960680.0 ], [ 132490.0, 6960600.0 ], [ 132550.0, 6960540.0 ], [ 132550.0, 6960460.0 ], [ 132580.0, 6960420.0 ], [ 132580.0, 6960380.0 ], [ 132620.0, 6960340.0 ], [ 132620.0, 6960310.0 ], [ 132600.0, 6960250.0 ], [ 132440.0, 6960090.0 ], [ 132420.0, 6959930.0 ] ] } }
]
}
