{
"type": "FeatureCollection",
"name": "multi_path_smooth_kyrkjetaket_16",
"crs": { "type": "name", "properties": { "name": "urn:ogc:def:crs:EPSG::25833" } },
"features": [
{ "type": "Feature", "properties": { "cat": 1 }, "geometry": { "type": "LineString", "coordinates": [ [ 136480.0, 6962330.0 ], [ 136470.0, 6962300.0 ], [ 136330.0, 6962240.0 ], [ 136170.0, 6962070.0 ], [ 136150.0, 6962030.0 ], [ 136150.0, 6961950.0 ], [ 136120.0, 6961920.0 ], [ 136080.0, 6961910.0 ], [ 136060.0, 6961890.0 ], [ 136060.0, 6961860.0 ], [ 136030.0, 6961820.0 ], [ 136030.0, 6961790.0 ], [ 136010.0, 6961770.0 ], [ 136000.0, 6961730.0 ], [ 135950.0, 6961680.0 ], [ 135950.0, 6961650.0 ], [ 135910.0, 6961590.0 ], [ 135820.0, 6961490.0 ], [ 135600.0, 6961270.0 ], [ 135550.0, 6961270.0 ], [ 135440.0, 6961210.0 ], [ 135360.0, 6961210.0 ], [ 135320.0, 6961180.0 ], [ 135170.0, 6961180.0 ], [ 135090.0, 6961200.0 ], [ 134900.0, 6961200.0 ], [ 134890.0, 6961210.0 ], [ 134850.0, 6961210.0 ], [ 134820.0, 6961240.0 ], [ 134310.0, 6961240.0 ], [ 134170.0, 6961200.0 ], [ 133830.0, 6961200.0 ], [ 133780.0, 6961230.0 ], [ 133430.0, 6961240.0 ], [ 133390.0, 6961250.0 ], [ 133360.0, 6961270.0 ], [ 133330.0, 6961270.0 ], [ 133280.0, 6961330.0 ], [ 133220.0, 6961330.0 ], [ 133140.0, 6961420.0 ], [ 133030.0, 6961420.0 ], [ 132990.0, 6961400.0 ], [ 132900.0, 6961400.0 ], [ 132850.0, 6961380.0 ], [ 132800.0, 6961330.0 ], [ 132760.0, 6961320.0 ], [ 132650.0, 6961200.0 ], [ 132640.0, 6961140.0 ], [ 132620.0, 6961120.0 ], [ 132620.0, 6961100.0 ], [ 132550.0, 6961020.0 ], [ 132540.0, 6960980.0 ], [ 132500.0, 6960940.0 ], [ 132500.0, 6960920.0 ], [ 132480.0, 6960900.0 ], [ 132490.0, 6960440.0 ], [ 132580.0, 6960360.0 ], [ 132600.0, 6960360.0 ], [ 132630.0, 6960330.0 ], [ 132630.0, 6960300.0 ], [ 132620.0, 6960290.0 ], [ 132620.0, 6960250.0 ], [ 132500.0, 6960130.0 ], [ 132500.0, 6960070.0 ], [ 132460.0, 6960030.0 ], [ 132460.0, 6959960.0 ], [ 132420.0, 6959930.0 ] ] } }
]
}
