{
"type": "FeatureCollection",
"name": "multi_path_smooth_kyrkjetaket_04",
"crs": { "type": "name", "properties": { "name": "urn:ogc:def:crs:EPSG::25833" } },
"features": [
{ "type": "Feature", "properties": { "cat": 1 }, "geometry": { "type": "LineString", "coordinates": [ [ 136480.0, 6962330.0 ], [ 136470.0, 6962300.0 ], [ 136330.0, 6962240.0 ], [ 136160.0, 6962050.0 ], [ 136150.0, 6961970.0 ], [ 136070.0, 6961890.0 ], [ 136070.0, 6961860.0 ], [ 136040.0, 6961790.0 ], [ 136020.0, 6961770.0 ], [ 136020.0, 6961740.0 ], [ 135960.0, 6961670.0 ], [ 135960.0, 6961640.0 ], [ 135930.0, 6961600.0 ], [ 135860.0, 6961530.0 ], [ 135830.0, 6961520.0 ], [ 135740.0, 6961440.0 ], [ 135550.0, 6961250.0 ], [ 135500.0, 6961240.0 ], [ 135420.0, 6961190.0 ], [ 135320.0, 6961190.0 ], [ 135250.0, 6961170.0 ], [ 135060.0, 6961170.0 ], [ 134980.0, 6961190.0 ], [ 134800.0, 6961190.0 ], [ 134690.0, 6961220.0 ], [ 133950.0, 6961210.0 ], [ 133930.0, 6961230.0 ], [ 133850.0, 6961230.0 ], [ 133790.0, 6961270.0 ], [ 133730.0, 6961330.0 ], [ 133710.0, 6961340.0 ], [ 133640.0, 6961340.0 ], [ 133620.0, 6961360.0 ], [ 133440.0, 6961360.0 ], [ 133430.0, 6961350.0 ], [ 133250.0, 6961350.0 ], [ 133210.0, 6961340.0 ], [ 133180.0, 6961370.0 ], [ 132950.0, 6961370.0 ], [ 132780.0, 6961330.0 ], [ 132700.0, 6961260.0 ], [ 132670.0, 6961250.0 ], [ 132670.0, 6961190.0 ], [ 132680.0, 6961180.0 ], [ 132670.0, 6961040.0 ], [ 132610.0, 6960970.0 ], [ 132610.0, 6960940.0 ], [ 132590.0, 6960920.0 ], [ 132570.0, 6960920.0 ], [ 132520.0, 6960870.0 ], [ 132520.0, 6960770.0 ], [ 132550.0, 6960740.0 ], [ 132560.0, 6960380.0 ], [ 132610.0, 6960350.0 ], [ 132620.0, 6960310.0 ], [ 132600.0, 6960250.0 ], [ 132440.0, 6960090.0 ], [ 132420.0, 6959930.0 ] ] } }
]
}
