{
"type": "FeatureCollection",
"name": "multi_path_smooth_kyrkjetaket_10",
"crs": { "type": "name", "properties": { "name": "urn:ogc:def:crs:EPSG::25833" } },
"features": [
{ "type": "Feature", "properties": { "cat": 1 }, "geometry": { "type": "LineString", "coordinates": [ [ 136480.0, 6962330.0 ], [ 136470.0, 6962300.0 ], [ 136330.0, 6962240.0 ], [ 136170.0, 6962070.0 ], [ 136160.0, 6961970.0 ], [ 136060.0, 6961880.0 ], [ 136040.0, 6961790.0 ], [ 136010.0, 6961760.0 ], [ 136010.0, 6961720.0 ], [ 135960.0, 6961670.0 ], [ 135950.0, 6961600.0 ], [ 135880.0, 6961530.0 ], [ 135820.0, 6961510.0 ], [ 135750.0, 6961440.0 ], [ 135730.0, 6961440.0 ], [ 135580.0, 6961290.0 ], [ 135500.0, 6961260.0 ], [ 135470.0, 6961230.0 ], [ 135340.0, 6961190.0 ], [ 135100.0, 6961190.0 ], [ 135090.0, 6961200.0 ], [ 134820.0, 6961210.0 ], [ 134810.0, 6961220.0 ], [ 134420.0, 6961220.0 ], [ 134410.0, 6961230.0 ], [ 134220.0, 6961230.0 ], [ 134210.0, 6961240.0 ], [ 134100.0, 6961240.0 ], [ 134060.0, 6961230.0 ], [ 134040.0, 6961210.0 ], [ 133730.0, 6961210.0 ], [ 133720.0, 6961220.0 ], [ 133630.0, 6961220.0 ], [ 133620.0, 6961230.0 ], [ 133400.0, 6961230.0 ], [ 133380.0, 6961250.0 ], [ 133360.0, 6961250.0 ], [ 133290.0, 6961330.0 ], [ 133220.0, 6961330.0 ], [ 133150.0, 6961430.0 ], [ 133120.0, 6961430.0 ], [ 133080.0, 6961450.0 ], [ 132740.0, 6961460.0 ], [ 132700.0, 6961420.0 ], [ 132660.0, 6961420.0 ], [ 132650.0, 6961410.0 ], [ 132650.0, 6961360.0 ], [ 132680.0, 6961290.0 ], [ 132670.0, 6961260.0 ], [ 132670.0, 6961190.0 ], [ 132680.0, 6961180.0 ], [ 132670.0, 6961050.0 ], [ 132620.0, 6961000.0 ], [ 132610.0, 6960950.0 ], [ 132510.0, 6960850.0 ], [ 132520.0, 6960640.0 ], [ 132540.0, 6960570.0 ], [ 132540.0, 6960400.0 ], [ 132580.0, 6960360.0 ], [ 132610.0, 6960350.0 ], [ 132620.0, 6960310.0 ], [ 132570.0, 6960230.0 ], [ 132450.0, 6960110.0 ], [ 132430.0, 6960070.0 ], [ 132430.0, 6959940.0 ], [ 132420.0, 6959930.0 ] ] } }
]
}
