{
"type": "FeatureCollection",
"name": "multi_path_smooth_kyrkjetaket_06",
"crs": { "type": "name", "properties": { "name": "urn:ogc:def:crs:EPSG::25833" } },
"features": [
{ "type": "Feature", "properties": { "cat": 1 }, "geometry": { "type": "LineString", "coordinates": [ [ 136480.0, 6962330.0 ], [ 136470.0, 6962300.0 ], [ 136330.0, 6962240.0 ], [ 136160.0, 6962040.0 ], [ 136160.0, 6961970.0 ], [ 136100.0, 6961910.0 ], [ 136060.0, 6961890.0 ], [ 136040.0, 6961780.0 ], [ 136020.0, 6961760.0 ], [ 136020.0, 6961730.0 ], [ 135970.0, 6961670.0 ], [ 135960.0, 6961600.0 ], [ 135620.0, 6961260.0 ], [ 135580.0, 6961250.0 ], [ 135550.0, 6961220.0 ], [ 135450.0, 6961220.0 ], [ 135340.0, 6961190.0 ], [ 135070.0, 6961190.0 ], [ 135060.0, 6961200.0 ], [ 134890.0, 6961200.0 ], [ 134880.0, 6961210.0 ], [ 134700.0, 6961210.0 ], [ 134640.0, 6961240.0 ], [ 134330.0, 6961240.0 ], [ 134300.0, 6961220.0 ], [ 133750.0, 6961230.0 ], [ 133690.0, 6961250.0 ], [ 133410.0, 6961240.0 ], [ 133400.0, 6961250.0 ], [ 133340.0, 6961250.0 ], [ 133280.0, 6961330.0 ], [ 133250.0, 6961330.0 ], [ 133200.0, 6961360.0 ], [ 133170.0, 6961390.0 ], [ 133160.0, 6961420.0 ], [ 132970.0, 6961430.0 ], [ 132960.0, 6961440.0 ], [ 132820.0, 6961440.0 ], [ 132810.0, 6961450.0 ], [ 132740.0, 6961450.0 ], [ 132720.0, 6961430.0 ], [ 132670.0, 6961430.0 ], [ 132650.0, 6961410.0 ], [ 132650.0, 6961360.0 ], [ 132680.0, 6961290.0 ], [ 132670.0, 6961260.0 ], [ 132670.0, 6961190.0 ], [ 132680.0, 6961180.0 ], [ 132670.0, 6961110.0 ], [ 132520.0, 6960950.0 ], [ 132490.0, 6960870.0 ], [ 132490.0, 6960800.0 ], [ 132440.0, 6960750.0 ], [ 132450.0, 6960720.0 ], [ 132440.0, 6960670.0 ], [ 132490.0, 6960610.0 ], [ 132530.0, 6960540.0 ], [ 132530.0, 6960500.0 ], [ 132550.0, 6960480.0 ], [ 132550.0, 6960390.0 ], [ 132580.0, 6960360.0 ], [ 132610.0, 6960350.0 ], [ 132620.0, 6960310.0 ], [ 132570.0, 6960230.0 ], [ 132460.0, 6960120.0 ], [ 132440.0, 6959950.0 ], [ 132420.0, 6959930.0 ] ] } }
]
}
