{
"type": "FeatureCollection",
"name": "multi_path_smooth_kyrkjetaket_24",
"crs": { "type": "name", "properties": { "name": "urn:ogc:def:crs:EPSG::25833" } },
"features": [
{ "type": "Feature", "properties": { "cat": 1 }, "geometry": { "type": "LineString", "coordinates": [ [ 136480.0, 6962330.0 ], [ 136500.0, 6962300.0 ], [ 136580.0, 6962260.0 ], [ 136680.0, 6962260.0 ], [ 136690.0, 6962230.0 ], [ 136730.0, 6962200.0 ], [ 136730.0, 6962150.0 ], [ 136860.0, 6962010.0 ], [ 136870.0, 6961980.0 ], [ 136940.0, 6961910.0 ], [ 136980.0, 6961900.0 ], [ 137010.0, 6961870.0 ], [ 137060.0, 6961870.0 ], [ 137120.0, 6961810.0 ], [ 137130.0, 6961760.0 ], [ 137230.0, 6961660.0 ], [ 137230.0, 6961360.0 ], [ 137170.0, 6961260.0 ], [ 137170.0, 6961230.0 ], [ 137150.0, 6961210.0 ], [ 137140.0, 6961080.0 ], [ 137080.0, 6961020.0 ], [ 137080.0, 6960990.0 ], [ 136610.0, 6960520.0 ], [ 136390.0, 6960320.0 ], [ 136170.0, 6960310.0 ], [ 136160.0, 6960300.0 ], [ 135180.0, 6960280.0 ], [ 135120.0, 6960220.0 ], [ 135020.0, 6960220.0 ], [ 134970.0, 6960200.0 ], [ 134200.0, 6960190.0 ], [ 134130.0, 6960150.0 ], [ 133930.0, 6959970.0 ], [ 133810.0, 6959960.0 ], [ 133790.0, 6959940.0 ], [ 133750.0, 6959930.0 ], [ 133670.0, 6959930.0 ], [ 133630.0, 6959950.0 ], [ 133570.0, 6959950.0 ], [ 133500.0, 6959970.0 ], [ 133460.0, 6959960.0 ], [ 133380.0, 6959980.0 ], [ 133350.0, 6960010.0 ], [ 133290.0, 6960020.0 ], [ 133220.0, 6960070.0 ], [ 133190.0, 6960070.0 ], [ 133130.0, 6960010.0 ], [ 133110.0, 6960010.0 ], [ 133090.0, 6959990.0 ], [ 133090.0, 6959950.0 ], [ 133100.0, 6959940.0 ], [ 133100.0, 6959900.0 ], [ 133090.0, 6959890.0 ], [ 133070.0, 6959890.0 ], [ 133040.0, 6959860.0 ], [ 132940.0, 6959830.0 ], [ 132880.0, 6959830.0 ], [ 132850.0, 6959850.0 ], [ 132730.0, 6959880.0 ], [ 132630.0, 6959980.0 ], [ 132610.0, 6959980.0 ], [ 132540.0, 6959940.0 ], [ 132440.0, 6959940.0 ], [ 132420.0, 6959930.0 ] ] } }
]
}
