{
"type": "FeatureCollection",
"name": "multi_path_smooth_kyrkjetaket_21",
"crs": { "type": "name", "properties": { "name": "urn:ogc:def:crs:EPSG::25833" } },
"features": [
{ "type": "Feature", "properties": { "cat": 1 }, "geometry": { "type": "LineString", "coordinates": [ [ 136480.0, 6962330.0 ], [ 136470.0, 6962300.0 ], [ 136370.0, 6962260.0 ], [ 136150.0, 6962030.0 ], [ 136150.0, 6961970.0 ], [ 136080.0, 6961890.0 ], [ 136020.0, 6961730.0 ], [ 135970.0, 6961680.0 ], [ 135970.0, 6961620.0 ], [ 135780.0, 6961440.0 ], [ 135750.0, 6961440.0 ], [ 135590.0, 6961280.0 ], [ 135520.0, 6961240.0 ], [ 135480.0, 6961240.0 ], [ 135410.0, 6961200.0 ], [ 135110.0, 6961190.0 ], [ 135100.0, 6961200.0 ], [ 134910.0, 6961200.0 ], [ 134900.0, 6961210.0 ], [ 134820.0, 6961210.0 ], [ 134810.0, 6961220.0 ], [ 133990.0, 6961230.0 ], [ 133980.0, 6961240.0 ], [ 133780.0, 6961240.0 ], [ 133770.0, 6961250.0 ], [ 133500.0, 6961250.0 ], [ 133490.0, 6961260.0 ], [ 133370.0, 6961260.0 ], [ 133360.0, 6961270.0 ], [ 133030.0, 6961260.0 ], [ 132990.0, 6961300.0 ], [ 132830.0, 6961300.0 ], [ 132770.0, 6961240.0 ], [ 132770.0, 6961110.0 ], [ 132690.0, 6961010.0 ], [ 132710.0, 6960980.0 ], [ 132710.0, 6960940.0 ], [ 132660.0, 6960880.0 ], [ 132650.0, 6960770.0 ], [ 132630.0, 6960750.0 ], [ 132630.0, 6960430.0 ], [ 132590.0, 6960380.0 ], [ 132630.0, 6960310.0 ], [ 132630.0, 6960260.0 ], [ 132540.0, 6960150.0 ], [ 132540.0, 6960120.0 ], [ 132490.0, 6960040.0 ], [ 132490.0, 6960000.0 ], [ 132420.0, 6959930.0 ] ] } }
]
}
