{
"type": "FeatureCollection",
"name": "multi_path_smooth_kyrkjetaket_14",
"crs": { "type": "name", "properties": { "name": "urn:ogc:def:crs:EPSG::25833" } },
"features": [
{ "type": "Feature", "properties": { "cat": 1 }, "geometry": { "type": "LineString", "coordinates": [ [ 136480.0, 6962330.0 ], [ 136470.0, 6962300.0 ], [ 136360.0, 6962260.0 ], [ 136220.0, 6962110.0 ], [ 136220.0, 6962090.0 ], [ 136170.0, 6962030.0 ], [ 136170.0, 6961970.0 ], [ 136060.0, 6961880.0 ], [ 136030.0, 6961780.0 ], [ 135960.0, 6961690.0 ], [ 135960.0, 6961590.0 ], [ 135900.0, 6961530.0 ], [ 135900.0, 6961490.0 ], [ 135930.0, 6961460.0 ], [ 135980.0, 6961460.0 ], [ 136080.0, 6961350.0 ], [ 136090.0, 6961320.0 ], [ 136090.0, 6961120.0 ], [ 136150.0, 6961060.0 ], [ 136150.0, 6960980.0 ], [ 136190.0, 6960940.0 ], [ 136200.0, 6960800.0 ], [ 136180.0, 6960760.0 ], [ 136180.0, 6960730.0 ], [ 136080.0, 6960630.0 ], [ 136030.0, 6960630.0 ], [ 136010.0, 6960610.0 ], [ 135960.0, 6960610.0 ], [ 135940.0, 6960590.0 ], [ 135820.0, 6960590.0 ], [ 135780.0, 6960560.0 ], [ 135680.0, 6960550.0 ], [ 135650.0, 6960520.0 ], [ 135530.0, 6960520.0 ], [ 135490.0, 6960490.0 ], [ 135030.0, 6960490.0 ], [ 134960.0, 6960470.0 ], [ 134690.0, 6960470.0 ], [ 134680.0, 6960480.0 ], [ 134390.0, 6960470.0 ], [ 134380.0, 6960480.0 ], [ 134290.0, 6960480.0 ], [ 134280.0, 6960490.0 ], [ 134150.0, 6960500.0 ], [ 134140.0, 6960510.0 ], [ 133670.0, 6960520.0 ], [ 133510.0, 6960560.0 ], [ 133360.0, 6960560.0 ], [ 133350.0, 6960570.0 ], [ 133230.0, 6960580.0 ], [ 133180.0, 6960600.0 ], [ 133140.0, 6960600.0 ], [ 133100.0, 6960580.0 ], [ 133060.0, 6960580.0 ], [ 133020.0, 6960600.0 ], [ 132910.0, 6960590.0 ], [ 132900.0, 6960580.0 ], [ 132860.0, 6960580.0 ], [ 132840.0, 6960560.0 ], [ 132830.0, 6960520.0 ], [ 132710.0, 6960490.0 ], [ 132680.0, 6960460.0 ], [ 132650.0, 6960450.0 ], [ 132590.0, 6960390.0 ], [ 132620.0, 6960310.0 ], [ 132570.0, 6960230.0 ], [ 132480.0, 6960150.0 ], [ 132440.0, 6960090.0 ], [ 132440.0, 6960060.0 ], [ 132420.0, 6960040.0 ], [ 132420.0, 6960010.0 ], [ 132400.0, 6959980.0 ], [ 132400.0, 6959950.0 ], [ 132420.0, 6959930.0 ] ] } }
]
}
