{
"type": "FeatureCollection",
"name": "multi_path_smooth_kyrkjetaket_02",
"crs": { "type": "name", "properties": { "name": "urn:ogc:def:crs:EPSG::25833" } },
"features": [
{ "type": "Feature", "properties": { "cat": 1 }, "geometry": { "type": "LineString", "coordinates": [ [ 136480.0, 6962330.0 ], [ 136470.0, 6962300.0 ], [ 136330.0, 6962240.0 ], [ 136170.0, 6962070.0 ], [ 136160.0, 6961980.0 ], [ 136070.0, 6961890.0 ], [ 136070.0, 6961860.0 ], [ 136040.0, 6961810.0 ], [ 136030.0, 6961750.0 ], [ 135970.0, 6961680.0 ], [ 135970.0, 6961630.0 ], [ 135600.0, 6961260.0 ], [ 135570.0, 6961260.0 ], [ 135530.0, 6961220.0 ], [ 135490.0, 6961220.0 ], [ 135470.0, 6961200.0 ], [ 135350.0, 6961200.0 ], [ 135310.0, 6961180.0 ], [ 135010.0, 6961180.0 ], [ 135000.0, 6961190.0 ], [ 134890.0, 6961190.0 ], [ 134860.0, 6961210.0 ], [ 134500.0, 6961220.0 ], [ 134490.0, 6961230.0 ], [ 134320.0, 6961230.0 ], [ 134310.0, 6961220.0 ], [ 134080.0, 6961230.0 ], [ 134060.0, 6961210.0 ], [ 133820.0, 6961210.0 ], [ 133740.0, 6961240.0 ], [ 133480.0, 6961240.0 ], [ 133470.0, 6961230.0 ], [ 133410.0, 6961230.0 ], [ 133380.0, 6961250.0 ], [ 133340.0, 6961250.0 ], [ 133320.0, 6961270.0 ], [ 133280.0, 6961260.0 ], [ 133030.0, 6961260.0 ], [ 132980.0, 6961310.0 ], [ 132820.0, 6961310.0 ], [ 132800.0, 6961330.0 ], [ 132780.0, 6961330.0 ], [ 132740.0, 6961290.0 ], [ 132670.0, 6961250.0 ], [ 132670.0, 6961190.0 ], [ 132680.0, 6961180.0 ], [ 132670.0, 6961020.0 ], [ 132580.0, 6960920.0 ], [ 132520.0, 6960920.0 ], [ 132500.0, 6960900.0 ], [ 132490.0, 6960800.0 ], [ 132440.0, 6960750.0 ], [ 132450.0, 6960720.0 ], [ 132440.0, 6960670.0 ], [ 132480.0, 6960610.0 ], [ 132540.0, 6960550.0 ], [ 132540.0, 6960490.0 ], [ 132580.0, 6960420.0 ], [ 132570.0, 6960370.0 ], [ 132610.0, 6960350.0 ], [ 132620.0, 6960310.0 ], [ 132600.0, 6960250.0 ], [ 132440.0, 6960090.0 ], [ 132420.0, 6959930.0 ] ] } }
]
}
