{
"type": "FeatureCollection",
"name": "multi_path_smooth_kyrkjetaket_19",
"crs": { "type": "name", "properties": { "name": "urn:ogc:def:crs:EPSG::25833" } },
"features": [
{ "type": "Feature", "properties": { "cat": 1 }, "geometry": { "type": "LineString", "coordinates": [ [ 136480.0, 6962330.0 ], [ 136480.0, 6962310.0 ], [ 136460.0, 6962290.0 ], [ 136430.0, 6962290.0 ], [ 136380.0, 6962260.0 ], [ 136360.0, 6962260.0 ], [ 136220.0, 6962110.0 ], [ 136220.0, 6962090.0 ], [ 136180.0, 6962050.0 ], [ 136170.0, 6961970.0 ], [ 136080.0, 6961880.0 ], [ 136050.0, 6961840.0 ], [ 136000.0, 6961730.0 ], [ 135950.0, 6961680.0 ], [ 135950.0, 6961620.0 ], [ 135870.0, 6961540.0 ], [ 135820.0, 6961520.0 ], [ 135750.0, 6961450.0 ], [ 135720.0, 6961440.0 ], [ 135560.0, 6961270.0 ], [ 135470.0, 6961250.0 ], [ 135420.0, 6961210.0 ], [ 135350.0, 6961200.0 ], [ 135330.0, 6961180.0 ], [ 135270.0, 6961180.0 ], [ 135260.0, 6961170.0 ], [ 135020.0, 6961170.0 ], [ 134990.0, 6961190.0 ], [ 134810.0, 6961190.0 ], [ 134800.0, 6961200.0 ], [ 134710.0, 6961200.0 ], [ 134700.0, 6961210.0 ], [ 134360.0, 6961210.0 ], [ 134350.0, 6961220.0 ], [ 134290.0, 6961220.0 ], [ 134280.0, 6961210.0 ], [ 133520.0, 6961220.0 ], [ 133510.0, 6961230.0 ], [ 133430.0, 6961230.0 ], [ 133400.0, 6961250.0 ], [ 133350.0, 6961250.0 ], [ 133300.0, 6961310.0 ], [ 133300.0, 6961330.0 ], [ 133270.0, 6961360.0 ], [ 133230.0, 6961360.0 ], [ 133180.0, 6961430.0 ], [ 132860.0, 6961440.0 ], [ 132780.0, 6961360.0 ], [ 132780.0, 6961330.0 ], [ 132690.0, 6961250.0 ], [ 132670.0, 6961110.0 ], [ 132610.0, 6961040.0 ], [ 132600.0, 6960940.0 ], [ 132530.0, 6960860.0 ], [ 132530.0, 6960420.0 ], [ 132580.0, 6960360.0 ], [ 132600.0, 6960360.0 ], [ 132640.0, 6960320.0 ], [ 132640.0, 6960220.0 ], [ 132620.0, 6960200.0 ], [ 132620.0, 6960160.0 ], [ 132540.0, 6960080.0 ], [ 132530.0, 6960020.0 ], [ 132450.0, 6959940.0 ], [ 132420.0, 6959930.0 ] ] } }
]
}
