{
"type": "FeatureCollection",
"name": "multi_path_smooth_kyrkjetaket_15",
"crs": { "type": "name", "properties": { "name": "urn:ogc:def:crs:EPSG::25833" } },
"features": [
{ "type": "Feature", "properties": { "cat": 1 }, "geometry": { "type": "LineString", "coordinates": [ [ 136480.0, 6962330.0 ], [ 136480.0, 6962310.0 ], [ 136460.0, 6962290.0 ], [ 136370.0, 6962260.0 ], [ 136180.0, 6962060.0 ], [ 136160.0, 6962030.0 ], [ 136160.0, 6961970.0 ], [ 136060.0, 6961850.0 ], [ 136060.0, 6961820.0 ], [ 136020.0, 6961730.0 ], [ 135970.0, 6961680.0 ], [ 135970.0, 6961640.0 ], [ 135940.0, 6961610.0 ], [ 135940.0, 6961590.0 ], [ 135810.0, 6961450.0 ], [ 135810.0, 6961430.0 ], [ 135630.0, 6961260.0 ], [ 135570.0, 6961250.0 ], [ 135510.0, 6961200.0 ], [ 135470.0, 6961200.0 ], [ 135460.0, 6961190.0 ], [ 135010.0, 6961190.0 ], [ 134970.0, 6961210.0 ], [ 134850.0, 6961210.0 ], [ 134820.0, 6961230.0 ], [ 133980.0, 6961220.0 ], [ 133960.0, 6961240.0 ], [ 133860.0, 6961240.0 ], [ 133760.0, 6961310.0 ], [ 133730.0, 6961310.0 ], [ 133710.0, 6961330.0 ], [ 133670.0, 6961330.0 ], [ 133630.0, 6961350.0 ], [ 133320.0, 6961350.0 ], [ 133310.0, 6961360.0 ], [ 133230.0, 6961360.0 ], [ 133170.0, 6961430.0 ], [ 133150.0, 6961430.0 ], [ 133120.0, 6961460.0 ], [ 132910.0, 6961460.0 ], [ 132870.0, 6961430.0 ], [ 132790.0, 6961430.0 ], [ 132730.0, 6961370.0 ], [ 132710.0, 6961320.0 ], [ 132680.0, 6961290.0 ], [ 132670.0, 6961230.0 ], [ 132610.0, 6961170.0 ], [ 132610.0, 6961150.0 ], [ 132570.0, 6961080.0 ], [ 132560.0, 6960930.0 ], [ 132520.0, 6960890.0 ], [ 132530.0, 6960630.0 ], [ 132580.0, 6960580.0 ], [ 132580.0, 6960380.0 ], [ 132620.0, 6960330.0 ], [ 132600.0, 6960300.0 ], [ 132590.0, 6960240.0 ], [ 132520.0, 6960170.0 ], [ 132480.0, 6960110.0 ], [ 132480.0, 6960090.0 ], [ 132450.0, 6960060.0 ], [ 132420.0, 6959930.0 ] ] } }
]
}
