{
"type": "FeatureCollection",
"name": "multi_path_smooth_kyrkjetaket_23",
"crs": { "type": "name", "properties": { "name": "urn:ogc:def:crs:EPSG::25833" } },
"features": [
{ "type": "Feature", "properties": { "cat": 1 }, "geometry": { "type": "LineString", "coordinates": [ [ 136480.0, 6962330.0 ], [ 136500.0, 6962300.0 ], [ 136580.0, 6962260.0 ], [ 136680.0, 6962260.0 ], [ 136730.0, 6962190.0 ], [ 136870.0, 6962060.0 ], [ 136880.0, 6961980.0 ], [ 137000.0, 6961870.0 ], [ 137050.0, 6961870.0 ], [ 137160.0, 6961730.0 ], [ 137240.0, 6961650.0 ], [ 137240.0, 6961370.0 ], [ 137170.0, 6961270.0 ], [ 137160.0, 6961230.0 ], [ 137160.0, 6961040.0 ], [ 137140.0, 6961010.0 ], [ 136330.0, 6960200.0 ], [ 136340.0, 6960150.0 ], [ 136230.0, 6960040.0 ], [ 136150.0, 6960020.0 ], [ 136090.0, 6960020.0 ], [ 136080.0, 6960030.0 ], [ 136020.0, 6960030.0 ], [ 135990.0, 6960050.0 ], [ 135880.0, 6960050.0 ], [ 135860.0, 6960070.0 ], [ 135510.0, 6960080.0 ], [ 135390.0, 6960120.0 ], [ 135320.0, 6960120.0 ], [ 135260.0, 6960140.0 ], [ 135170.0, 6960140.0 ], [ 135160.0, 6960150.0 ], [ 135070.0, 6960150.0 ], [ 135010.0, 6960170.0 ], [ 134790.0, 6960170.0 ], [ 134780.0, 6960160.0 ], [ 134600.0, 6960160.0 ], [ 134560.0, 6960130.0 ], [ 134260.0, 6960130.0 ], [ 134220.0, 6960120.0 ], [ 134190.0, 6960110.0 ], [ 133980.0, 6959900.0 ], [ 133950.0, 6959910.0 ], [ 133700.0, 6959920.0 ], [ 133630.0, 6959950.0 ], [ 133570.0, 6959950.0 ], [ 133500.0, 6959970.0 ], [ 133460.0, 6959960.0 ], [ 133450.0, 6959970.0 ], [ 133400.0, 6959970.0 ], [ 133370.0, 6959980.0 ], [ 133340.0, 6960010.0 ], [ 133280.0, 6960020.0 ], [ 133220.0, 6960070.0 ], [ 133170.0, 6960060.0 ], [ 133090.0, 6959980.0 ], [ 133100.0, 6959940.0 ], [ 133100.0, 6959900.0 ], [ 133090.0, 6959890.0 ], [ 133070.0, 6959890.0 ], [ 133040.0, 6959860.0 ], [ 132990.0, 6959840.0 ], [ 132950.0, 6959840.0 ], [ 132900.0, 6959820.0 ], [ 132850.0, 6959850.0 ], [ 132760.0, 6959880.0 ], [ 132720.0, 6959880.0 ], [ 132630.0, 6959980.0 ], [ 132600.0, 6959980.0 ], [ 132570.0, 6959950.0 ], [ 132540.0, 6959940.0 ], [ 132440.0, 6959940.0 ], [ 132420.0, 6959930.0 ] ] } }
]
}
