{
"type": "FeatureCollection",
"name": "multi_path_smooth_kyrkjetaket_28",
"crs": { "type": "name", "properties": { "name": "urn:ogc:def:crs:EPSG::25833" } },
"features": [
{ "type": "Feature", "properties": { "cat": 1 }, "geometry": { "type": "LineString", "coordinates": [ [ 136480.0, 6962330.0 ], [ 136500.0, 6962300.0 ], [ 136580.0, 6962260.0 ], [ 136650.0, 6962260.0 ], [ 136660.0, 6962230.0 ], [ 136730.0, 6962150.0 ], [ 137290.0, 6961610.0 ], [ 137290.0, 6961590.0 ], [ 137360.0, 6961490.0 ], [ 137370.0, 6961440.0 ], [ 137390.0, 6961410.0 ], [ 137480.0, 6961330.0 ], [ 137480.0, 6961210.0 ], [ 136860.0, 6960610.0 ], [ 136710.0, 6960610.0 ], [ 136680.0, 6960580.0 ], [ 136660.0, 6960580.0 ], [ 136620.0, 6960540.0 ], [ 136590.0, 6960530.0 ], [ 136510.0, 6960450.0 ], [ 136450.0, 6960440.0 ], [ 136360.0, 6960350.0 ], [ 136290.0, 6960350.0 ], [ 136220.0, 6960320.0 ], [ 136020.0, 6960310.0 ], [ 135940.0, 6960230.0 ], [ 135270.0, 6960230.0 ], [ 135250.0, 6960240.0 ], [ 135210.0, 6960200.0 ], [ 134920.0, 6960200.0 ], [ 134900.0, 6960220.0 ], [ 133920.0, 6960220.0 ], [ 133860.0, 6960280.0 ], [ 133170.0, 6960280.0 ], [ 133130.0, 6960270.0 ], [ 133110.0, 6960250.0 ], [ 133080.0, 6960250.0 ], [ 133050.0, 6960220.0 ], [ 133000.0, 6960210.0 ], [ 132860.0, 6960070.0 ], [ 132810.0, 6960040.0 ], [ 132730.0, 6959960.0 ], [ 132670.0, 6959960.0 ], [ 132550.0, 6959910.0 ], [ 132440.0, 6959910.0 ], [ 132420.0, 6959930.0 ] ] } }
]
}
