{
"type": "FeatureCollection",
"name": "multi_path_smooth_kyrkjetaket_18",
"crs": { "type": "name", "properties": { "name": "urn:ogc:def:crs:EPSG::25833" } },
"features": [
{ "type": "Feature", "properties": { "cat": 1 }, "geometry": { "type": "LineString", "coordinates": [ [ 136480.0, 6962330.0 ], [ 136470.0, 6962300.0 ], [ 136330.0, 6962240.0 ], [ 136160.0, 6962070.0 ], [ 136150.0, 6961970.0 ], [ 136100.0, 6961910.0 ], [ 136070.0, 6961910.0 ], [ 136050.0, 6961890.0 ], [ 136040.0, 6961770.0 ], [ 135990.0, 6961680.0 ], [ 135990.0, 6961650.0 ], [ 136010.0, 6961630.0 ], [ 136030.0, 6961630.0 ], [ 136070.0, 6961590.0 ], [ 136070.0, 6961560.0 ], [ 136100.0, 6961530.0 ], [ 136100.0, 6961510.0 ], [ 136190.0, 6961420.0 ], [ 136190.0, 6961400.0 ], [ 136290.0, 6961270.0 ], [ 136300.0, 6961240.0 ], [ 136300.0, 6961030.0 ], [ 136320.0, 6961000.0 ], [ 136320.0, 6960880.0 ], [ 136350.0, 6960840.0 ], [ 136350.0, 6960780.0 ], [ 136200.0, 6960630.0 ], [ 136170.0, 6960630.0 ], [ 136100.0, 6960580.0 ], [ 136050.0, 6960570.0 ], [ 135930.0, 6960450.0 ], [ 135840.0, 6960450.0 ], [ 135830.0, 6960440.0 ], [ 135350.0, 6960440.0 ], [ 135340.0, 6960430.0 ], [ 134620.0, 6960430.0 ], [ 134590.0, 6960460.0 ], [ 134550.0, 6960470.0 ], [ 134390.0, 6960470.0 ], [ 134380.0, 6960480.0 ], [ 134290.0, 6960480.0 ], [ 134280.0, 6960490.0 ], [ 134150.0, 6960500.0 ], [ 134140.0, 6960510.0 ], [ 133670.0, 6960520.0 ], [ 133510.0, 6960560.0 ], [ 133270.0, 6960570.0 ], [ 133180.0, 6960600.0 ], [ 133100.0, 6960580.0 ], [ 133020.0, 6960600.0 ], [ 132970.0, 6960600.0 ], [ 132850.0, 6960570.0 ], [ 132830.0, 6960520.0 ], [ 132730.0, 6960500.0 ], [ 132650.0, 6960450.0 ], [ 132590.0, 6960390.0 ], [ 132590.0, 6960370.0 ], [ 132620.0, 6960330.0 ], [ 132570.0, 6960230.0 ], [ 132440.0, 6960090.0 ], [ 132420.0, 6960040.0 ], [ 132420.0, 6959970.0 ], [ 132410.0, 6959960.0 ], [ 132420.0, 6959930.0 ] ] } }
]
}
