{
"type": "FeatureCollection",
"name": "multi_path_smooth_kyrkjetaket_33",
"crs": { "type": "name", "properties": { "name": "urn:ogc:def:crs:EPSG::25833" } },
"features": [
{ "type": "Feature", "properties": { "cat": 1 }, "geometry": { "type": "LineString", "coordinates": [ [ 136480.0, 6962330.0 ], [ 136500.0, 6962300.0 ], [ 136560.0, 6962280.0 ], [ 136850.0, 6961990.0 ], [ 136960.0, 6961870.0 ], [ 136960.0, 6961830.0 ], [ 137040.0, 6961750.0 ], [ 137110.0, 6961750.0 ], [ 137200.0, 6961660.0 ], [ 137190.0, 6961360.0 ], [ 137170.0, 6961300.0 ], [ 137090.0, 6961210.0 ], [ 137090.0, 6961090.0 ], [ 136760.0, 6960760.0 ], [ 136740.0, 6960760.0 ], [ 136630.0, 6960650.0 ], [ 136570.0, 6960620.0 ], [ 136520.0, 6960620.0 ], [ 136480.0, 6960600.0 ], [ 136450.0, 6960600.0 ], [ 136330.0, 6960480.0 ], [ 136180.0, 6960470.0 ], [ 136140.0, 6960440.0 ], [ 136020.0, 6960440.0 ], [ 136010.0, 6960430.0 ], [ 135480.0, 6960430.0 ], [ 135460.0, 6960410.0 ], [ 134970.0, 6960410.0 ], [ 134850.0, 6960300.0 ], [ 134830.0, 6960300.0 ], [ 134810.0, 6960280.0 ], [ 134700.0, 6960270.0 ], [ 134690.0, 6960260.0 ], [ 134250.0, 6960270.0 ], [ 134240.0, 6960280.0 ], [ 133920.0, 6960280.0 ], [ 133850.0, 6960250.0 ], [ 133670.0, 6960250.0 ], [ 133660.0, 6960240.0 ], [ 133130.0, 6960240.0 ], [ 133100.0, 6960210.0 ], [ 132960.0, 6960210.0 ], [ 132880.0, 6960160.0 ], [ 132790.0, 6960160.0 ], [ 132620.0, 6960000.0 ], [ 132540.0, 6959970.0 ], [ 132510.0, 6959940.0 ], [ 132420.0, 6959930.0 ] ] } }
]
}
