{
"type": "FeatureCollection",
"name": "multi_path_smooth_kyrkjetaket_34",
"crs": { "type": "name", "properties": { "name": "urn:ogc:def:crs:EPSG::25833" } },
"features": [
{ "type": "Feature", "properties": { "cat": 1 }, "geometry": { "type": "LineString", "coordinates": [ [ 136480.0, 6962330.0 ], [ 136470.0, 6962300.0 ], [ 136370.0, 6962260.0 ], [ 136340.0, 6962230.0 ], [ 136200.0, 6962070.0 ], [ 136190.0, 6962050.0 ], [ 136190.0, 6961980.0 ], [ 136140.0, 6961930.0 ], [ 136100.0, 6961910.0 ], [ 135930.0, 6961920.0 ], [ 135860.0, 6961990.0 ], [ 135850.0, 6962030.0 ], [ 135820.0, 6962060.0 ], [ 135800.0, 6962070.0 ], [ 135690.0, 6962070.0 ], [ 135610.0, 6961990.0 ], [ 135600.0, 6961950.0 ], [ 135440.0, 6961790.0 ], [ 135340.0, 6961780.0 ], [ 135330.0, 6961770.0 ], [ 135180.0, 6961770.0 ], [ 135150.0, 6961760.0 ], [ 135080.0, 6961700.0 ], [ 135030.0, 6961690.0 ], [ 134980.0, 6961640.0 ], [ 134590.0, 6961640.0 ], [ 134570.0, 6961620.0 ], [ 134330.0, 6961620.0 ], [ 134320.0, 6961630.0 ], [ 134170.0, 6961630.0 ], [ 134160.0, 6961640.0 ], [ 133810.0, 6961650.0 ], [ 133760.0, 6961630.0 ], [ 133590.0, 6961630.0 ], [ 133480.0, 6961600.0 ], [ 133040.0, 6961600.0 ], [ 132980.0, 6961570.0 ], [ 132910.0, 6961570.0 ], [ 132870.0, 6961530.0 ], [ 132850.0, 6961530.0 ], [ 132790.0, 6961480.0 ], [ 132660.0, 6961350.0 ], [ 132650.0, 6961270.0 ], [ 132630.0, 6961250.0 ], [ 132630.0, 6961070.0 ], [ 132490.0, 6960930.0 ], [ 132490.0, 6960910.0 ], [ 132460.0, 6960890.0 ], [ 132460.0, 6960870.0 ], [ 132430.0, 6960830.0 ], [ 132430.0, 6960750.0 ], [ 132400.0, 6960700.0 ], [ 132420.0, 6960680.0 ], [ 132420.0, 6960580.0 ], [ 132440.0, 6960560.0 ], [ 132440.0, 6960420.0 ], [ 132480.0, 6960380.0 ], [ 132490.0, 6960350.0 ], [ 132560.0, 6960280.0 ], [ 132470.0, 6960190.0 ], [ 132470.0, 6960170.0 ], [ 132350.0, 6960050.0 ], [ 132350.0, 6959980.0 ], [ 132400.0, 6959930.0 ], [ 132420.0, 6959930.0 ] ] } }
]
}
