{
"type": "FeatureCollection",
"name": "multi_path_smooth_kyrkjetaket_30",
"crs": { "type": "name", "properties": { "name": "urn:ogc:def:crs:EPSG::25833" } },
"features": [
{ "type": "Feature", "properties": { "cat": 1 }, "geometry": { "type": "LineString", "coordinates": [ [ 136480.0, 6962330.0 ], [ 136500.0, 6962300.0 ], [ 136560.0, 6962280.0 ], [ 136590.0, 6962250.0 ], [ 136590.0, 6962220.0 ], [ 136640.0, 6962170.0 ], [ 136640.0, 6962100.0 ], [ 136650.0, 6962080.0 ], [ 136850.0, 6961860.0 ], [ 136870.0, 6961820.0 ], [ 136990.0, 6961700.0 ], [ 137020.0, 6961690.0 ], [ 137120.0, 6961690.0 ], [ 137160.0, 6961650.0 ], [ 137160.0, 6961430.0 ], [ 137120.0, 6961380.0 ], [ 137120.0, 6961350.0 ], [ 137080.0, 6961310.0 ], [ 137080.0, 6961260.0 ], [ 137070.0, 6961250.0 ], [ 137070.0, 6961040.0 ], [ 137050.0, 6961010.0 ], [ 136670.0, 6960620.0 ], [ 136620.0, 6960580.0 ], [ 136590.0, 6960580.0 ], [ 136500.0, 6960500.0 ], [ 136440.0, 6960480.0 ], [ 136130.0, 6960180.0 ], [ 135570.0, 6960180.0 ], [ 135560.0, 6960190.0 ], [ 135350.0, 6960200.0 ], [ 135340.0, 6960190.0 ], [ 135300.0, 6960190.0 ], [ 135290.0, 6960170.0 ], [ 135270.0, 6960180.0 ], [ 135000.0, 6960180.0 ], [ 134990.0, 6960170.0 ], [ 134850.0, 6960160.0 ], [ 134840.0, 6960150.0 ], [ 134170.0, 6960140.0 ], [ 134150.0, 6960120.0 ], [ 133880.0, 6960120.0 ], [ 133870.0, 6960110.0 ], [ 133520.0, 6960110.0 ], [ 133470.0, 6960130.0 ], [ 133230.0, 6960130.0 ], [ 133220.0, 6960120.0 ], [ 133160.0, 6960120.0 ], [ 133090.0, 6960060.0 ], [ 133030.0, 6960060.0 ], [ 132980.0, 6960040.0 ], [ 132860.0, 6959930.0 ], [ 132800.0, 6959920.0 ], [ 132760.0, 6959880.0 ], [ 132690.0, 6959870.0 ], [ 132620.0, 6959830.0 ], [ 132550.0, 6959840.0 ], [ 132500.0, 6959890.0 ], [ 132460.0, 6959890.0 ], [ 132420.0, 6959930.0 ] ] } }
]
}
