{
"type": "FeatureCollection",
"name": "multi_path_smooth_kyrkjetaket_12",
"crs": { "type": "name", "properties": { "name": "urn:ogc:def:crs:EPSG::25833" } },
"features": [
{ "type": "Feature", "properties": { "cat": 1 }, "geometry": { "type": "LineString", "coordinates": [ [ 136480.0, 6962330.0 ], [ 136470.0, 6962300.0 ], [ 136350.0, 6962250.0 ], [ 136180.0, 6962070.0 ], [ 136150.0, 6962030.0 ], [ 136150.0, 6961970.0 ], [ 136100.0, 6961910.0 ], [ 136080.0, 6961910.0 ], [ 136060.0, 6961890.0 ], [ 136040.0, 6961800.0 ], [ 136010.0, 6961770.0 ], [ 136010.0, 6961710.0 ], [ 135980.0, 6961680.0 ], [ 135970.0, 6961610.0 ], [ 135630.0, 6961250.0 ], [ 135580.0, 6961210.0 ], [ 135340.0, 6961200.0 ], [ 135260.0, 6961180.0 ], [ 134830.0, 6961180.0 ], [ 134780.0, 6961220.0 ], [ 134720.0, 6961220.0 ], [ 134650.0, 6961240.0 ], [ 133830.0, 6961230.0 ], [ 133820.0, 6961240.0 ], [ 133700.0, 6961240.0 ], [ 133690.0, 6961250.0 ], [ 133570.0, 6961250.0 ], [ 133560.0, 6961260.0 ], [ 133430.0, 6961260.0 ], [ 133420.0, 6961250.0 ], [ 133130.0, 6961260.0 ], [ 133120.0, 6961270.0 ], [ 133100.0, 6961260.0 ], [ 133010.0, 6961260.0 ], [ 132970.0, 6961300.0 ], [ 132820.0, 6961290.0 ], [ 132510.0, 6960960.0 ], [ 132510.0, 6960920.0 ], [ 132490.0, 6960870.0 ], [ 132490.0, 6960800.0 ], [ 132460.0, 6960760.0 ], [ 132440.0, 6960680.0 ], [ 132510.0, 6960570.0 ], [ 132520.0, 6960500.0 ], [ 132580.0, 6960420.0 ], [ 132580.0, 6960380.0 ], [ 132620.0, 6960330.0 ], [ 132610.0, 6960320.0 ], [ 132610.0, 6960260.0 ], [ 132500.0, 6960130.0 ], [ 132510.0, 6960080.0 ], [ 132440.0, 6960010.0 ], [ 132440.0, 6959970.0 ], [ 132420.0, 6959950.0 ], [ 132420.0, 6959930.0 ] ] } }
]
}
