{
"type": "FeatureCollection",
"name": "multi_path_smooth_kyrkjetaket_35",
"crs": { "type": "name", "properties": { "name": "urn:ogc:def:crs:EPSG::25833" } },
"features": [
{ "type": "Feature", "properties": { "cat": 1 }, "geometry": { "type": "LineString", "coordinates": [ [ 136480.0, 6962330.0 ], [ 136500.0, 6962300.0 ], [ 136560.0, 6962280.0 ], [ 136640.0, 6962200.0 ], [ 136650.0, 6962130.0 ], [ 136680.0, 6962100.0 ], [ 136700.0, 6962100.0 ], [ 136740.0, 6962070.0 ], [ 136930.0, 6961890.0 ], [ 136950.0, 6961890.0 ], [ 136970.0, 6961870.0 ], [ 137060.0, 6961870.0 ], [ 137170.0, 6961760.0 ], [ 137220.0, 6961760.0 ], [ 137260.0, 6961720.0 ], [ 137260.0, 6961670.0 ], [ 137330.0, 6961590.0 ], [ 137350.0, 6961580.0 ], [ 137470.0, 6961580.0 ], [ 137540.0, 6961510.0 ], [ 137540.0, 6961440.0 ], [ 137520.0, 6961420.0 ], [ 137510.0, 6961380.0 ], [ 137510.0, 6961200.0 ], [ 137380.0, 6961070.0 ], [ 137370.0, 6960950.0 ], [ 137340.0, 6960910.0 ], [ 137340.0, 6960890.0 ], [ 137290.0, 6960840.0 ], [ 137280.0, 6960810.0 ], [ 137280.0, 6960720.0 ], [ 137130.0, 6960570.0 ], [ 137080.0, 6960550.0 ], [ 136920.0, 6960390.0 ], [ 136810.0, 6960360.0 ], [ 136680.0, 6960230.0 ], [ 136630.0, 6960210.0 ], [ 136570.0, 6960150.0 ], [ 136570.0, 6960120.0 ], [ 136260.0, 6959820.0 ], [ 136150.0, 6959820.0 ], [ 136130.0, 6959800.0 ], [ 135900.0, 6959800.0 ], [ 135820.0, 6959780.0 ], [ 135420.0, 6959770.0 ], [ 135410.0, 6959760.0 ], [ 135240.0, 6959760.0 ], [ 135200.0, 6959770.0 ], [ 135170.0, 6959800.0 ], [ 135140.0, 6959800.0 ], [ 135030.0, 6959840.0 ], [ 134420.0, 6959820.0 ], [ 134410.0, 6959830.0 ], [ 134320.0, 6959830.0 ], [ 134290.0, 6959860.0 ], [ 134260.0, 6959870.0 ], [ 134130.0, 6959860.0 ], [ 134110.0, 6959880.0 ], [ 134090.0, 6959860.0 ], [ 134080.0, 6959870.0 ], [ 134050.0, 6959860.0 ], [ 133950.0, 6959910.0 ], [ 133730.0, 6959910.0 ], [ 133630.0, 6959950.0 ], [ 133370.0, 6959980.0 ], [ 133340.0, 6960010.0 ], [ 133280.0, 6960020.0 ], [ 133220.0, 6960070.0 ], [ 133170.0, 6960060.0 ], [ 133130.0, 6960010.0 ], [ 133110.0, 6960010.0 ], [ 133090.0, 6959990.0 ], [ 133020.0, 6959980.0 ], [ 133000.0, 6959960.0 ], [ 132970.0, 6959960.0 ], [ 132940.0, 6959930.0 ], [ 132860.0, 6959900.0 ], [ 132480.0, 6959890.0 ], [ 132450.0, 6959900.0 ], [ 132420.0, 6959930.0 ] ] } }
]
}
