{
"type": "FeatureCollection",
"name": "multi_path_smooth_kyrkjetaket_25",
"crs": { "type": "name", "properties": { "name": "urn:ogc:def:crs:EPSG::25833" } },
"features": [
{ "type": "Feature", "properties": { "cat": 1 }, "geometry": { "type": "LineString", "coordinates": [ [ 136480.0, 6962330.0 ], [ 136470.0, 6962300.0 ], [ 136370.0, 6962260.0 ], [ 136160.0, 6962050.0 ], [ 136150.0, 6961970.0 ], [ 136130.0, 6961940.0 ], [ 136100.0, 6961910.0 ], [ 136070.0, 6961910.0 ], [ 136050.0, 6961890.0 ], [ 136050.0, 6961840.0 ], [ 136030.0, 6961820.0 ], [ 136030.0, 6961770.0 ], [ 135960.0, 6961690.0 ], [ 135960.0, 6961630.0 ], [ 135940.0, 6961610.0 ], [ 135940.0, 6961590.0 ], [ 135600.0, 6961240.0 ], [ 135580.0, 6961240.0 ], [ 135560.0, 6961220.0 ], [ 135490.0, 6961220.0 ], [ 135450.0, 6961190.0 ], [ 135340.0, 6961190.0 ], [ 135330.0, 6961180.0 ], [ 134850.0, 6961180.0 ], [ 134790.0, 6961240.0 ], [ 134330.0, 6961240.0 ], [ 134310.0, 6961220.0 ], [ 134210.0, 6961210.0 ], [ 134200.0, 6961200.0 ], [ 133850.0, 6961210.0 ], [ 133750.0, 6961310.0 ], [ 133720.0, 6961310.0 ], [ 133700.0, 6961330.0 ], [ 133670.0, 6961330.0 ], [ 133630.0, 6961350.0 ], [ 133320.0, 6961350.0 ], [ 133310.0, 6961360.0 ], [ 133230.0, 6961360.0 ], [ 133170.0, 6961430.0 ], [ 133150.0, 6961430.0 ], [ 133110.0, 6961460.0 ], [ 132910.0, 6961460.0 ], [ 132870.0, 6961430.0 ], [ 132790.0, 6961430.0 ], [ 132670.0, 6961310.0 ], [ 132680.0, 6961290.0 ], [ 132670.0, 6961260.0 ], [ 132670.0, 6961100.0 ], [ 132630.0, 6961050.0 ], [ 132630.0, 6960990.0 ], [ 132610.0, 6960970.0 ], [ 132610.0, 6960930.0 ], [ 132540.0, 6960830.0 ], [ 132550.0, 6960400.0 ], [ 132580.0, 6960360.0 ], [ 132600.0, 6960360.0 ], [ 132650.0, 6960310.0 ], [ 132650.0, 6960230.0 ], [ 132610.0, 6960190.0 ], [ 132610.0, 6960170.0 ], [ 132550.0, 6960110.0 ], [ 132540.0, 6960070.0 ], [ 132420.0, 6959950.0 ], [ 132420.0, 6959930.0 ] ] } }
]
}
