{
"type": "FeatureCollection",
"name": "multi_path_smooth_kyrkjetaket_05",
"crs": { "type": "name", "properties": { "name": "urn:ogc:def:crs:EPSG::25833" } },
"features": [
{ "type": "Feature", "properties": { "cat": 1 }, "geometry": { "type": "LineString", "coordinates": [ [ 136480.0, 6962330.0 ], [ 136470.0, 6962300.0 ], [ 136320.0, 6962230.0 ], [ 136180.0, 6962070.0 ], [ 136150.0, 6962030.0 ], [ 136150.0, 6961970.0 ], [ 136050.0, 6961840.0 ], [ 136040.0, 6961770.0 ], [ 135980.0, 6961680.0 ], [ 135980.0, 6961630.0 ], [ 136140.0, 6961470.0 ], [ 136140.0, 6961330.0 ], [ 136270.0, 6961180.0 ], [ 136270.0, 6961110.0 ], [ 136290.0, 6961080.0 ], [ 136290.0, 6961030.0 ], [ 136320.0, 6961000.0 ], [ 136320.0, 6960880.0 ], [ 136340.0, 6960840.0 ], [ 136340.0, 6960780.0 ], [ 136200.0, 6960650.0 ], [ 136160.0, 6960650.0 ], [ 136130.0, 6960620.0 ], [ 136100.0, 6960620.0 ], [ 136070.0, 6960590.0 ], [ 136020.0, 6960580.0 ], [ 135950.0, 6960510.0 ], [ 135520.0, 6960510.0 ], [ 135500.0, 6960490.0 ], [ 135200.0, 6960490.0 ], [ 135180.0, 6960470.0 ], [ 135070.0, 6960470.0 ], [ 135060.0, 6960460.0 ], [ 134390.0, 6960470.0 ], [ 134380.0, 6960480.0 ], [ 134290.0, 6960480.0 ], [ 134280.0, 6960490.0 ], [ 134150.0, 6960500.0 ], [ 134140.0, 6960510.0 ], [ 133670.0, 6960520.0 ], [ 133510.0, 6960560.0 ], [ 133270.0, 6960570.0 ], [ 133180.0, 6960600.0 ], [ 133100.0, 6960580.0 ], [ 133070.0, 6960580.0 ], [ 133030.0, 6960600.0 ], [ 132910.0, 6960590.0 ], [ 132850.0, 6960570.0 ], [ 132820.0, 6960520.0 ], [ 132740.0, 6960500.0 ], [ 132590.0, 6960410.0 ], [ 132590.0, 6960370.0 ], [ 132620.0, 6960340.0 ], [ 132620.0, 6960310.0 ], [ 132570.0, 6960230.0 ], [ 132450.0, 6960110.0 ], [ 132430.0, 6960050.0 ], [ 132420.0, 6959930.0 ] ] } }
]
}
