{
"type": "FeatureCollection",
"name": "multi_path_smooth_kyrkjetaket_09",
"crs": { "type": "name", "properties": { "name": "urn:ogc:def:crs:EPSG::25833" } },
"features": [
{ "type": "Feature", "properties": { "cat": 1 }, "geometry": { "type": "LineString", "coordinates": [ [ 136480.0, 6962330.0 ], [ 136470.0, 6962300.0 ], [ 136360.0, 6962260.0 ], [ 136160.0, 6962070.0 ], [ 136140.0, 6961940.0 ], [ 136070.0, 6961880.0 ], [ 136060.0, 6961830.0 ], [ 136030.0, 6961790.0 ], [ 136030.0, 6961760.0 ], [ 135950.0, 6961670.0 ], [ 135950.0, 6961630.0 ], [ 135850.0, 6961530.0 ], [ 135820.0, 6961520.0 ], [ 135600.0, 6961280.0 ], [ 135550.0, 6961270.0 ], [ 135460.0, 6961200.0 ], [ 135430.0, 6961190.0 ], [ 135340.0, 6961190.0 ], [ 135330.0, 6961180.0 ], [ 135260.0, 6961180.0 ], [ 135250.0, 6961170.0 ], [ 135060.0, 6961170.0 ], [ 135030.0, 6961190.0 ], [ 134750.0, 6961190.0 ], [ 134700.0, 6961210.0 ], [ 134430.0, 6961210.0 ], [ 134420.0, 6961220.0 ], [ 134180.0, 6961220.0 ], [ 134170.0, 6961230.0 ], [ 133980.0, 6961220.0 ], [ 133940.0, 6961240.0 ], [ 133800.0, 6961240.0 ], [ 133740.0, 6961300.0 ], [ 133720.0, 6961300.0 ], [ 133700.0, 6961320.0 ], [ 133670.0, 6961320.0 ], [ 133620.0, 6961350.0 ], [ 133220.0, 6961350.0 ], [ 133160.0, 6961420.0 ], [ 133120.0, 6961420.0 ], [ 133080.0, 6961380.0 ], [ 133030.0, 6961360.0 ], [ 132930.0, 6961360.0 ], [ 132880.0, 6961340.0 ], [ 132780.0, 6961330.0 ], [ 132700.0, 6961260.0 ], [ 132700.0, 6961210.0 ], [ 132680.0, 6961190.0 ], [ 132670.0, 6961120.0 ], [ 132550.0, 6961000.0 ], [ 132550.0, 6960960.0 ], [ 132500.0, 6960910.0 ], [ 132490.0, 6960780.0 ], [ 132520.0, 6960730.0 ], [ 132520.0, 6960700.0 ], [ 132540.0, 6960680.0 ], [ 132550.0, 6960600.0 ], [ 132560.0, 6960590.0 ], [ 132570.0, 6960370.0 ], [ 132620.0, 6960340.0 ], [ 132620.0, 6960270.0 ], [ 132600.0, 6960230.0 ], [ 132420.0, 6960040.0 ], [ 132420.0, 6959970.0 ], [ 132410.0, 6959960.0 ], [ 132420.0, 6959930.0 ] ] } }
]
}
