{
"type": "FeatureCollection",
"name": "multi_path_smooth_kyrkjetaket_17",
"crs": { "type": "name", "properties": { "name": "urn:ogc:def:crs:EPSG::25833" } },
"features": [
{ "type": "Feature", "properties": { "cat": 1 }, "geometry": { "type": "LineString", "coordinates": [ [ 136480.0, 6962330.0 ], [ 136480.0, 6962310.0 ], [ 136460.0, 6962290.0 ], [ 136370.0, 6962260.0 ], [ 136180.0, 6962070.0 ], [ 136170.0, 6961970.0 ], [ 136080.0, 6961880.0 ], [ 136060.0, 6961850.0 ], [ 136060.0, 6961820.0 ], [ 136020.0, 6961760.0 ], [ 136010.0, 6961710.0 ], [ 135950.0, 6961650.0 ], [ 135930.0, 6961600.0 ], [ 135870.0, 6961540.0 ], [ 135810.0, 6961520.0 ], [ 135570.0, 6961290.0 ], [ 135520.0, 6961260.0 ], [ 135490.0, 6961260.0 ], [ 135400.0, 6961200.0 ], [ 135270.0, 6961190.0 ], [ 135250.0, 6961170.0 ], [ 135020.0, 6961170.0 ], [ 135010.0, 6961180.0 ], [ 134890.0, 6961190.0 ], [ 134850.0, 6961230.0 ], [ 134840.0, 6961380.0 ], [ 134430.0, 6961790.0 ], [ 134310.0, 6961790.0 ], [ 134280.0, 6961820.0 ], [ 133980.0, 6961820.0 ], [ 133950.0, 6961790.0 ], [ 133850.0, 6961780.0 ], [ 133840.0, 6961770.0 ], [ 133630.0, 6961770.0 ], [ 133570.0, 6961790.0 ], [ 133370.0, 6961790.0 ], [ 133340.0, 6961810.0 ], [ 133250.0, 6961810.0 ], [ 133240.0, 6961820.0 ], [ 133040.0, 6961820.0 ], [ 133020.0, 6961800.0 ], [ 132980.0, 6961790.0 ], [ 132940.0, 6961750.0 ], [ 132920.0, 6961750.0 ], [ 132890.0, 6961720.0 ], [ 132750.0, 6961640.0 ], [ 132720.0, 6961560.0 ], [ 132660.0, 6961480.0 ], [ 132650.0, 6961450.0 ], [ 132650.0, 6961360.0 ], [ 132680.0, 6961270.0 ], [ 132670.0, 6961240.0 ], [ 132630.0, 6961200.0 ], [ 132620.0, 6961140.0 ], [ 132580.0, 6961080.0 ], [ 132570.0, 6960970.0 ], [ 132530.0, 6960930.0 ], [ 132510.0, 6960890.0 ], [ 132510.0, 6960610.0 ], [ 132550.0, 6960560.0 ], [ 132550.0, 6960400.0 ], [ 132620.0, 6960330.0 ], [ 132570.0, 6960230.0 ], [ 132540.0, 6960220.0 ], [ 132480.0, 6960150.0 ], [ 132470.0, 6960060.0 ], [ 132450.0, 6960040.0 ], [ 132450.0, 6959950.0 ], [ 132420.0, 6959930.0 ] ] } }
]
}
