{
"type": "FeatureCollection",
"name": "multi_path_smooth_kyrkjetaket_08",
"crs": { "type": "name", "properties": { "name": "urn:ogc:def:crs:EPSG::25833" } },
"features": [
{ "type": "Feature", "properties": { "cat": 1 }, "geometry": { "type": "LineString", "coordinates": [ [ 136480.0, 6962330.0 ], [ 136470.0, 6962300.0 ], [ 136320.0, 6962230.0 ], [ 136230.0, 6962130.0 ], [ 136220.0, 6962100.0 ], [ 136160.0, 6962030.0 ], [ 136160.0, 6961970.0 ], [ 136100.0, 6961910.0 ], [ 136080.0, 6961910.0 ], [ 136060.0, 6961890.0 ], [ 136040.0, 6961770.0 ], [ 136010.0, 6961710.0 ], [ 135980.0, 6961680.0 ], [ 135970.0, 6961630.0 ], [ 135790.0, 6961440.0 ], [ 135790.0, 6961410.0 ], [ 135750.0, 6961370.0 ], [ 135750.0, 6961340.0 ], [ 135730.0, 6961320.0 ], [ 135730.0, 6961210.0 ], [ 135770.0, 6961170.0 ], [ 135790.0, 6961170.0 ], [ 135820.0, 6961140.0 ], [ 135850.0, 6961130.0 ], [ 135950.0, 6961120.0 ], [ 135980.0, 6961090.0 ], [ 136070.0, 6961090.0 ], [ 136140.0, 6961030.0 ], [ 136140.0, 6960990.0 ], [ 136190.0, 6960940.0 ], [ 136190.0, 6960910.0 ], [ 136210.0, 6960890.0 ], [ 136210.0, 6960810.0 ], [ 136190.0, 6960790.0 ], [ 136180.0, 6960720.0 ], [ 135960.0, 6960490.0 ], [ 135260.0, 6960480.0 ], [ 135130.0, 6960450.0 ], [ 134630.0, 6960450.0 ], [ 134620.0, 6960460.0 ], [ 134530.0, 6960460.0 ], [ 134520.0, 6960470.0 ], [ 134290.0, 6960480.0 ], [ 134280.0, 6960490.0 ], [ 134150.0, 6960500.0 ], [ 134140.0, 6960510.0 ], [ 133670.0, 6960520.0 ], [ 133510.0, 6960560.0 ], [ 133360.0, 6960560.0 ], [ 133350.0, 6960570.0 ], [ 133230.0, 6960580.0 ], [ 133180.0, 6960600.0 ], [ 133140.0, 6960600.0 ], [ 133100.0, 6960580.0 ], [ 133020.0, 6960600.0 ], [ 132970.0, 6960600.0 ], [ 132960.0, 6960590.0 ], [ 132860.0, 6960580.0 ], [ 132820.0, 6960520.0 ], [ 132700.0, 6960480.0 ], [ 132650.0, 6960450.0 ], [ 132590.0, 6960390.0 ], [ 132620.0, 6960310.0 ], [ 132570.0, 6960230.0 ], [ 132480.0, 6960150.0 ], [ 132480.0, 6960110.0 ], [ 132460.0, 6960090.0 ], [ 132440.0, 6960020.0 ], [ 132440.0, 6959940.0 ], [ 132420.0, 6959930.0 ] ] } }
]
}
