{
"type": "FeatureCollection",
"name": "multi_path_smooth_kyrkjetaket_11",
"crs": { "type": "name", "properties": { "name": "urn:ogc:def:crs:EPSG::25833" } },
"features": [
{ "type": "Feature", "properties": { "cat": 1 }, "geometry": { "type": "LineString", "coordinates": [ [ 136480.0, 6962330.0 ], [ 136480.0, 6962310.0 ], [ 136460.0, 6962290.0 ], [ 136360.0, 6962260.0 ], [ 136240.0, 6962140.0 ], [ 136220.0, 6962100.0 ], [ 136180.0, 6962060.0 ], [ 136170.0, 6961970.0 ], [ 136080.0, 6961890.0 ], [ 136040.0, 6961770.0 ], [ 135990.0, 6961690.0 ], [ 135990.0, 6961620.0 ], [ 136090.0, 6961530.0 ], [ 136090.0, 6961510.0 ], [ 136150.0, 6961430.0 ], [ 136150.0, 6961330.0 ], [ 136280.0, 6961190.0 ], [ 136280.0, 6961060.0 ], [ 136290.0, 6961020.0 ], [ 136320.0, 6960990.0 ], [ 136330.0, 6960780.0 ], [ 136230.0, 6960690.0 ], [ 136160.0, 6960650.0 ], [ 136130.0, 6960650.0 ], [ 136080.0, 6960610.0 ], [ 136060.0, 6960610.0 ], [ 135950.0, 6960500.0 ], [ 135830.0, 6960500.0 ], [ 135800.0, 6960470.0 ], [ 135310.0, 6960470.0 ], [ 135200.0, 6960440.0 ], [ 134620.0, 6960440.0 ], [ 134610.0, 6960450.0 ], [ 134540.0, 6960450.0 ], [ 134520.0, 6960470.0 ], [ 134290.0, 6960480.0 ], [ 134280.0, 6960490.0 ], [ 134150.0, 6960500.0 ], [ 134140.0, 6960510.0 ], [ 133670.0, 6960520.0 ], [ 133510.0, 6960560.0 ], [ 133270.0, 6960570.0 ], [ 133180.0, 6960600.0 ], [ 133100.0, 6960580.0 ], [ 133020.0, 6960600.0 ], [ 132970.0, 6960600.0 ], [ 132960.0, 6960590.0 ], [ 132870.0, 6960580.0 ], [ 132840.0, 6960560.0 ], [ 132840.0, 6960540.0 ], [ 132820.0, 6960520.0 ], [ 132740.0, 6960500.0 ], [ 132590.0, 6960410.0 ], [ 132590.0, 6960370.0 ], [ 132630.0, 6960330.0 ], [ 132630.0, 6960300.0 ], [ 132460.0, 6960090.0 ], [ 132450.0, 6959950.0 ], [ 132420.0, 6959930.0 ] ] } }
]
}
