{
"type": "FeatureCollection",
"name": "multi_path_smooth_kyrkjetaket_26",
"crs": { "type": "name", "properties": { "name": "urn:ogc:def:crs:EPSG::25833" } },
"features": [
{ "type": "Feature", "properties": { "cat": 1 }, "geometry": { "type": "LineString", "coordinates": [ [ 136480.0, 6962330.0 ], [ 136500.0, 6962300.0 ], [ 136570.0, 6962270.0 ], [ 136600.0, 6962240.0 ], [ 136600.0, 6962220.0 ], [ 136640.0, 6962170.0 ], [ 136640.0, 6962120.0 ], [ 136860.0, 6961890.0 ], [ 136880.0, 6961860.0 ], [ 136880.0, 6961820.0 ], [ 136960.0, 6961740.0 ], [ 136980.0, 6961730.0 ], [ 137110.0, 6961730.0 ], [ 137130.0, 6961710.0 ], [ 137150.0, 6961710.0 ], [ 137190.0, 6961670.0 ], [ 137190.0, 6961470.0 ], [ 137160.0, 6961440.0 ], [ 137160.0, 6961290.0 ], [ 137100.0, 6961220.0 ], [ 137100.0, 6961100.0 ], [ 137090.0, 6961070.0 ], [ 136980.0, 6960960.0 ], [ 136960.0, 6960960.0 ], [ 136760.0, 6960760.0 ], [ 136710.0, 6960750.0 ], [ 136530.0, 6960580.0 ], [ 136500.0, 6960580.0 ], [ 136480.0, 6960560.0 ], [ 136280.0, 6960550.0 ], [ 136250.0, 6960520.0 ], [ 136100.0, 6960520.0 ], [ 136060.0, 6960490.0 ], [ 136030.0, 6960490.0 ], [ 136000.0, 6960460.0 ], [ 135960.0, 6960460.0 ], [ 135950.0, 6960450.0 ], [ 134640.0, 6960450.0 ], [ 134630.0, 6960460.0 ], [ 134530.0, 6960460.0 ], [ 134520.0, 6960470.0 ], [ 134290.0, 6960480.0 ], [ 134280.0, 6960490.0 ], [ 134150.0, 6960500.0 ], [ 134140.0, 6960510.0 ], [ 133670.0, 6960520.0 ], [ 133510.0, 6960560.0 ], [ 133360.0, 6960560.0 ], [ 133350.0, 6960570.0 ], [ 133230.0, 6960580.0 ], [ 133180.0, 6960600.0 ], [ 133140.0, 6960600.0 ], [ 133100.0, 6960580.0 ], [ 133060.0, 6960580.0 ], [ 133020.0, 6960600.0 ], [ 132970.0, 6960600.0 ], [ 132960.0, 6960590.0 ], [ 132860.0, 6960580.0 ], [ 132840.0, 6960560.0 ], [ 132830.0, 6960520.0 ], [ 132770.0, 6960510.0 ], [ 132700.0, 6960480.0 ], [ 132650.0, 6960450.0 ], [ 132600.0, 6960400.0 ], [ 132590.0, 6960370.0 ], [ 132620.0, 6960330.0 ], [ 132610.0, 6960320.0 ], [ 132600.0, 6960230.0 ], [ 132520.0, 6960140.0 ], [ 132510.0, 6960030.0 ], [ 132460.0, 6959980.0 ], [ 132460.0, 6959960.0 ], [ 132420.0, 6959930.0 ] ] } }
]
}
