{
"type": "FeatureCollection",
"name": "multi_path_smooth_kyrkjetaket_27",
"crs": { "type": "name", "properties": { "name": "urn:ogc:def:crs:EPSG::25833" } },
"features": [
{ "type": "Feature", "properties": { "cat": 1 }, "geometry": { "type": "LineString", "coordinates": [ [ 136480.0, 6962330.0 ], [ 136480.0, 6962310.0 ], [ 136460.0, 6962290.0 ], [ 136370.0, 6962260.0 ], [ 136210.0, 6962070.0 ], [ 136220.0, 6961980.0 ], [ 136280.0, 6961920.0 ], [ 136270.0, 6961830.0 ], [ 136210.0, 6961750.0 ], [ 136210.0, 6961730.0 ], [ 136230.0, 6961710.0 ], [ 136230.0, 6961600.0 ], [ 136240.0, 6961590.0 ], [ 136250.0, 6961040.0 ], [ 136280.0, 6961010.0 ], [ 136280.0, 6960970.0 ], [ 136260.0, 6960950.0 ], [ 136260.0, 6960920.0 ], [ 136350.0, 6960830.0 ], [ 136350.0, 6960700.0 ], [ 136170.0, 6960540.0 ], [ 135700.0, 6960530.0 ], [ 135690.0, 6960520.0 ], [ 134340.0, 6960530.0 ], [ 134330.0, 6960520.0 ], [ 134260.0, 6960520.0 ], [ 134220.0, 6960500.0 ], [ 133960.0, 6960510.0 ], [ 133950.0, 6960520.0 ], [ 133670.0, 6960520.0 ], [ 133620.0, 6960540.0 ], [ 133560.0, 6960540.0 ], [ 133500.0, 6960480.0 ], [ 133380.0, 6960480.0 ], [ 133340.0, 6960440.0 ], [ 133180.0, 6960450.0 ], [ 133110.0, 6960390.0 ], [ 133020.0, 6960390.0 ], [ 133000.0, 6960380.0 ], [ 132920.0, 6960310.0 ], [ 132890.0, 6960310.0 ], [ 132590.0, 6960010.0 ], [ 132570.0, 6960010.0 ], [ 132530.0, 6959970.0 ], [ 132470.0, 6959970.0 ], [ 132420.0, 6959930.0 ] ] } }
]
}
