{
"type": "FeatureCollection",
"name": "multi_path_smooth_kyrkjetaket_29",
"crs": { "type": "name", "properties": { "name": "urn:ogc:def:crs:EPSG::25833" } },
"features": [
{ "type": "Feature", "properties": { "cat": 1 }, "geometry": { "type": "LineString", "coordinates": [ [ 136480.0, 6962330.0 ], [ 136500.0, 6962300.0 ], [ 136540.0, 6962290.0 ], [ 136580.0, 6962260.0 ], [ 136680.0, 6962260.0 ], [ 136700.0, 6962220.0 ], [ 136760.0, 6962170.0 ], [ 136780.0, 6962170.0 ], [ 136860.0, 6962100.0 ], [ 136940.0, 6962050.0 ], [ 136970.0, 6962050.0 ], [ 137060.0, 6961960.0 ], [ 137090.0, 6961960.0 ], [ 137240.0, 6961810.0 ], [ 137280.0, 6961810.0 ], [ 137320.0, 6961780.0 ], [ 137390.0, 6961780.0 ], [ 137610.0, 6961550.0 ], [ 137610.0, 6961340.0 ], [ 137590.0, 6961320.0 ], [ 137590.0, 6961070.0 ], [ 137520.0, 6961000.0 ], [ 137520.0, 6960960.0 ], [ 137430.0, 6960840.0 ], [ 137280.0, 6960690.0 ], [ 137260.0, 6960690.0 ], [ 137220.0, 6960660.0 ], [ 137150.0, 6960660.0 ], [ 137090.0, 6960600.0 ], [ 137050.0, 6960590.0 ], [ 136880.0, 6960420.0 ], [ 136810.0, 6960390.0 ], [ 136680.0, 6960260.0 ], [ 136610.0, 6960220.0 ], [ 136570.0, 6960180.0 ], [ 136530.0, 6960180.0 ], [ 136480.0, 6960150.0 ], [ 136400.0, 6960070.0 ], [ 136360.0, 6960060.0 ], [ 136210.0, 6960060.0 ], [ 136170.0, 6960030.0 ], [ 136130.0, 6960030.0 ], [ 136120.0, 6960020.0 ], [ 135470.0, 6960030.0 ], [ 135410.0, 6960070.0 ], [ 135130.0, 6960070.0 ], [ 135120.0, 6960080.0 ], [ 134870.0, 6960080.0 ], [ 134860.0, 6960070.0 ], [ 134750.0, 6960070.0 ], [ 134740.0, 6960060.0 ], [ 134090.0, 6960060.0 ], [ 133970.0, 6959950.0 ], [ 133940.0, 6959940.0 ], [ 133820.0, 6959940.0 ], [ 133810.0, 6959930.0 ], [ 133670.0, 6959930.0 ], [ 133630.0, 6959950.0 ], [ 133570.0, 6959950.0 ], [ 133500.0, 6959970.0 ], [ 133420.0, 6959970.0 ], [ 133380.0, 6959980.0 ], [ 133350.0, 6960010.0 ], [ 133290.0, 6960020.0 ], [ 133220.0, 6960070.0 ], [ 133190.0, 6960070.0 ], [ 133090.0, 6959980.0 ], [ 133090.0, 6959950.0 ], [ 133050.0, 6959910.0 ], [ 133050.0, 6959880.0 ], [ 133030.0, 6959860.0 ], [ 132990.0, 6959840.0 ], [ 132930.0, 6959830.0 ], [ 132890.0, 6959800.0 ], [ 132860.0, 6959750.0 ], [ 132700.0, 6959750.0 ], [ 132680.0, 6959770.0 ], [ 132660.0, 6959770.0 ], [ 132610.0, 6959800.0 ], [ 132530.0, 6959790.0 ], [ 132480.0, 6959820.0 ], [ 132410.0, 6959900.0 ], [ 132420.0, 6959930.0 ] ] } }
]
}
