{
"type": "FeatureCollection",
"name": "multi_path_smooth_sore_klauva_14",
"crs": { "type": "name", "properties": { "name": "urn:ogc:def:crs:EPSG::25833" } },
"features": [
{ "type": "Feature", "properties": { "cat": 1 }, "geometry": { "type": "LineString", "coordinates": [ [ 135050.0, 6963000.0 ], [ 135000.0, 6962930.0 ], [ 134980.0, 6962880.0 ], [ 134870.0, 6962760.0 ], [ 134840.0, 6962760.0 ], [ 134780.0, 6962700.0 ], [ 134750.0, 6962700.0 ], [ 134700.0, 6962660.0 ], [ 134500.0, 6962610.0 ], [ 134310.0, 6962610.0 ], [ 134280.0, 6962640.0 ], [ 134100.0, 6962640.0 ], [ 133950.0, 6962490.0 ], [ 133900.0, 6962400.0 ], [ 133860.0, 6962360.0 ], [ 133860.0, 6962320.0 ], [ 133610.0, 6962080.0 ], [ 133430.0, 6962080.0 ], [ 133420.0, 6962070.0 ], [ 133370.0, 6962070.0 ], [ 133350.0, 6962050.0 ], [ 133250.0, 6962050.0 ], [ 132950.0, 6961750.0 ], [ 132900.0, 6961740.0 ], [ 132850.0, 6961690.0 ], [ 132790.0, 6961660.0 ], [ 132790.0, 6961360.0 ], [ 132780.0, 6961330.0 ], [ 132690.0, 6961250.0 ], [ 132690.0, 6961050.0 ], [ 132680.0, 6961020.0 ], [ 132550.0, 6960860.0 ], [ 132550.0, 6960620.0 ], [ 132580.0, 6960590.0 ], [ 132580.0, 6960430.0 ], [ 132590.0, 6960420.0 ], [ 132590.0, 6960370.0 ], [ 132620.0, 6960330.0 ], [ 132610.0, 6960320.0 ], [ 132610.0, 6960270.0 ], [ 132520.0, 6960170.0 ], [ 132510.0, 6960060.0 ], [ 132470.0, 6960020.0 ], [ 132470.0, 6959970.0 ], [ 132420.0, 6959930.0 ] ] } }
]
}
