{
"type": "FeatureCollection",
"name": "multi_path_smooth_sore_klauva_15",
"crs": { "type": "name", "properties": { "name": "urn:ogc:def:crs:EPSG::25833" } },
"features": [
{ "type": "Feature", "properties": { "cat": 1 }, "geometry": { "type": "LineString", "coordinates": [ [ 135050.0, 6963000.0 ], [ 134970.0, 6962870.0 ], [ 134910.0, 6962830.0 ], [ 134810.0, 6962730.0 ], [ 134770.0, 6962710.0 ], [ 134730.0, 6962670.0 ], [ 134690.0, 6962670.0 ], [ 134630.0, 6962640.0 ], [ 134560.0, 6962640.0 ], [ 134500.0, 6962610.0 ], [ 134350.0, 6962620.0 ], [ 134290.0, 6962680.0 ], [ 134100.0, 6962680.0 ], [ 134080.0, 6962660.0 ], [ 134040.0, 6962660.0 ], [ 133930.0, 6962550.0 ], [ 133930.0, 6962510.0 ], [ 133920.0, 6962500.0 ], [ 133920.0, 6962310.0 ], [ 133710.0, 6962110.0 ], [ 133660.0, 6962070.0 ], [ 133480.0, 6962070.0 ], [ 133420.0, 6962040.0 ], [ 133340.0, 6962040.0 ], [ 133300.0, 6962010.0 ], [ 133260.0, 6962010.0 ], [ 133240.0, 6961990.0 ], [ 133210.0, 6961990.0 ], [ 132970.0, 6961750.0 ], [ 132900.0, 6961720.0 ], [ 132850.0, 6961720.0 ], [ 132740.0, 6961610.0 ], [ 132730.0, 6961550.0 ], [ 132680.0, 6961500.0 ], [ 132660.0, 6961460.0 ], [ 132650.0, 6961120.0 ], [ 132540.0, 6961000.0 ], [ 132540.0, 6960980.0 ], [ 132500.0, 6960940.0 ], [ 132500.0, 6960920.0 ], [ 132460.0, 6960890.0 ], [ 132460.0, 6960870.0 ], [ 132440.0, 6960850.0 ], [ 132440.0, 6960670.0 ], [ 132480.0, 6960620.0 ], [ 132480.0, 6960450.0 ], [ 132580.0, 6960360.0 ], [ 132600.0, 6960360.0 ], [ 132630.0, 6960330.0 ], [ 132630.0, 6960300.0 ], [ 132620.0, 6960270.0 ], [ 132500.0, 6960140.0 ], [ 132480.0, 6960090.0 ], [ 132450.0, 6960060.0 ], [ 132420.0, 6959930.0 ] ] } }
]
}
