{
"type": "FeatureCollection",
"name": "multi_path_smooth_sore_klauva_03",
"crs": { "type": "name", "properties": { "name": "urn:ogc:def:crs:EPSG::25833" } },
"features": [
{ "type": "Feature", "properties": { "cat": 1 }, "geometry": { "type": "LineString", "coordinates": [ [ 135050.0, 6963000.0 ], [ 134950.0, 6962850.0 ], [ 134830.0, 6962740.0 ], [ 134700.0, 6962660.0 ], [ 134670.0, 6962660.0 ], [ 134630.0, 6962640.0 ], [ 134580.0, 6962640.0 ], [ 134490.0, 6962600.0 ], [ 134450.0, 6962600.0 ], [ 134440.0, 6962610.0 ], [ 134310.0, 6962600.0 ], [ 134260.0, 6962650.0 ], [ 134080.0, 6962650.0 ], [ 133940.0, 6962510.0 ], [ 133940.0, 6962480.0 ], [ 133920.0, 6962450.0 ], [ 133910.0, 6962400.0 ], [ 133880.0, 6962370.0 ], [ 133880.0, 6962330.0 ], [ 133680.0, 6962130.0 ], [ 133650.0, 6962130.0 ], [ 133610.0, 6962110.0 ], [ 133340.0, 6962110.0 ], [ 133310.0, 6962080.0 ], [ 133270.0, 6962080.0 ], [ 132970.0, 6961760.0 ], [ 132950.0, 6961760.0 ], [ 132750.0, 6961640.0 ], [ 132720.0, 6961560.0 ], [ 132660.0, 6961480.0 ], [ 132650.0, 6961450.0 ], [ 132650.0, 6961360.0 ], [ 132680.0, 6961290.0 ], [ 132670.0, 6961250.0 ], [ 132670.0, 6961190.0 ], [ 132680.0, 6961180.0 ], [ 132670.0, 6961040.0 ], [ 132710.0, 6960980.0 ], [ 132710.0, 6960940.0 ], [ 132700.0, 6960930.0 ], [ 132660.0, 6960930.0 ], [ 132640.0, 6960910.0 ], [ 132510.0, 6960920.0 ], [ 132490.0, 6960870.0 ], [ 132490.0, 6960800.0 ], [ 132440.0, 6960750.0 ], [ 132450.0, 6960720.0 ], [ 132440.0, 6960680.0 ], [ 132490.0, 6960600.0 ], [ 132550.0, 6960540.0 ], [ 132550.0, 6960460.0 ], [ 132580.0, 6960420.0 ], [ 132580.0, 6960380.0 ], [ 132620.0, 6960340.0 ], [ 132620.0, 6960310.0 ], [ 132600.0, 6960250.0 ], [ 132440.0, 6960090.0 ], [ 132420.0, 6959930.0 ] ] } }
]
}
