{
"type": "FeatureCollection",
"name": "multi_path_smooth_sore_klauva_10",
"crs": { "type": "name", "properties": { "name": "urn:ogc:def:crs:EPSG::25833" } },
"features": [
{ "type": "Feature", "properties": { "cat": 1 }, "geometry": { "type": "LineString", "coordinates": [ [ 135050.0, 6963000.0 ], [ 134990.0, 6962900.0 ], [ 134790.0, 6962710.0 ], [ 134770.0, 6962710.0 ], [ 134720.0, 6962670.0 ], [ 134690.0, 6962670.0 ], [ 134630.0, 6962640.0 ], [ 134580.0, 6962640.0 ], [ 134510.0, 6962610.0 ], [ 134120.0, 6962620.0 ], [ 134090.0, 6962590.0 ], [ 134020.0, 6962570.0 ], [ 133940.0, 6962490.0 ], [ 133940.0, 6962430.0 ], [ 133920.0, 6962390.0 ], [ 133920.0, 6962360.0 ], [ 133890.0, 6962320.0 ], [ 133890.0, 6962290.0 ], [ 133760.0, 6962160.0 ], [ 133740.0, 6962160.0 ], [ 133670.0, 6962090.0 ], [ 133460.0, 6962090.0 ], [ 133380.0, 6962040.0 ], [ 133260.0, 6962040.0 ], [ 133220.0, 6962000.0 ], [ 133170.0, 6961980.0 ], [ 132950.0, 6961770.0 ], [ 132920.0, 6961770.0 ], [ 132880.0, 6961730.0 ], [ 132830.0, 6961730.0 ], [ 132810.0, 6961710.0 ], [ 132810.0, 6961680.0 ], [ 132780.0, 6961650.0 ], [ 132750.0, 6961640.0 ], [ 132730.0, 6961570.0 ], [ 132690.0, 6961530.0 ], [ 132660.0, 6961420.0 ], [ 132660.0, 6961320.0 ], [ 132680.0, 6961290.0 ], [ 132670.0, 6961040.0 ], [ 132710.0, 6960980.0 ], [ 132710.0, 6960940.0 ], [ 132700.0, 6960930.0 ], [ 132660.0, 6960930.0 ], [ 132640.0, 6960910.0 ], [ 132610.0, 6960910.0 ], [ 132540.0, 6960840.0 ], [ 132540.0, 6960620.0 ], [ 132580.0, 6960580.0 ], [ 132580.0, 6960430.0 ], [ 132590.0, 6960420.0 ], [ 132590.0, 6960370.0 ], [ 132610.0, 6960350.0 ], [ 132620.0, 6960310.0 ], [ 132570.0, 6960230.0 ], [ 132450.0, 6960110.0 ], [ 132430.0, 6960070.0 ], [ 132430.0, 6959940.0 ], [ 132420.0, 6959930.0 ] ] } }
]
}
