{
"type": "FeatureCollection",
"name": "multi_path_smooth_sore_klauva_11",
"crs": { "type": "name", "properties": { "name": "urn:ogc:def:crs:EPSG::25833" } },
"features": [
{ "type": "Feature", "properties": { "cat": 1 }, "geometry": { "type": "LineString", "coordinates": [ [ 135050.0, 6963000.0 ], [ 135000.0, 6962930.0 ], [ 134970.0, 6962860.0 ], [ 134870.0, 6962760.0 ], [ 134850.0, 6962760.0 ], [ 134780.0, 6962700.0 ], [ 134750.0, 6962700.0 ], [ 134700.0, 6962660.0 ], [ 134660.0, 6962660.0 ], [ 134630.0, 6962640.0 ], [ 134590.0, 6962640.0 ], [ 134490.0, 6962600.0 ], [ 134430.0, 6962600.0 ], [ 134420.0, 6962610.0 ], [ 134320.0, 6962600.0 ], [ 134270.0, 6962650.0 ], [ 134090.0, 6962650.0 ], [ 133610.0, 6962190.0 ], [ 133590.0, 6962180.0 ], [ 133420.0, 6962170.0 ], [ 133400.0, 6962150.0 ], [ 133320.0, 6962140.0 ], [ 133140.0, 6961960.0 ], [ 133130.0, 6961920.0 ], [ 132950.0, 6961740.0 ], [ 132900.0, 6961730.0 ], [ 132880.0, 6961710.0 ], [ 132840.0, 6961700.0 ], [ 132730.0, 6961590.0 ], [ 132730.0, 6961550.0 ], [ 132660.0, 6961480.0 ], [ 132660.0, 6961460.0 ], [ 132640.0, 6961440.0 ], [ 132640.0, 6961270.0 ], [ 132620.0, 6961250.0 ], [ 132620.0, 6961180.0 ], [ 132570.0, 6961080.0 ], [ 132570.0, 6961040.0 ], [ 132530.0, 6961000.0 ], [ 132510.0, 6960960.0 ], [ 132510.0, 6960920.0 ], [ 132490.0, 6960870.0 ], [ 132490.0, 6960790.0 ], [ 132480.0, 6960780.0 ], [ 132480.0, 6960710.0 ], [ 132490.0, 6960700.0 ], [ 132490.0, 6960440.0 ], [ 132580.0, 6960360.0 ], [ 132600.0, 6960360.0 ], [ 132620.0, 6960340.0 ], [ 132620.0, 6960290.0 ], [ 132590.0, 6960240.0 ], [ 132460.0, 6960090.0 ], [ 132450.0, 6959950.0 ], [ 132420.0, 6959930.0 ] ] } }
]
}
