{
"type": "FeatureCollection",
"name": "multi_path_smooth_sore_klauva_05",
"crs": { "type": "name", "properties": { "name": "urn:ogc:def:crs:EPSG::25833" } },
"features": [
{ "type": "Feature", "properties": { "cat": 1 }, "geometry": { "type": "LineString", "coordinates": [ [ 135050.0, 6963000.0 ], [ 135000.0, 6962930.0 ], [ 134980.0, 6962880.0 ], [ 134950.0, 6962850.0 ], [ 134830.0, 6962740.0 ], [ 134700.0, 6962660.0 ], [ 134550.0, 6962630.0 ], [ 134490.0, 6962600.0 ], [ 134310.0, 6962610.0 ], [ 134280.0, 6962640.0 ], [ 134100.0, 6962640.0 ], [ 133990.0, 6962550.0 ], [ 133690.0, 6962240.0 ], [ 133670.0, 6962240.0 ], [ 133580.0, 6962150.0 ], [ 133490.0, 6962120.0 ], [ 133310.0, 6962120.0 ], [ 133290.0, 6962110.0 ], [ 133220.0, 6962050.0 ], [ 133170.0, 6961980.0 ], [ 133170.0, 6961960.0 ], [ 133000.0, 6961790.0 ], [ 132980.0, 6961790.0 ], [ 132900.0, 6961720.0 ], [ 132840.0, 6961700.0 ], [ 132810.0, 6961670.0 ], [ 132750.0, 6961640.0 ], [ 132720.0, 6961560.0 ], [ 132660.0, 6961480.0 ], [ 132650.0, 6961450.0 ], [ 132650.0, 6961360.0 ], [ 132680.0, 6961290.0 ], [ 132670.0, 6961250.0 ], [ 132670.0, 6961190.0 ], [ 132680.0, 6961180.0 ], [ 132670.0, 6961110.0 ], [ 132520.0, 6960950.0 ], [ 132490.0, 6960870.0 ], [ 132490.0, 6960800.0 ], [ 132440.0, 6960750.0 ], [ 132450.0, 6960720.0 ], [ 132440.0, 6960670.0 ], [ 132530.0, 6960540.0 ], [ 132530.0, 6960500.0 ], [ 132550.0, 6960480.0 ], [ 132560.0, 6960440.0 ], [ 132590.0, 6960410.0 ], [ 132590.0, 6960370.0 ], [ 132620.0, 6960340.0 ], [ 132620.0, 6960310.0 ], [ 132570.0, 6960230.0 ], [ 132450.0, 6960110.0 ], [ 132430.0, 6960050.0 ], [ 132420.0, 6959930.0 ] ] } }
]
}
