{
"type": "FeatureCollection",
"name": "multi_path_smooth_sore_klauva_08",
"crs": { "type": "name", "properties": { "name": "urn:ogc:def:crs:EPSG::25833" } },
"features": [
{ "type": "Feature", "properties": { "cat": 1 }, "geometry": { "type": "LineString", "coordinates": [ [ 135050.0, 6963000.0 ], [ 134990.0, 6962900.0 ], [ 134790.0, 6962710.0 ], [ 134770.0, 6962710.0 ], [ 134720.0, 6962670.0 ], [ 134690.0, 6962670.0 ], [ 134630.0, 6962640.0 ], [ 134540.0, 6962630.0 ], [ 134510.0, 6962610.0 ], [ 134310.0, 6962600.0 ], [ 134270.0, 6962630.0 ], [ 134110.0, 6962630.0 ], [ 134080.0, 6962600.0 ], [ 134040.0, 6962600.0 ], [ 133930.0, 6962500.0 ], [ 133920.0, 6962470.0 ], [ 133830.0, 6962380.0 ], [ 133800.0, 6962370.0 ], [ 133670.0, 6962240.0 ], [ 133620.0, 6962220.0 ], [ 133510.0, 6962220.0 ], [ 133470.0, 6962180.0 ], [ 133420.0, 6962180.0 ], [ 133380.0, 6962160.0 ], [ 133340.0, 6962160.0 ], [ 133300.0, 6962120.0 ], [ 133270.0, 6962120.0 ], [ 133190.0, 6962040.0 ], [ 133090.0, 6961900.0 ], [ 133050.0, 6961880.0 ], [ 132910.0, 6961740.0 ], [ 132860.0, 6961720.0 ], [ 132800.0, 6961670.0 ], [ 132730.0, 6961590.0 ], [ 132730.0, 6961570.0 ], [ 132660.0, 6961480.0 ], [ 132660.0, 6961320.0 ], [ 132650.0, 6961280.0 ], [ 132630.0, 6961260.0 ], [ 132630.0, 6961090.0 ], [ 132530.0, 6960980.0 ], [ 132530.0, 6960920.0 ], [ 132510.0, 6960870.0 ], [ 132510.0, 6960760.0 ], [ 132520.0, 6960750.0 ], [ 132520.0, 6960640.0 ], [ 132540.0, 6960570.0 ], [ 132540.0, 6960500.0 ], [ 132550.0, 6960490.0 ], [ 132550.0, 6960450.0 ], [ 132580.0, 6960420.0 ], [ 132590.0, 6960370.0 ], [ 132610.0, 6960350.0 ], [ 132620.0, 6960310.0 ], [ 132570.0, 6960230.0 ], [ 132480.0, 6960150.0 ], [ 132480.0, 6960110.0 ], [ 132460.0, 6960090.0 ], [ 132440.0, 6960020.0 ], [ 132440.0, 6959940.0 ], [ 132420.0, 6959930.0 ] ] } }
]
}
