{
"type": "FeatureCollection",
"name": "multi_path_smooth_sore_klauva_02",
"crs": { "type": "name", "properties": { "name": "urn:ogc:def:crs:EPSG::25833" } },
"features": [
{ "type": "Feature", "properties": { "cat": 1 }, "geometry": { "type": "LineString", "coordinates": [ [ 135050.0, 6963000.0 ], [ 134950.0, 6962850.0 ], [ 134830.0, 6962740.0 ], [ 134700.0, 6962660.0 ], [ 134670.0, 6962660.0 ], [ 134640.0, 6962640.0 ], [ 134580.0, 6962640.0 ], [ 134490.0, 6962600.0 ], [ 134440.0, 6962600.0 ], [ 134430.0, 6962610.0 ], [ 134310.0, 6962600.0 ], [ 134270.0, 6962630.0 ], [ 134110.0, 6962630.0 ], [ 134090.0, 6962620.0 ], [ 134040.0, 6962570.0 ], [ 134000.0, 6962560.0 ], [ 133920.0, 6962480.0 ], [ 133920.0, 6962460.0 ], [ 133900.0, 6962440.0 ], [ 133900.0, 6962420.0 ], [ 133860.0, 6962350.0 ], [ 133770.0, 6962260.0 ], [ 133690.0, 6962250.0 ], [ 133610.0, 6962170.0 ], [ 133330.0, 6962160.0 ], [ 133190.0, 6962020.0 ], [ 133190.0, 6962000.0 ], [ 132950.0, 6961760.0 ], [ 132920.0, 6961760.0 ], [ 132810.0, 6961670.0 ], [ 132750.0, 6961640.0 ], [ 132720.0, 6961560.0 ], [ 132660.0, 6961480.0 ], [ 132650.0, 6961450.0 ], [ 132650.0, 6961360.0 ], [ 132680.0, 6961290.0 ], [ 132670.0, 6961250.0 ], [ 132670.0, 6961190.0 ], [ 132680.0, 6961180.0 ], [ 132670.0, 6961020.0 ], [ 132580.0, 6960920.0 ], [ 132520.0, 6960920.0 ], [ 132500.0, 6960900.0 ], [ 132490.0, 6960800.0 ], [ 132440.0, 6960750.0 ], [ 132450.0, 6960720.0 ], [ 132440.0, 6960670.0 ], [ 132480.0, 6960610.0 ], [ 132540.0, 6960550.0 ], [ 132540.0, 6960490.0 ], [ 132580.0, 6960420.0 ], [ 132570.0, 6960370.0 ], [ 132610.0, 6960350.0 ], [ 132620.0, 6960310.0 ], [ 132600.0, 6960250.0 ], [ 132440.0, 6960090.0 ], [ 132420.0, 6959930.0 ] ] } }
]
}
