{
"type": "FeatureCollection",
"name": "multi_path_smooth_sore_klauva_06",
"crs": { "type": "name", "properties": { "name": "urn:ogc:def:crs:EPSG::25833" } },
"features": [
{ "type": "Feature", "properties": { "cat": 1 }, "geometry": { "type": "LineString", "coordinates": [ [ 135050.0, 6963000.0 ], [ 134990.0, 6962900.0 ], [ 134790.0, 6962710.0 ], [ 134720.0, 6962670.0 ], [ 134690.0, 6962670.0 ], [ 134630.0, 6962640.0 ], [ 134540.0, 6962630.0 ], [ 134510.0, 6962610.0 ], [ 134330.0, 6962610.0 ], [ 134290.0, 6962650.0 ], [ 134120.0, 6962650.0 ], [ 133950.0, 6962490.0 ], [ 133940.0, 6962430.0 ], [ 133800.0, 6962290.0 ], [ 133800.0, 6962270.0 ], [ 133750.0, 6962220.0 ], [ 133750.0, 6962190.0 ], [ 133650.0, 6962090.0 ], [ 133630.0, 6962080.0 ], [ 133450.0, 6962070.0 ], [ 133430.0, 6962050.0 ], [ 133350.0, 6962050.0 ], [ 133310.0, 6962010.0 ], [ 133230.0, 6962010.0 ], [ 132940.0, 6961760.0 ], [ 132910.0, 6961760.0 ], [ 132890.0, 6961740.0 ], [ 132840.0, 6961740.0 ], [ 132810.0, 6961710.0 ], [ 132810.0, 6961680.0 ], [ 132740.0, 6961610.0 ], [ 132650.0, 6961450.0 ], [ 132650.0, 6961360.0 ], [ 132680.0, 6961290.0 ], [ 132670.0, 6961250.0 ], [ 132670.0, 6961030.0 ], [ 132620.0, 6960970.0 ], [ 132610.0, 6960930.0 ], [ 132530.0, 6960850.0 ], [ 132530.0, 6960650.0 ], [ 132550.0, 6960630.0 ], [ 132550.0, 6960390.0 ], [ 132580.0, 6960360.0 ], [ 132610.0, 6960350.0 ], [ 132620.0, 6960310.0 ], [ 132570.0, 6960230.0 ], [ 132460.0, 6960120.0 ], [ 132440.0, 6959950.0 ], [ 132420.0, 6959930.0 ] ] } }
]
}
