{
"type": "FeatureCollection",
"name": "multi_path_smooth_sore_klauva_12",
"crs": { "type": "name", "properties": { "name": "urn:ogc:def:crs:EPSG::25833" } },
"features": [
{ "type": "Feature", "properties": { "cat": 1 }, "geometry": { "type": "LineString", "coordinates": [ [ 135050.0, 6963000.0 ], [ 134990.0, 6962900.0 ], [ 134790.0, 6962710.0 ], [ 134770.0, 6962710.0 ], [ 134720.0, 6962670.0 ], [ 134690.0, 6962670.0 ], [ 134630.0, 6962640.0 ], [ 134560.0, 6962640.0 ], [ 134500.0, 6962610.0 ], [ 134360.0, 6962610.0 ], [ 134350.0, 6962600.0 ], [ 134310.0, 6962600.0 ], [ 134300.0, 6962610.0 ], [ 134120.0, 6962610.0 ], [ 134070.0, 6962570.0 ], [ 134040.0, 6962570.0 ], [ 133940.0, 6962470.0 ], [ 133780.0, 6962270.0 ], [ 133640.0, 6962130.0 ], [ 133620.0, 6962120.0 ], [ 133310.0, 6962110.0 ], [ 133280.0, 6962080.0 ], [ 133240.0, 6962070.0 ], [ 132940.0, 6961750.0 ], [ 132840.0, 6961740.0 ], [ 132810.0, 6961710.0 ], [ 132810.0, 6961680.0 ], [ 132780.0, 6961640.0 ], [ 132780.0, 6961330.0 ], [ 132700.0, 6961260.0 ], [ 132700.0, 6961210.0 ], [ 132670.0, 6961140.0 ], [ 132670.0, 6961110.0 ], [ 132560.0, 6961000.0 ], [ 132560.0, 6960920.0 ], [ 132520.0, 6960880.0 ], [ 132530.0, 6960630.0 ], [ 132540.0, 6960590.0 ], [ 132560.0, 6960570.0 ], [ 132560.0, 6960440.0 ], [ 132580.0, 6960420.0 ], [ 132580.0, 6960380.0 ], [ 132630.0, 6960330.0 ], [ 132630.0, 6960300.0 ], [ 132610.0, 6960240.0 ], [ 132500.0, 6960130.0 ], [ 132510.0, 6960080.0 ], [ 132440.0, 6960010.0 ], [ 132440.0, 6959970.0 ], [ 132420.0, 6959950.0 ], [ 132420.0, 6959930.0 ] ] } }
]
}
