{
"type": "FeatureCollection",
"name": "multi_path_smooth_sore_klauva_09",
"crs": { "type": "name", "properties": { "name": "urn:ogc:def:crs:EPSG::25833" } },
"features": [
{ "type": "Feature", "properties": { "cat": 1 }, "geometry": { "type": "LineString", "coordinates": [ [ 135050.0, 6963000.0 ], [ 135000.0, 6962930.0 ], [ 134980.0, 6962880.0 ], [ 134950.0, 6962850.0 ], [ 134830.0, 6962740.0 ], [ 134790.0, 6962710.0 ], [ 134750.0, 6962700.0 ], [ 134700.0, 6962660.0 ], [ 134660.0, 6962660.0 ], [ 134630.0, 6962640.0 ], [ 134580.0, 6962640.0 ], [ 134490.0, 6962600.0 ], [ 134330.0, 6962610.0 ], [ 134270.0, 6962660.0 ], [ 134080.0, 6962660.0 ], [ 133940.0, 6962520.0 ], [ 133930.0, 6962500.0 ], [ 133930.0, 6962430.0 ], [ 133920.0, 6962400.0 ], [ 133890.0, 6962370.0 ], [ 133880.0, 6962310.0 ], [ 133670.0, 6962100.0 ], [ 133390.0, 6962100.0 ], [ 133370.0, 6962080.0 ], [ 133290.0, 6962080.0 ], [ 132970.0, 6961750.0 ], [ 132940.0, 6961750.0 ], [ 132900.0, 6961720.0 ], [ 132870.0, 6961720.0 ], [ 132830.0, 6961680.0 ], [ 132800.0, 6961670.0 ], [ 132730.0, 6961590.0 ], [ 132650.0, 6961450.0 ], [ 132650.0, 6961360.0 ], [ 132680.0, 6961290.0 ], [ 132670.0, 6961250.0 ], [ 132670.0, 6961050.0 ], [ 132620.0, 6961000.0 ], [ 132610.0, 6960950.0 ], [ 132490.0, 6960830.0 ], [ 132490.0, 6960800.0 ], [ 132460.0, 6960760.0 ], [ 132440.0, 6960700.0 ], [ 132460.0, 6960640.0 ], [ 132500.0, 6960590.0 ], [ 132520.0, 6960500.0 ], [ 132540.0, 6960480.0 ], [ 132540.0, 6960400.0 ], [ 132630.0, 6960330.0 ], [ 132630.0, 6960300.0 ], [ 132600.0, 6960230.0 ], [ 132420.0, 6960040.0 ], [ 132420.0, 6959970.0 ], [ 132410.0, 6959960.0 ], [ 132420.0, 6959930.0 ] ] } }
]
}
