{
"type": "FeatureCollection",
"name": "multi_path_smooth_sore_klauva_07",
"crs": { "type": "name", "properties": { "name": "urn:ogc:def:crs:EPSG::25833" } },
"features": [
{ "type": "Feature", "properties": { "cat": 1 }, "geometry": { "type": "LineString", "coordinates": [ [ 135050.0, 6963000.0 ], [ 135000.0, 6962930.0 ], [ 134980.0, 6962880.0 ], [ 134860.0, 6962760.0 ], [ 134700.0, 6962660.0 ], [ 134660.0, 6962660.0 ], [ 134630.0, 6962640.0 ], [ 134550.0, 6962630.0 ], [ 134490.0, 6962600.0 ], [ 134440.0, 6962600.0 ], [ 134430.0, 6962610.0 ], [ 134360.0, 6962610.0 ], [ 134350.0, 6962600.0 ], [ 134150.0, 6962610.0 ], [ 134120.0, 6962580.0 ], [ 134040.0, 6962570.0 ], [ 133830.0, 6962360.0 ], [ 133830.0, 6962340.0 ], [ 133660.0, 6962170.0 ], [ 133540.0, 6962160.0 ], [ 133450.0, 6962130.0 ], [ 133320.0, 6962130.0 ], [ 132940.0, 6961740.0 ], [ 132890.0, 6961730.0 ], [ 132830.0, 6961680.0 ], [ 132750.0, 6961640.0 ], [ 132720.0, 6961560.0 ], [ 132660.0, 6961480.0 ], [ 132650.0, 6961450.0 ], [ 132650.0, 6961360.0 ], [ 132680.0, 6961290.0 ], [ 132670.0, 6961250.0 ], [ 132680.0, 6961150.0 ], [ 132670.0, 6961120.0 ], [ 132550.0, 6961000.0 ], [ 132550.0, 6960960.0 ], [ 132500.0, 6960910.0 ], [ 132490.0, 6960870.0 ], [ 132490.0, 6960780.0 ], [ 132520.0, 6960730.0 ], [ 132520.0, 6960700.0 ], [ 132540.0, 6960680.0 ], [ 132550.0, 6960600.0 ], [ 132570.0, 6960580.0 ], [ 132570.0, 6960370.0 ], [ 132620.0, 6960340.0 ], [ 132620.0, 6960310.0 ], [ 132610.0, 6960300.0 ], [ 132610.0, 6960260.0 ], [ 132500.0, 6960170.0 ], [ 132440.0, 6960090.0 ], [ 132420.0, 6959930.0 ] ] } }
]
}
