{
"type": "FeatureCollection",
"name": "multi_path_smooth_sore_klauva_13",
"crs": { "type": "name", "properties": { "name": "urn:ogc:def:crs:EPSG::25833" } },
"features": [
{ "type": "Feature", "properties": { "cat": 1 }, "geometry": { "type": "LineString", "coordinates": [ [ 135050.0, 6963000.0 ], [ 135000.0, 6962930.0 ], [ 134980.0, 6962880.0 ], [ 134910.0, 6962830.0 ], [ 134850.0, 6962750.0 ], [ 134820.0, 6962740.0 ], [ 134730.0, 6962670.0 ], [ 134660.0, 6962660.0 ], [ 134630.0, 6962640.0 ], [ 134590.0, 6962640.0 ], [ 134550.0, 6962620.0 ], [ 134510.0, 6962620.0 ], [ 134490.0, 6962600.0 ], [ 134430.0, 6962600.0 ], [ 134400.0, 6962620.0 ], [ 134330.0, 6962610.0 ], [ 134270.0, 6962670.0 ], [ 134100.0, 6962670.0 ], [ 133950.0, 6962520.0 ], [ 133920.0, 6962480.0 ], [ 133920.0, 6962460.0 ], [ 133630.0, 6962170.0 ], [ 133550.0, 6962140.0 ], [ 133290.0, 6962130.0 ], [ 132940.0, 6961770.0 ], [ 132850.0, 6961760.0 ], [ 132820.0, 6961730.0 ], [ 132800.0, 6961700.0 ], [ 132800.0, 6961670.0 ], [ 132750.0, 6961640.0 ], [ 132740.0, 6961590.0 ], [ 132690.0, 6961530.0 ], [ 132670.0, 6961480.0 ], [ 132670.0, 6961360.0 ], [ 132650.0, 6961340.0 ], [ 132640.0, 6961150.0 ], [ 132600.0, 6961110.0 ], [ 132600.0, 6961090.0 ], [ 132550.0, 6961010.0 ], [ 132550.0, 6960920.0 ], [ 132510.0, 6960870.0 ], [ 132510.0, 6960560.0 ], [ 132530.0, 6960540.0 ], [ 132530.0, 6960490.0 ], [ 132550.0, 6960470.0 ], [ 132550.0, 6960400.0 ], [ 132620.0, 6960330.0 ], [ 132570.0, 6960230.0 ], [ 132480.0, 6960150.0 ], [ 132440.0, 6960090.0 ], [ 132440.0, 6960060.0 ], [ 132420.0, 6960040.0 ], [ 132420.0, 6960010.0 ], [ 132400.0, 6959980.0 ], [ 132400.0, 6959950.0 ], [ 132420.0, 6959930.0 ] ] } }
]
}
