{
"type": "FeatureCollection",
"name": "multi_path_smooth_skarven_13",
"crs": { "type": "name", "properties": { "name": "urn:ogc:def:crs:EPSG::25833" } },
"features": [
{ "type": "Feature", "properties": { "cat": 1 }, "geometry": { "type": "LineString", "coordinates": [ [ 133710.0, 6962970.0 ], [ 133710.0, 6962950.0 ], [ 133670.0, 6962910.0 ], [ 133650.0, 6962860.0 ], [ 133650.0, 6962730.0 ], [ 133720.0, 6962660.0 ], [ 133720.0, 6962600.0 ], [ 133760.0, 6962560.0 ], [ 133760.0, 6962450.0 ], [ 133710.0, 6962400.0 ], [ 133710.0, 6962360.0 ], [ 133580.0, 6962230.0 ], [ 133540.0, 6962230.0 ], [ 133470.0, 6962190.0 ], [ 133340.0, 6962190.0 ], [ 133180.0, 6962030.0 ], [ 133140.0, 6961960.0 ], [ 133060.0, 6961880.0 ], [ 132890.0, 6961730.0 ], [ 132870.0, 6961730.0 ], [ 132810.0, 6961670.0 ], [ 132750.0, 6961640.0 ], [ 132730.0, 6961550.0 ], [ 132660.0, 6961480.0 ], [ 132650.0, 6961360.0 ], [ 132680.0, 6961290.0 ], [ 132680.0, 6961240.0 ], [ 132650.0, 6961210.0 ], [ 132650.0, 6961120.0 ], [ 132640.0, 6961110.0 ], [ 132630.0, 6960980.0 ], [ 132620.0, 6960950.0 ], [ 132510.0, 6960840.0 ], [ 132510.0, 6960560.0 ], [ 132530.0, 6960540.0 ], [ 132530.0, 6960490.0 ], [ 132580.0, 6960430.0 ], [ 132580.0, 6960380.0 ], [ 132620.0, 6960330.0 ], [ 132570.0, 6960230.0 ], [ 132480.0, 6960150.0 ], [ 132440.0, 6960090.0 ], [ 132440.0, 6960060.0 ], [ 132420.0, 6960040.0 ], [ 132420.0, 6960010.0 ], [ 132400.0, 6959980.0 ], [ 132400.0, 6959950.0 ], [ 132420.0, 6959930.0 ] ] } }
]
}
