{
"type": "FeatureCollection",
"name": "multi_path_smooth_skarven_23",
"crs": { "type": "name", "properties": { "name": "urn:ogc:def:crs:EPSG::25833" } },
"features": [
{ "type": "Feature", "properties": { "cat": 1 }, "geometry": { "type": "LineString", "coordinates": [ [ 133710.0, 6962970.0 ], [ 133720.0, 6962950.0 ], [ 133820.0, 6962920.0 ], [ 133890.0, 6962850.0 ], [ 133920.0, 6962790.0 ], [ 133920.0, 6962460.0 ], [ 133880.0, 6962400.0 ], [ 133880.0, 6962280.0 ], [ 133680.0, 6962070.0 ], [ 133600.0, 6962060.0 ], [ 133510.0, 6961990.0 ], [ 133470.0, 6961980.0 ], [ 133330.0, 6961840.0 ], [ 133320.0, 6961810.0 ], [ 133280.0, 6961810.0 ], [ 133210.0, 6961740.0 ], [ 133210.0, 6961660.0 ], [ 133160.0, 6961610.0 ], [ 133110.0, 6961610.0 ], [ 133060.0, 6961570.0 ], [ 133010.0, 6961570.0 ], [ 132690.0, 6961250.0 ], [ 132690.0, 6961190.0 ], [ 132670.0, 6961140.0 ], [ 132670.0, 6961040.0 ], [ 132660.0, 6961000.0 ], [ 132630.0, 6960960.0 ], [ 132620.0, 6960850.0 ], [ 132600.0, 6960830.0 ], [ 132600.0, 6960760.0 ], [ 132590.0, 6960750.0 ], [ 132590.0, 6960480.0 ], [ 132580.0, 6960470.0 ], [ 132580.0, 6960400.0 ], [ 132620.0, 6960330.0 ], [ 132620.0, 6960310.0 ], [ 132600.0, 6960260.0 ], [ 132600.0, 6960220.0 ], [ 132520.0, 6960130.0 ], [ 132490.0, 6960050.0 ], [ 132430.0, 6959990.0 ], [ 132420.0, 6959930.0 ] ] } }
]
}
