{
"type": "FeatureCollection",
"name": "multi_path_smooth_skarven_11",
"crs": { "type": "name", "properties": { "name": "urn:ogc:def:crs:EPSG::25833" } },
"features": [
{ "type": "Feature", "properties": { "cat": 1 }, "geometry": { "type": "LineString", "coordinates": [ [ 133710.0, 6962970.0 ], [ 133720.0, 6962950.0 ], [ 133770.0, 6962940.0 ], [ 133790.0, 6962920.0 ], [ 133860.0, 6962910.0 ], [ 133930.0, 6962840.0 ], [ 133930.0, 6962760.0 ], [ 133950.0, 6962740.0 ], [ 133950.0, 6962610.0 ], [ 133930.0, 6962550.0 ], [ 133930.0, 6962490.0 ], [ 133830.0, 6962380.0 ], [ 133790.0, 6962370.0 ], [ 133610.0, 6962190.0 ], [ 133590.0, 6962180.0 ], [ 133480.0, 6962180.0 ], [ 133470.0, 6962170.0 ], [ 133340.0, 6962170.0 ], [ 133270.0, 6962120.0 ], [ 133170.0, 6962010.0 ], [ 133170.0, 6961960.0 ], [ 132950.0, 6961740.0 ], [ 132900.0, 6961730.0 ], [ 132790.0, 6961660.0 ], [ 132780.0, 6961640.0 ], [ 132780.0, 6961330.0 ], [ 132700.0, 6961260.0 ], [ 132700.0, 6961210.0 ], [ 132670.0, 6961140.0 ], [ 132670.0, 6961040.0 ], [ 132710.0, 6960980.0 ], [ 132710.0, 6960940.0 ], [ 132700.0, 6960930.0 ], [ 132660.0, 6960930.0 ], [ 132640.0, 6960910.0 ], [ 132610.0, 6960910.0 ], [ 132540.0, 6960840.0 ], [ 132550.0, 6960600.0 ], [ 132560.0, 6960590.0 ], [ 132560.0, 6960380.0 ], [ 132620.0, 6960340.0 ], [ 132620.0, 6960290.0 ], [ 132590.0, 6960240.0 ], [ 132460.0, 6960090.0 ], [ 132450.0, 6959950.0 ], [ 132420.0, 6959930.0 ] ] } }
]
}
