{
"type": "FeatureCollection",
"name": "multi_path_smooth_skarven_22",
"crs": { "type": "name", "properties": { "name": "urn:ogc:def:crs:EPSG::25833" } },
"features": [
{ "type": "Feature", "properties": { "cat": 1 }, "geometry": { "type": "LineString", "coordinates": [ [ 133710.0, 6962970.0 ], [ 133690.0, 6962920.0 ], [ 133690.0, 6962730.0 ], [ 133780.0, 6962630.0 ], [ 133780.0, 6962500.0 ], [ 133760.0, 6962450.0 ], [ 133710.0, 6962400.0 ], [ 133710.0, 6962360.0 ], [ 133580.0, 6962230.0 ], [ 133500.0, 6962220.0 ], [ 133480.0, 6962200.0 ], [ 133460.0, 6962200.0 ], [ 133380.0, 6962120.0 ], [ 133330.0, 6962090.0 ], [ 133110.0, 6961870.0 ], [ 133090.0, 6961870.0 ], [ 133030.0, 6961810.0 ], [ 132960.0, 6961780.0 ], [ 132860.0, 6961780.0 ], [ 132820.0, 6961740.0 ], [ 132810.0, 6961680.0 ], [ 132780.0, 6961650.0 ], [ 132750.0, 6961640.0 ], [ 132720.0, 6961560.0 ], [ 132660.0, 6961480.0 ], [ 132650.0, 6961360.0 ], [ 132640.0, 6961330.0 ], [ 132610.0, 6961300.0 ], [ 132610.0, 6961000.0 ], [ 132580.0, 6960970.0 ], [ 132580.0, 6960920.0 ], [ 132520.0, 6960860.0 ], [ 132520.0, 6960420.0 ], [ 132580.0, 6960360.0 ], [ 132630.0, 6960350.0 ], [ 132670.0, 6960310.0 ], [ 132670.0, 6960250.0 ], [ 132550.0, 6960120.0 ], [ 132540.0, 6960070.0 ], [ 132420.0, 6959950.0 ], [ 132420.0, 6959930.0 ] ] } }
]
}
