{
"type": "FeatureCollection",
"name": "multi_path_smooth_skarven_04",
"crs": { "type": "name", "properties": { "name": "urn:ogc:def:crs:EPSG::25833" } },
"features": [
{ "type": "Feature", "properties": { "cat": 1 }, "geometry": { "type": "LineString", "coordinates": [ [ 133710.0, 6962970.0 ], [ 133720.0, 6962950.0 ], [ 133880.0, 6962900.0 ], [ 133950.0, 6962830.0 ], [ 133950.0, 6962630.0 ], [ 133930.0, 6962610.0 ], [ 133930.0, 6962490.0 ], [ 133920.0, 6962460.0 ], [ 133830.0, 6962370.0 ], [ 133780.0, 6962360.0 ], [ 133670.0, 6962260.0 ], [ 133640.0, 6962260.0 ], [ 133590.0, 6962230.0 ], [ 133520.0, 6962230.0 ], [ 133490.0, 6962200.0 ], [ 133380.0, 6962200.0 ], [ 133350.0, 6962190.0 ], [ 133180.0, 6962020.0 ], [ 133180.0, 6962000.0 ], [ 132940.0, 6961760.0 ], [ 132920.0, 6961760.0 ], [ 132880.0, 6961730.0 ], [ 132830.0, 6961730.0 ], [ 132810.0, 6961710.0 ], [ 132810.0, 6961680.0 ], [ 132740.0, 6961620.0 ], [ 132720.0, 6961560.0 ], [ 132660.0, 6961480.0 ], [ 132650.0, 6961450.0 ], [ 132650.0, 6961360.0 ], [ 132680.0, 6961290.0 ], [ 132670.0, 6961250.0 ], [ 132670.0, 6961190.0 ], [ 132680.0, 6961180.0 ], [ 132670.0, 6961040.0 ], [ 132610.0, 6960970.0 ], [ 132610.0, 6960940.0 ], [ 132590.0, 6960920.0 ], [ 132570.0, 6960920.0 ], [ 132520.0, 6960870.0 ], [ 132520.0, 6960770.0 ], [ 132550.0, 6960740.0 ], [ 132560.0, 6960380.0 ], [ 132610.0, 6960350.0 ], [ 132620.0, 6960310.0 ], [ 132600.0, 6960250.0 ], [ 132440.0, 6960090.0 ], [ 132420.0, 6959930.0 ] ] } }
]
}
