{
"type": "FeatureCollection",
"name": "multi_path_smooth_skarven_16",
"crs": { "type": "name", "properties": { "name": "urn:ogc:def:crs:EPSG::25833" } },
"features": [
{ "type": "Feature", "properties": { "cat": 1 }, "geometry": { "type": "LineString", "coordinates": [ [ 133710.0, 6962970.0 ], [ 133720.0, 6962950.0 ], [ 133860.0, 6962910.0 ], [ 133890.0, 6962880.0 ], [ 133940.0, 6962860.0 ], [ 133980.0, 6962820.0 ], [ 133980.0, 6962590.0 ], [ 133940.0, 6962550.0 ], [ 133940.0, 6962480.0 ], [ 133860.0, 6962370.0 ], [ 133860.0, 6962320.0 ], [ 133680.0, 6962140.0 ], [ 133590.0, 6962120.0 ], [ 133540.0, 6962080.0 ], [ 133500.0, 6962080.0 ], [ 133470.0, 6962060.0 ], [ 133350.0, 6962050.0 ], [ 133300.0, 6962010.0 ], [ 133240.0, 6962010.0 ], [ 133190.0, 6961990.0 ], [ 132930.0, 6961750.0 ], [ 132890.0, 6961720.0 ], [ 132850.0, 6961720.0 ], [ 132770.0, 6961630.0 ], [ 132770.0, 6961510.0 ], [ 132730.0, 6961440.0 ], [ 132730.0, 6961360.0 ], [ 132710.0, 6961340.0 ], [ 132690.0, 6961260.0 ], [ 132690.0, 6961000.0 ], [ 132670.0, 6960970.0 ], [ 132670.0, 6960940.0 ], [ 132590.0, 6960860.0 ], [ 132560.0, 6960750.0 ], [ 132560.0, 6960690.0 ], [ 132580.0, 6960660.0 ], [ 132580.0, 6960430.0 ], [ 132590.0, 6960420.0 ], [ 132590.0, 6960370.0 ], [ 132620.0, 6960330.0 ], [ 132570.0, 6960230.0 ], [ 132490.0, 6960150.0 ], [ 132490.0, 6960130.0 ], [ 132470.0, 6960110.0 ], [ 132470.0, 6960060.0 ], [ 132450.0, 6960030.0 ], [ 132450.0, 6959950.0 ], [ 132420.0, 6959930.0 ] ] } }
]
}
