{
"type": "FeatureCollection",
"name": "multi_path_smooth_skarven_05",
"crs": { "type": "name", "properties": { "name": "urn:ogc:def:crs:EPSG::25833" } },
"features": [
{ "type": "Feature", "properties": { "cat": 1 }, "geometry": { "type": "LineString", "coordinates": [ [ 133710.0, 6962970.0 ], [ 133720.0, 6962950.0 ], [ 133850.0, 6962910.0 ], [ 133890.0, 6962880.0 ], [ 133920.0, 6962880.0 ], [ 133990.0, 6962830.0 ], [ 133990.0, 6962600.0 ], [ 133980.0, 6962590.0 ], [ 133980.0, 6962550.0 ], [ 133950.0, 6962520.0 ], [ 133920.0, 6962450.0 ], [ 133920.0, 6962400.0 ], [ 133880.0, 6962360.0 ], [ 133880.0, 6962330.0 ], [ 133650.0, 6962090.0 ], [ 133630.0, 6962080.0 ], [ 133450.0, 6962070.0 ], [ 133430.0, 6962050.0 ], [ 133350.0, 6962050.0 ], [ 133310.0, 6962010.0 ], [ 133230.0, 6962010.0 ], [ 133000.0, 6961790.0 ], [ 132980.0, 6961790.0 ], [ 132900.0, 6961720.0 ], [ 132840.0, 6961700.0 ], [ 132810.0, 6961670.0 ], [ 132750.0, 6961640.0 ], [ 132720.0, 6961560.0 ], [ 132660.0, 6961480.0 ], [ 132650.0, 6961450.0 ], [ 132650.0, 6961360.0 ], [ 132680.0, 6961290.0 ], [ 132670.0, 6961250.0 ], [ 132670.0, 6961190.0 ], [ 132680.0, 6961180.0 ], [ 132670.0, 6961110.0 ], [ 132520.0, 6960950.0 ], [ 132490.0, 6960870.0 ], [ 132490.0, 6960800.0 ], [ 132440.0, 6960750.0 ], [ 132450.0, 6960720.0 ], [ 132440.0, 6960670.0 ], [ 132530.0, 6960540.0 ], [ 132530.0, 6960500.0 ], [ 132550.0, 6960480.0 ], [ 132560.0, 6960440.0 ], [ 132590.0, 6960410.0 ], [ 132590.0, 6960370.0 ], [ 132620.0, 6960340.0 ], [ 132620.0, 6960310.0 ], [ 132570.0, 6960230.0 ], [ 132450.0, 6960110.0 ], [ 132430.0, 6960050.0 ], [ 132420.0, 6959930.0 ] ] } }
]
}
