{
"type": "FeatureCollection",
"name": "multi_path_smooth_skarven_18",
"crs": { "type": "name", "properties": { "name": "urn:ogc:def:crs:EPSG::25833" } },
"features": [
{ "type": "Feature", "properties": { "cat": 1 }, "geometry": { "type": "LineString", "coordinates": [ [ 133710.0, 6962970.0 ], [ 133720.0, 6962950.0 ], [ 133800.0, 6962930.0 ], [ 133820.0, 6962910.0 ], [ 133850.0, 6962910.0 ], [ 133940.0, 6962870.0 ], [ 134000.0, 6962810.0 ], [ 134000.0, 6962610.0 ], [ 133990.0, 6962600.0 ], [ 133990.0, 6962550.0 ], [ 133950.0, 6962510.0 ], [ 133940.0, 6962390.0 ], [ 133920.0, 6962360.0 ], [ 133910.0, 6962270.0 ], [ 133490.0, 6961850.0 ], [ 133430.0, 6961800.0 ], [ 133350.0, 6961780.0 ], [ 133300.0, 6961730.0 ], [ 133300.0, 6961670.0 ], [ 133270.0, 6961640.0 ], [ 133250.0, 6961640.0 ], [ 133170.0, 6961560.0 ], [ 133120.0, 6961550.0 ], [ 132900.0, 6961350.0 ], [ 132850.0, 6961340.0 ], [ 132770.0, 6961260.0 ], [ 132780.0, 6960910.0 ], [ 132790.0, 6960900.0 ], [ 132790.0, 6960840.0 ], [ 132810.0, 6960800.0 ], [ 132810.0, 6960630.0 ], [ 132830.0, 6960610.0 ], [ 132840.0, 6960570.0 ], [ 132840.0, 6960530.0 ], [ 132830.0, 6960520.0 ], [ 132840.0, 6960490.0 ], [ 132810.0, 6960460.0 ], [ 132790.0, 6960460.0 ], [ 132790.0, 6960430.0 ], [ 132750.0, 6960370.0 ], [ 132740.0, 6960220.0 ], [ 132700.0, 6960180.0 ], [ 132700.0, 6960160.0 ], [ 132470.0, 6959930.0 ], [ 132420.0, 6959930.0 ] ] } }
]
}
