{
"type": "FeatureCollection",
"name": "multi_path_smooth_skarven_06",
"crs": { "type": "name", "properties": { "name": "urn:ogc:def:crs:EPSG::25833" } },
"features": [
{ "type": "Feature", "properties": { "cat": 1 }, "geometry": { "type": "LineString", "coordinates": [ [ 133710.0, 6962970.0 ], [ 133720.0, 6962950.0 ], [ 133900.0, 6962890.0 ], [ 133960.0, 6962830.0 ], [ 133960.0, 6962630.0 ], [ 133920.0, 6962590.0 ], [ 133920.0, 6962460.0 ], [ 133830.0, 6962360.0 ], [ 133830.0, 6962340.0 ], [ 133660.0, 6962170.0 ], [ 133610.0, 6962170.0 ], [ 133590.0, 6962150.0 ], [ 133490.0, 6962120.0 ], [ 133310.0, 6962120.0 ], [ 133290.0, 6962110.0 ], [ 133220.0, 6962050.0 ], [ 133190.0, 6962000.0 ], [ 132990.0, 6961800.0 ], [ 132940.0, 6961760.0 ], [ 132910.0, 6961760.0 ], [ 132890.0, 6961740.0 ], [ 132840.0, 6961740.0 ], [ 132810.0, 6961710.0 ], [ 132810.0, 6961680.0 ], [ 132740.0, 6961610.0 ], [ 132690.0, 6961510.0 ], [ 132660.0, 6961480.0 ], [ 132650.0, 6961360.0 ], [ 132680.0, 6961290.0 ], [ 132670.0, 6961250.0 ], [ 132670.0, 6961030.0 ], [ 132620.0, 6960970.0 ], [ 132610.0, 6960930.0 ], [ 132530.0, 6960850.0 ], [ 132530.0, 6960650.0 ], [ 132550.0, 6960630.0 ], [ 132550.0, 6960390.0 ], [ 132580.0, 6960360.0 ], [ 132610.0, 6960350.0 ], [ 132620.0, 6960310.0 ], [ 132570.0, 6960230.0 ], [ 132460.0, 6960120.0 ], [ 132440.0, 6959950.0 ], [ 132420.0, 6959930.0 ] ] } }
]
}
