{
"type": "FeatureCollection",
"name": "multi_path_smooth_skarven_15",
"crs": { "type": "name", "properties": { "name": "urn:ogc:def:crs:EPSG::25833" } },
"features": [
{ "type": "Feature", "properties": { "cat": 1 }, "geometry": { "type": "LineString", "coordinates": [ [ 133710.0, 6962970.0 ], [ 133710.0, 6962950.0 ], [ 133670.0, 6962910.0 ], [ 133670.0, 6962880.0 ], [ 133630.0, 6962810.0 ], [ 133630.0, 6962720.0 ], [ 133660.0, 6962690.0 ], [ 133660.0, 6962660.0 ], [ 133750.0, 6962560.0 ], [ 133750.0, 6962450.0 ], [ 133540.0, 6962240.0 ], [ 133520.0, 6962230.0 ], [ 133450.0, 6962230.0 ], [ 133430.0, 6962210.0 ], [ 133390.0, 6962210.0 ], [ 133350.0, 6962180.0 ], [ 133230.0, 6962060.0 ], [ 133210.0, 6962010.0 ], [ 132970.0, 6961750.0 ], [ 132920.0, 6961740.0 ], [ 132890.0, 6961710.0 ], [ 132870.0, 6961710.0 ], [ 132780.0, 6961650.0 ], [ 132760.0, 6961650.0 ], [ 132740.0, 6961600.0 ], [ 132690.0, 6961550.0 ], [ 132690.0, 6961510.0 ], [ 132670.0, 6961490.0 ], [ 132640.0, 6961410.0 ], [ 132640.0, 6961280.0 ], [ 132620.0, 6961260.0 ], [ 132620.0, 6961080.0 ], [ 132550.0, 6961010.0 ], [ 132540.0, 6960980.0 ], [ 132500.0, 6960940.0 ], [ 132500.0, 6960920.0 ], [ 132460.0, 6960890.0 ], [ 132460.0, 6960870.0 ], [ 132440.0, 6960850.0 ], [ 132440.0, 6960670.0 ], [ 132480.0, 6960620.0 ], [ 132480.0, 6960450.0 ], [ 132580.0, 6960360.0 ], [ 132600.0, 6960360.0 ], [ 132630.0, 6960330.0 ], [ 132630.0, 6960300.0 ], [ 132620.0, 6960270.0 ], [ 132500.0, 6960140.0 ], [ 132480.0, 6960090.0 ], [ 132450.0, 6960060.0 ], [ 132420.0, 6959930.0 ] ] } }
]
}
