{
"type": "FeatureCollection",
"name": "multi_path_smooth_skarven_20",
"crs": { "type": "name", "properties": { "name": "urn:ogc:def:crs:EPSG::25833" } },
"features": [
{ "type": "Feature", "properties": { "cat": 1 }, "geometry": { "type": "LineString", "coordinates": [ [ 133710.0, 6962970.0 ], [ 133700.0, 6962830.0 ], [ 133850.0, 6962650.0 ], [ 133850.0, 6962530.0 ], [ 133840.0, 6962520.0 ], [ 133850.0, 6962420.0 ], [ 133830.0, 6962340.0 ], [ 133810.0, 6962320.0 ], [ 133800.0, 6962280.0 ], [ 133600.0, 6962080.0 ], [ 133340.0, 6962040.0 ], [ 133100.0, 6961800.0 ], [ 133080.0, 6961750.0 ], [ 133080.0, 6961650.0 ], [ 133030.0, 6961600.0 ], [ 133000.0, 6961600.0 ], [ 132970.0, 6961570.0 ], [ 132910.0, 6961570.0 ], [ 132740.0, 6961400.0 ], [ 132730.0, 6961350.0 ], [ 132700.0, 6961310.0 ], [ 132700.0, 6961020.0 ], [ 132680.0, 6960990.0 ], [ 132670.0, 6960940.0 ], [ 132640.0, 6960910.0 ], [ 132630.0, 6960490.0 ], [ 132620.0, 6960450.0 ], [ 132590.0, 6960410.0 ], [ 132590.0, 6960370.0 ], [ 132610.0, 6960350.0 ], [ 132620.0, 6960310.0 ], [ 132570.0, 6960230.0 ], [ 132500.0, 6960160.0 ], [ 132500.0, 6960110.0 ], [ 132470.0, 6960080.0 ], [ 132470.0, 6960050.0 ], [ 132430.0, 6960000.0 ], [ 132420.0, 6959930.0 ] ] } }
]
}
