{
"type": "FeatureCollection",
"name": "multi_path_smooth_skarven_14",
"crs": { "type": "name", "properties": { "name": "urn:ogc:def:crs:EPSG::25833" } },
"features": [
{ "type": "Feature", "properties": { "cat": 1 }, "geometry": { "type": "LineString", "coordinates": [ [ 133710.0, 6962970.0 ], [ 133720.0, 6962950.0 ], [ 133770.0, 6962940.0 ], [ 133810.0, 6962910.0 ], [ 133850.0, 6962910.0 ], [ 133920.0, 6962840.0 ], [ 133920.0, 6962460.0 ], [ 133630.0, 6962170.0 ], [ 133580.0, 6962160.0 ], [ 133540.0, 6962120.0 ], [ 133430.0, 6962110.0 ], [ 133420.0, 6962100.0 ], [ 133340.0, 6962100.0 ], [ 133320.0, 6962080.0 ], [ 133280.0, 6962070.0 ], [ 132960.0, 6961760.0 ], [ 132850.0, 6961760.0 ], [ 132800.0, 6961700.0 ], [ 132790.0, 6961660.0 ], [ 132790.0, 6961360.0 ], [ 132780.0, 6961330.0 ], [ 132690.0, 6961250.0 ], [ 132690.0, 6961200.0 ], [ 132670.0, 6961140.0 ], [ 132670.0, 6961000.0 ], [ 132530.0, 6960830.0 ], [ 132530.0, 6960580.0 ], [ 132550.0, 6960560.0 ], [ 132550.0, 6960400.0 ], [ 132620.0, 6960330.0 ], [ 132610.0, 6960320.0 ], [ 132610.0, 6960270.0 ], [ 132520.0, 6960170.0 ], [ 132510.0, 6960060.0 ], [ 132470.0, 6960020.0 ], [ 132470.0, 6959970.0 ], [ 132420.0, 6959930.0 ] ] } }
]
}
