{
"type": "FeatureCollection",
"name": "multi_path_smooth_skarven_10",
"crs": { "type": "name", "properties": { "name": "urn:ogc:def:crs:EPSG::25833" } },
"features": [
{ "type": "Feature", "properties": { "cat": 1 }, "geometry": { "type": "LineString", "coordinates": [ [ 133710.0, 6962970.0 ], [ 133720.0, 6962950.0 ], [ 133850.0, 6962910.0 ], [ 133890.0, 6962870.0 ], [ 133940.0, 6962860.0 ], [ 133970.0, 6962830.0 ], [ 133970.0, 6962600.0 ], [ 133940.0, 6962560.0 ], [ 133940.0, 6962480.0 ], [ 133910.0, 6962440.0 ], [ 133890.0, 6962380.0 ], [ 133890.0, 6962290.0 ], [ 133760.0, 6962160.0 ], [ 133740.0, 6962160.0 ], [ 133670.0, 6962090.0 ], [ 133280.0, 6962080.0 ], [ 132950.0, 6961770.0 ], [ 132920.0, 6961770.0 ], [ 132880.0, 6961730.0 ], [ 132830.0, 6961730.0 ], [ 132810.0, 6961710.0 ], [ 132810.0, 6961680.0 ], [ 132780.0, 6961650.0 ], [ 132750.0, 6961640.0 ], [ 132740.0, 6961590.0 ], [ 132700.0, 6961550.0 ], [ 132690.0, 6961510.0 ], [ 132650.0, 6961450.0 ], [ 132640.0, 6961410.0 ], [ 132640.0, 6961270.0 ], [ 132620.0, 6961250.0 ], [ 132620.0, 6961180.0 ], [ 132570.0, 6961080.0 ], [ 132560.0, 6960920.0 ], [ 132520.0, 6960880.0 ], [ 132520.0, 6960780.0 ], [ 132540.0, 6960760.0 ], [ 132540.0, 6960620.0 ], [ 132580.0, 6960580.0 ], [ 132580.0, 6960430.0 ], [ 132590.0, 6960420.0 ], [ 132590.0, 6960370.0 ], [ 132610.0, 6960350.0 ], [ 132620.0, 6960310.0 ], [ 132570.0, 6960230.0 ], [ 132450.0, 6960110.0 ], [ 132430.0, 6960070.0 ], [ 132430.0, 6959940.0 ], [ 132420.0, 6959930.0 ] ] } }
]
}
