{
"type": "FeatureCollection",
"name": "multi_path_smooth_skarven_19",
"crs": { "type": "name", "properties": { "name": "urn:ogc:def:crs:EPSG::25833" } },
"features": [
{ "type": "Feature", "properties": { "cat": 1 }, "geometry": { "type": "LineString", "coordinates": [ [ 133710.0, 6962970.0 ], [ 133710.0, 6962950.0 ], [ 133660.0, 6962900.0 ], [ 133650.0, 6962840.0 ], [ 133610.0, 6962780.0 ], [ 133610.0, 6962650.0 ], [ 133690.0, 6962570.0 ], [ 133690.0, 6962400.0 ], [ 133620.0, 6962330.0 ], [ 133530.0, 6962310.0 ], [ 133470.0, 6962250.0 ], [ 133450.0, 6962250.0 ], [ 133410.0, 6962210.0 ], [ 133350.0, 6962190.0 ], [ 133170.0, 6962010.0 ], [ 133110.0, 6961910.0 ], [ 133000.0, 6961800.0 ], [ 132980.0, 6961800.0 ], [ 132950.0, 6961770.0 ], [ 132920.0, 6961770.0 ], [ 132900.0, 6961750.0 ], [ 132840.0, 6961750.0 ], [ 132820.0, 6961730.0 ], [ 132810.0, 6961680.0 ], [ 132780.0, 6961630.0 ], [ 132770.0, 6961510.0 ], [ 132720.0, 6961430.0 ], [ 132720.0, 6961380.0 ], [ 132700.0, 6961360.0 ], [ 132700.0, 6961310.0 ], [ 132680.0, 6961290.0 ], [ 132670.0, 6961250.0 ], [ 132670.0, 6961190.0 ], [ 132680.0, 6961180.0 ], [ 132670.0, 6961080.0 ], [ 132500.0, 6960910.0 ], [ 132460.0, 6960890.0 ], [ 132460.0, 6960870.0 ], [ 132430.0, 6960830.0 ], [ 132430.0, 6960750.0 ], [ 132400.0, 6960700.0 ], [ 132420.0, 6960680.0 ], [ 132420.0, 6960580.0 ], [ 132440.0, 6960560.0 ], [ 132440.0, 6960420.0 ], [ 132480.0, 6960380.0 ], [ 132490.0, 6960350.0 ], [ 132560.0, 6960280.0 ], [ 132470.0, 6960190.0 ], [ 132470.0, 6960130.0 ], [ 132400.0, 6960040.0 ], [ 132400.0, 6959950.0 ], [ 132420.0, 6959930.0 ] ] } }
]
}
