{
"type": "FeatureCollection",
"name": "multi_path_smooth_skarven_03",
"crs": { "type": "name", "properties": { "name": "urn:ogc:def:crs:EPSG::25833" } },
"features": [
{ "type": "Feature", "properties": { "cat": 1 }, "geometry": { "type": "LineString", "coordinates": [ [ 133710.0, 6962970.0 ], [ 133720.0, 6962950.0 ], [ 133900.0, 6962890.0 ], [ 133960.0, 6962830.0 ], [ 133960.0, 6962580.0 ], [ 133940.0, 6962560.0 ], [ 133940.0, 6962500.0 ], [ 133910.0, 6962400.0 ], [ 133800.0, 6962290.0 ], [ 133800.0, 6962270.0 ], [ 133750.0, 6962220.0 ], [ 133750.0, 6962200.0 ], [ 133680.0, 6962130.0 ], [ 133650.0, 6962130.0 ], [ 133610.0, 6962110.0 ], [ 133340.0, 6962110.0 ], [ 133310.0, 6962080.0 ], [ 133270.0, 6962080.0 ], [ 132970.0, 6961760.0 ], [ 132950.0, 6961760.0 ], [ 132750.0, 6961640.0 ], [ 132720.0, 6961560.0 ], [ 132660.0, 6961480.0 ], [ 132650.0, 6961450.0 ], [ 132650.0, 6961360.0 ], [ 132680.0, 6961290.0 ], [ 132670.0, 6961250.0 ], [ 132670.0, 6961190.0 ], [ 132680.0, 6961180.0 ], [ 132670.0, 6961040.0 ], [ 132710.0, 6960980.0 ], [ 132710.0, 6960940.0 ], [ 132700.0, 6960930.0 ], [ 132660.0, 6960930.0 ], [ 132640.0, 6960910.0 ], [ 132510.0, 6960920.0 ], [ 132490.0, 6960870.0 ], [ 132490.0, 6960800.0 ], [ 132440.0, 6960750.0 ], [ 132450.0, 6960720.0 ], [ 132440.0, 6960680.0 ], [ 132490.0, 6960600.0 ], [ 132550.0, 6960540.0 ], [ 132550.0, 6960460.0 ], [ 132580.0, 6960420.0 ], [ 132580.0, 6960380.0 ], [ 132620.0, 6960340.0 ], [ 132620.0, 6960310.0 ], [ 132600.0, 6960250.0 ], [ 132440.0, 6960090.0 ], [ 132420.0, 6959930.0 ] ] } }
]
}
