{
"type": "FeatureCollection",
"name": "multi_path_smooth_skarven_07",
"crs": { "type": "name", "properties": { "name": "urn:ogc:def:crs:EPSG::25833" } },
"features": [
{ "type": "Feature", "properties": { "cat": 1 }, "geometry": { "type": "LineString", "coordinates": [ [ 133710.0, 6962970.0 ], [ 133720.0, 6962950.0 ], [ 133800.0, 6962930.0 ], [ 133830.0, 6962910.0 ], [ 133860.0, 6962910.0 ], [ 133900.0, 6962870.0 ], [ 133970.0, 6962860.0 ], [ 134020.0, 6962810.0 ], [ 134020.0, 6962580.0 ], [ 133690.0, 6962240.0 ], [ 133670.0, 6962240.0 ], [ 133600.0, 6962170.0 ], [ 133550.0, 6962170.0 ], [ 133530.0, 6962150.0 ], [ 133490.0, 6962150.0 ], [ 133450.0, 6962130.0 ], [ 133340.0, 6962130.0 ], [ 132940.0, 6961740.0 ], [ 132890.0, 6961730.0 ], [ 132830.0, 6961680.0 ], [ 132750.0, 6961640.0 ], [ 132720.0, 6961560.0 ], [ 132660.0, 6961480.0 ], [ 132650.0, 6961450.0 ], [ 132650.0, 6961360.0 ], [ 132680.0, 6961290.0 ], [ 132670.0, 6961250.0 ], [ 132680.0, 6961150.0 ], [ 132670.0, 6961120.0 ], [ 132550.0, 6961000.0 ], [ 132550.0, 6960960.0 ], [ 132500.0, 6960910.0 ], [ 132490.0, 6960870.0 ], [ 132490.0, 6960780.0 ], [ 132520.0, 6960730.0 ], [ 132520.0, 6960700.0 ], [ 132540.0, 6960680.0 ], [ 132550.0, 6960600.0 ], [ 132570.0, 6960580.0 ], [ 132570.0, 6960370.0 ], [ 132620.0, 6960340.0 ], [ 132620.0, 6960310.0 ], [ 132610.0, 6960300.0 ], [ 132610.0, 6960260.0 ], [ 132500.0, 6960170.0 ], [ 132440.0, 6960090.0 ], [ 132420.0, 6959930.0 ] ] } }
]
}
