{
"type": "FeatureCollection",
"name": "multi_path_smooth_skarven_12",
"crs": { "type": "name", "properties": { "name": "urn:ogc:def:crs:EPSG::25833" } },
"features": [
{ "type": "Feature", "properties": { "cat": 1 }, "geometry": { "type": "LineString", "coordinates": [ [ 133710.0, 6962970.0 ], [ 133720.0, 6962950.0 ], [ 133800.0, 6962930.0 ], [ 133820.0, 6962910.0 ], [ 133860.0, 6962910.0 ], [ 133950.0, 6962860.0 ], [ 133970.0, 6962860.0 ], [ 134010.0, 6962820.0 ], [ 134010.0, 6962610.0 ], [ 134000.0, 6962570.0 ], [ 133950.0, 6962510.0 ], [ 133930.0, 6962420.0 ], [ 133660.0, 6962150.0 ], [ 133560.0, 6962150.0 ], [ 133550.0, 6962140.0 ], [ 133460.0, 6962140.0 ], [ 133450.0, 6962130.0 ], [ 133320.0, 6962130.0 ], [ 133260.0, 6962070.0 ], [ 133240.0, 6962070.0 ], [ 132940.0, 6961750.0 ], [ 132840.0, 6961740.0 ], [ 132810.0, 6961710.0 ], [ 132810.0, 6961680.0 ], [ 132790.0, 6961650.0 ], [ 132730.0, 6961590.0 ], [ 132730.0, 6961570.0 ], [ 132690.0, 6961530.0 ], [ 132690.0, 6961510.0 ], [ 132670.0, 6961490.0 ], [ 132660.0, 6961320.0 ], [ 132640.0, 6961260.0 ], [ 132640.0, 6961150.0 ], [ 132600.0, 6961110.0 ], [ 132580.0, 6961050.0 ], [ 132530.0, 6961000.0 ], [ 132510.0, 6960960.0 ], [ 132510.0, 6960920.0 ], [ 132490.0, 6960870.0 ], [ 132490.0, 6960790.0 ], [ 132480.0, 6960780.0 ], [ 132480.0, 6960710.0 ], [ 132490.0, 6960700.0 ], [ 132490.0, 6960440.0 ], [ 132580.0, 6960360.0 ], [ 132600.0, 6960360.0 ], [ 132630.0, 6960330.0 ], [ 132630.0, 6960300.0 ], [ 132610.0, 6960240.0 ], [ 132500.0, 6960130.0 ], [ 132510.0, 6960080.0 ], [ 132440.0, 6960010.0 ], [ 132440.0, 6959970.0 ], [ 132420.0, 6959950.0 ], [ 132420.0, 6959930.0 ] ] } }
]
}
