{
"type": "FeatureCollection",
"name": "multi_path_smooth_skarven_17",
"crs": { "type": "name", "properties": { "name": "urn:ogc:def:crs:EPSG::25833" } },
"features": [
{ "type": "Feature", "properties": { "cat": 1 }, "geometry": { "type": "LineString", "coordinates": [ [ 133710.0, 6962970.0 ], [ 133710.0, 6962950.0 ], [ 133660.0, 6962900.0 ], [ 133660.0, 6962740.0 ], [ 133780.0, 6962630.0 ], [ 133780.0, 6962590.0 ], [ 133790.0, 6962580.0 ], [ 133790.0, 6962390.0 ], [ 133620.0, 6962220.0 ], [ 133470.0, 6962220.0 ], [ 133460.0, 6962210.0 ], [ 133340.0, 6962200.0 ], [ 133210.0, 6962070.0 ], [ 133170.0, 6962000.0 ], [ 132940.0, 6961770.0 ], [ 132910.0, 6961770.0 ], [ 132890.0, 6961750.0 ], [ 132840.0, 6961750.0 ], [ 132820.0, 6961730.0 ], [ 132800.0, 6961700.0 ], [ 132800.0, 6961670.0 ], [ 132730.0, 6961620.0 ], [ 132720.0, 6961570.0 ], [ 132700.0, 6961550.0 ], [ 132670.0, 6961470.0 ], [ 132670.0, 6961330.0 ], [ 132660.0, 6961320.0 ], [ 132660.0, 6961240.0 ], [ 132650.0, 6961230.0 ], [ 132630.0, 6961070.0 ], [ 132550.0, 6960990.0 ], [ 132550.0, 6960950.0 ], [ 132500.0, 6960880.0 ], [ 132500.0, 6960670.0 ], [ 132540.0, 6960620.0 ], [ 132540.0, 6960590.0 ], [ 132570.0, 6960560.0 ], [ 132570.0, 6960390.0 ], [ 132620.0, 6960340.0 ], [ 132620.0, 6960250.0 ], [ 132530.0, 6960150.0 ], [ 132520.0, 6960090.0 ], [ 132460.0, 6960030.0 ], [ 132460.0, 6959960.0 ], [ 132420.0, 6959930.0 ] ] } }
]
}
