{
"type": "FeatureCollection",
"name": "multi_path_smooth_skarven_09",
"crs": { "type": "name", "properties": { "name": "urn:ogc:def:crs:EPSG::25833" } },
"features": [
{ "type": "Feature", "properties": { "cat": 1 }, "geometry": { "type": "LineString", "coordinates": [ [ 133710.0, 6962970.0 ], [ 133720.0, 6962950.0 ], [ 133800.0, 6962930.0 ], [ 133820.0, 6962910.0 ], [ 133880.0, 6962900.0 ], [ 133960.0, 6962860.0 ], [ 134000.0, 6962820.0 ], [ 134000.0, 6962640.0 ], [ 133970.0, 6962590.0 ], [ 133970.0, 6962570.0 ], [ 133950.0, 6962550.0 ], [ 133950.0, 6962480.0 ], [ 133920.0, 6962360.0 ], [ 133670.0, 6962100.0 ], [ 133480.0, 6962100.0 ], [ 133430.0, 6962080.0 ], [ 133380.0, 6962040.0 ], [ 133260.0, 6962040.0 ], [ 132970.0, 6961750.0 ], [ 132940.0, 6961750.0 ], [ 132900.0, 6961720.0 ], [ 132870.0, 6961720.0 ], [ 132830.0, 6961680.0 ], [ 132800.0, 6961670.0 ], [ 132730.0, 6961590.0 ], [ 132690.0, 6961510.0 ], [ 132660.0, 6961480.0 ], [ 132650.0, 6961360.0 ], [ 132680.0, 6961290.0 ], [ 132670.0, 6961250.0 ], [ 132670.0, 6961050.0 ], [ 132620.0, 6961000.0 ], [ 132610.0, 6960950.0 ], [ 132490.0, 6960830.0 ], [ 132490.0, 6960800.0 ], [ 132460.0, 6960760.0 ], [ 132440.0, 6960700.0 ], [ 132460.0, 6960640.0 ], [ 132500.0, 6960590.0 ], [ 132520.0, 6960500.0 ], [ 132540.0, 6960480.0 ], [ 132540.0, 6960400.0 ], [ 132630.0, 6960330.0 ], [ 132630.0, 6960300.0 ], [ 132600.0, 6960230.0 ], [ 132420.0, 6960040.0 ], [ 132420.0, 6959970.0 ], [ 132410.0, 6959960.0 ], [ 132420.0, 6959930.0 ] ] } }
]
}
