{
"type": "FeatureCollection",
"name": "multi_path_smooth_skarven_21",
"crs": { "type": "name", "properties": { "name": "urn:ogc:def:crs:EPSG::25833" } },
"features": [
{ "type": "Feature", "properties": { "cat": 1 }, "geometry": { "type": "LineString", "coordinates": [ [ 133710.0, 6962970.0 ], [ 133720.0, 6962950.0 ], [ 133880.0, 6962900.0 ], [ 133950.0, 6962860.0 ], [ 133980.0, 6962860.0 ], [ 134050.0, 6962790.0 ], [ 134060.0, 6962620.0 ], [ 134020.0, 6962570.0 ], [ 134020.0, 6962460.0 ], [ 134030.0, 6962450.0 ], [ 134030.0, 6962370.0 ], [ 134040.0, 6962360.0 ], [ 134040.0, 6961900.0 ], [ 134030.0, 6961870.0 ], [ 133950.0, 6961790.0 ], [ 133850.0, 6961780.0 ], [ 133840.0, 6961770.0 ], [ 133630.0, 6961770.0 ], [ 133620.0, 6961780.0 ], [ 133540.0, 6961790.0 ], [ 133500.0, 6961750.0 ], [ 133500.0, 6961670.0 ], [ 133480.0, 6961650.0 ], [ 133440.0, 6961650.0 ], [ 133350.0, 6961580.0 ], [ 133310.0, 6961580.0 ], [ 133270.0, 6961560.0 ], [ 133200.0, 6961560.0 ], [ 133100.0, 6961460.0 ], [ 133020.0, 6961420.0 ], [ 132860.0, 6961270.0 ], [ 132840.0, 6961270.0 ], [ 132780.0, 6961210.0 ], [ 132790.0, 6960990.0 ], [ 132830.0, 6960930.0 ], [ 132830.0, 6960580.0 ], [ 132840.0, 6960540.0 ], [ 132790.0, 6960510.0 ], [ 132790.0, 6960430.0 ], [ 132770.0, 6960390.0 ], [ 132730.0, 6960380.0 ], [ 132710.0, 6960360.0 ], [ 132710.0, 6960080.0 ], [ 132680.0, 6960020.0 ], [ 132540.0, 6959940.0 ], [ 132420.0, 6959930.0 ] ] } }
]
}
