{
"type": "FeatureCollection",
"name": "multi_path_smooth_kjovskarstinden_17",
"crs": { "type": "name", "properties": { "name": "urn:ogc:def:crs:EPSG::25833" } },
"features": [
{ "type": "Feature", "properties": { "cat": 1 }, "geometry": { "type": "LineString", "coordinates": [ [ 138550.0, 6962280.0 ], [ 138470.0, 6962310.0 ], [ 138390.0, 6962380.0 ], [ 138180.0, 6962370.0 ], [ 138130.0, 6962350.0 ], [ 138070.0, 6962350.0 ], [ 138010.0, 6962330.0 ], [ 137970.0, 6962290.0 ], [ 137860.0, 6962300.0 ], [ 137780.0, 6962360.0 ], [ 137640.0, 6962360.0 ], [ 137630.0, 6962350.0 ], [ 137590.0, 6962350.0 ], [ 137570.0, 6962330.0 ], [ 137520.0, 6962330.0 ], [ 137450.0, 6962250.0 ], [ 137450.0, 6962180.0 ], [ 137470.0, 6962160.0 ], [ 137470.0, 6962130.0 ], [ 137500.0, 6962090.0 ], [ 137500.0, 6962000.0 ], [ 137520.0, 6961950.0 ], [ 137520.0, 6961620.0 ], [ 137550.0, 6961590.0 ], [ 137550.0, 6961450.0 ], [ 137520.0, 6961420.0 ], [ 137500.0, 6961200.0 ], [ 137150.0, 6960850.0 ], [ 137100.0, 6960840.0 ], [ 136960.0, 6960720.0 ], [ 136910.0, 6960710.0 ], [ 136860.0, 6960660.0 ], [ 136820.0, 6960640.0 ], [ 136770.0, 6960640.0 ], [ 136700.0, 6960580.0 ], [ 136210.0, 6960580.0 ], [ 136170.0, 6960540.0 ], [ 136050.0, 6960530.0 ], [ 135930.0, 6960430.0 ], [ 135840.0, 6960430.0 ], [ 135830.0, 6960420.0 ], [ 134630.0, 6960420.0 ], [ 134590.0, 6960430.0 ], [ 134570.0, 6960450.0 ], [ 134440.0, 6960450.0 ], [ 134400.0, 6960470.0 ], [ 134350.0, 6960470.0 ], [ 134220.0, 6960500.0 ], [ 133960.0, 6960510.0 ], [ 133950.0, 6960520.0 ], [ 133910.0, 6960520.0 ], [ 133890.0, 6960540.0 ], [ 133670.0, 6960540.0 ], [ 133650.0, 6960530.0 ], [ 133640.0, 6960540.0 ], [ 133560.0, 6960540.0 ], [ 133490.0, 6960570.0 ], [ 133430.0, 6960570.0 ], [ 133420.0, 6960580.0 ], [ 133190.0, 6960590.0 ], [ 133160.0, 6960570.0 ], [ 133070.0, 6960570.0 ], [ 133020.0, 6960540.0 ], [ 132980.0, 6960540.0 ], [ 132970.0, 6960530.0 ], [ 132840.0, 6960530.0 ], [ 132830.0, 6960520.0 ], [ 132710.0, 6960510.0 ], [ 132670.0, 6960470.0 ], [ 132650.0, 6960470.0 ], [ 132590.0, 6960420.0 ], [ 132560.0, 6960380.0 ], [ 132580.0, 6960360.0 ], [ 132600.0, 6960360.0 ], [ 132620.0, 6960330.0 ], [ 132570.0, 6960230.0 ], [ 132450.0, 6960110.0 ], [ 132440.0, 6960060.0 ], [ 132420.0, 6960040.0 ], [ 132420.0, 6960010.0 ], [ 132400.0, 6959980.0 ], [ 132400.0, 6959950.0 ], [ 132420.0, 6959930.0 ] ] } }
]
}
