{
"type": "FeatureCollection",
"name": "multi_path_smooth_kjovskarstinden_50",
"crs": { "type": "name", "properties": { "name": "urn:ogc:def:crs:EPSG::25833" } },
"features": [
{ "type": "Feature", "properties": { "cat": 1 }, "geometry": { "type": "LineString", "coordinates": [ [ 138550.0, 6962280.0 ], [ 138490.0, 6962300.0 ], [ 138380.0, 6962390.0 ], [ 138330.0, 6962390.0 ], [ 138300.0, 6962370.0 ], [ 138180.0, 6962370.0 ], [ 138130.0, 6962350.0 ], [ 138020.0, 6962340.0 ], [ 137970.0, 6962290.0 ], [ 137880.0, 6962290.0 ], [ 137840.0, 6962250.0 ], [ 137810.0, 6962240.0 ], [ 137720.0, 6962150.0 ], [ 137620.0, 6962150.0 ], [ 137600.0, 6962140.0 ], [ 137530.0, 6962070.0 ], [ 137530.0, 6962030.0 ], [ 137510.0, 6962000.0 ], [ 137510.0, 6961910.0 ], [ 137490.0, 6961890.0 ], [ 137490.0, 6961870.0 ], [ 137450.0, 6961830.0 ], [ 137450.0, 6961710.0 ], [ 137430.0, 6961690.0 ], [ 137430.0, 6961660.0 ], [ 137380.0, 6961610.0 ], [ 137370.0, 6961560.0 ], [ 137210.0, 6961370.0 ], [ 137210.0, 6961320.0 ], [ 137170.0, 6961260.0 ], [ 137160.0, 6961180.0 ], [ 137140.0, 6961160.0 ], [ 137140.0, 6961090.0 ], [ 136940.0, 6960900.0 ], [ 136730.0, 6960730.0 ], [ 136700.0, 6960720.0 ], [ 136590.0, 6960620.0 ], [ 136500.0, 6960590.0 ], [ 136440.0, 6960540.0 ], [ 136360.0, 6960530.0 ], [ 136290.0, 6960490.0 ], [ 135760.0, 6960490.0 ], [ 135750.0, 6960480.0 ], [ 134970.0, 6960480.0 ], [ 134960.0, 6960490.0 ], [ 134710.0, 6960490.0 ], [ 134680.0, 6960520.0 ], [ 134230.0, 6960520.0 ], [ 134220.0, 6960530.0 ], [ 134150.0, 6960530.0 ], [ 134140.0, 6960540.0 ], [ 133670.0, 6960540.0 ], [ 133630.0, 6960530.0 ], [ 133610.0, 6960510.0 ], [ 133590.0, 6960510.0 ], [ 133540.0, 6960480.0 ], [ 133440.0, 6960480.0 ], [ 133380.0, 6960430.0 ], [ 133200.0, 6960430.0 ], [ 133130.0, 6960360.0 ], [ 132970.0, 6960360.0 ], [ 132940.0, 6960330.0 ], [ 132880.0, 6960330.0 ], [ 132860.0, 6960310.0 ], [ 132820.0, 6960310.0 ], [ 132770.0, 6960260.0 ], [ 132730.0, 6960260.0 ], [ 132670.0, 6960230.0 ], [ 132530.0, 6960090.0 ], [ 132500.0, 6960080.0 ], [ 132430.0, 6960010.0 ], [ 132420.0, 6959930.0 ] ] } }
]
}
