{
"type": "FeatureCollection",
"name": "multi_path_smooth_kjovskarstinden_21",
"crs": { "type": "name", "properties": { "name": "urn:ogc:def:crs:EPSG::25833" } },
"features": [
{ "type": "Feature", "properties": { "cat": 1 }, "geometry": { "type": "LineString", "coordinates": [ [ 138550.0, 6962280.0 ], [ 138540.0, 6962240.0 ], [ 138570.0, 6962180.0 ], [ 138570.0, 6962140.0 ], [ 138540.0, 6962100.0 ], [ 138540.0, 6962070.0 ], [ 138500.0, 6962030.0 ], [ 138500.0, 6961980.0 ], [ 138380.0, 6961850.0 ], [ 138350.0, 6961800.0 ], [ 138350.0, 6961750.0 ], [ 138310.0, 6961710.0 ], [ 138310.0, 6961680.0 ], [ 138290.0, 6961650.0 ], [ 138290.0, 6961600.0 ], [ 138260.0, 6961570.0 ], [ 138250.0, 6961510.0 ], [ 138230.0, 6961490.0 ], [ 138230.0, 6961310.0 ], [ 138170.0, 6961240.0 ], [ 138170.0, 6961220.0 ], [ 138130.0, 6961160.0 ], [ 138130.0, 6961120.0 ], [ 138100.0, 6961080.0 ], [ 138100.0, 6961020.0 ], [ 138010.0, 6960930.0 ], [ 138010.0, 6960910.0 ], [ 137950.0, 6960840.0 ], [ 137830.0, 6960720.0 ], [ 137810.0, 6960720.0 ], [ 137790.0, 6960700.0 ], [ 137680.0, 6960700.0 ], [ 137650.0, 6960690.0 ], [ 137610.0, 6960650.0 ], [ 137580.0, 6960650.0 ], [ 137540.0, 6960610.0 ], [ 137520.0, 6960610.0 ], [ 137460.0, 6960550.0 ], [ 137140.0, 6960550.0 ], [ 137070.0, 6960500.0 ], [ 136840.0, 6960490.0 ], [ 136560.0, 6960210.0 ], [ 136540.0, 6960210.0 ], [ 136490.0, 6960180.0 ], [ 136450.0, 6960180.0 ], [ 136430.0, 6960160.0 ], [ 136350.0, 6960160.0 ], [ 136310.0, 6960200.0 ], [ 136010.0, 6960200.0 ], [ 136000.0, 6960210.0 ], [ 135920.0, 6960210.0 ], [ 135910.0, 6960220.0 ], [ 135610.0, 6960220.0 ], [ 135600.0, 6960230.0 ], [ 135510.0, 6960240.0 ], [ 135460.0, 6960280.0 ], [ 135170.0, 6960280.0 ], [ 135110.0, 6960210.0 ], [ 135040.0, 6960210.0 ], [ 135030.0, 6960200.0 ], [ 134460.0, 6960200.0 ], [ 134420.0, 6960160.0 ], [ 134210.0, 6960160.0 ], [ 134120.0, 6960080.0 ], [ 134100.0, 6960080.0 ], [ 133920.0, 6959910.0 ], [ 133880.0, 6959920.0 ], [ 133700.0, 6959920.0 ], [ 133630.0, 6959950.0 ], [ 133570.0, 6959950.0 ], [ 133500.0, 6959970.0 ], [ 133420.0, 6959970.0 ], [ 133380.0, 6959980.0 ], [ 133350.0, 6960010.0 ], [ 133290.0, 6960020.0 ], [ 133220.0, 6960070.0 ], [ 133160.0, 6960060.0 ], [ 133140.0, 6960020.0 ], [ 133090.0, 6959990.0 ], [ 133100.0, 6959900.0 ], [ 133000.0, 6959840.0 ], [ 132880.0, 6959830.0 ], [ 132760.0, 6959880.0 ], [ 132720.0, 6959880.0 ], [ 132630.0, 6959830.0 ], [ 132550.0, 6959810.0 ], [ 132420.0, 6959930.0 ] ] } }
]
}
