{
"type": "FeatureCollection",
"name": "multi_path_smooth_kjovskarstinden_26",
"crs": { "type": "name", "properties": { "name": "urn:ogc:def:crs:EPSG::25833" } },
"features": [
{ "type": "Feature", "properties": { "cat": 1 }, "geometry": { "type": "LineString", "coordinates": [ [ 138550.0, 6962280.0 ], [ 138540.0, 6962240.0 ], [ 138580.0, 6962160.0 ], [ 138580.0, 6962070.0 ], [ 138560.0, 6962050.0 ], [ 138560.0, 6962030.0 ], [ 138400.0, 6961860.0 ], [ 138400.0, 6961830.0 ], [ 138380.0, 6961810.0 ], [ 138370.0, 6961750.0 ], [ 138320.0, 6961700.0 ], [ 138320.0, 6961680.0 ], [ 138280.0, 6961630.0 ], [ 138280.0, 6961600.0 ], [ 138240.0, 6961500.0 ], [ 138240.0, 6961280.0 ], [ 138180.0, 6961210.0 ], [ 138170.0, 6961170.0 ], [ 138150.0, 6961150.0 ], [ 138150.0, 6961120.0 ], [ 138120.0, 6961090.0 ], [ 138120.0, 6961030.0 ], [ 137810.0, 6960720.0 ], [ 137760.0, 6960720.0 ], [ 137720.0, 6960760.0 ], [ 137690.0, 6960770.0 ], [ 137590.0, 6960770.0 ], [ 137580.0, 6960780.0 ], [ 136940.0, 6960780.0 ], [ 136780.0, 6960640.0 ], [ 136750.0, 6960630.0 ], [ 136660.0, 6960620.0 ], [ 136640.0, 6960600.0 ], [ 136540.0, 6960600.0 ], [ 136500.0, 6960560.0 ], [ 136040.0, 6960540.0 ], [ 135910.0, 6960440.0 ], [ 135840.0, 6960440.0 ], [ 135830.0, 6960430.0 ], [ 135400.0, 6960430.0 ], [ 135360.0, 6960400.0 ], [ 134860.0, 6960400.0 ], [ 134800.0, 6960340.0 ], [ 134710.0, 6960330.0 ], [ 134640.0, 6960270.0 ], [ 134610.0, 6960260.0 ], [ 134440.0, 6960260.0 ], [ 134430.0, 6960250.0 ], [ 133490.0, 6960260.0 ], [ 133480.0, 6960250.0 ], [ 133350.0, 6960250.0 ], [ 133340.0, 6960240.0 ], [ 133070.0, 6960240.0 ], [ 133050.0, 6960220.0 ], [ 133020.0, 6960220.0 ], [ 132960.0, 6960160.0 ], [ 132920.0, 6960150.0 ], [ 132880.0, 6960110.0 ], [ 132800.0, 6960100.0 ], [ 132740.0, 6960050.0 ], [ 132700.0, 6960040.0 ], [ 132630.0, 6959980.0 ], [ 132580.0, 6959970.0 ], [ 132540.0, 6959940.0 ], [ 132420.0, 6959930.0 ] ] } }
]
}
