{
"type": "FeatureCollection",
"name": "multi_path_smooth_kjovskarstinden_29",
"crs": { "type": "name", "properties": { "name": "urn:ogc:def:crs:EPSG::25833" } },
"features": [
{ "type": "Feature", "properties": { "cat": 1 }, "geometry": { "type": "LineString", "coordinates": [ [ 138550.0, 6962280.0 ], [ 138540.0, 6962240.0 ], [ 138570.0, 6962170.0 ], [ 138570.0, 6962140.0 ], [ 138510.0, 6962080.0 ], [ 138490.0, 6962000.0 ], [ 138350.0, 6961810.0 ], [ 138340.0, 6961750.0 ], [ 138310.0, 6961710.0 ], [ 138310.0, 6961680.0 ], [ 138290.0, 6961650.0 ], [ 138280.0, 6961560.0 ], [ 138260.0, 6961520.0 ], [ 138220.0, 6961480.0 ], [ 138220.0, 6961300.0 ], [ 138210.0, 6961270.0 ], [ 138090.0, 6961150.0 ], [ 138060.0, 6961090.0 ], [ 138060.0, 6961010.0 ], [ 137990.0, 6960940.0 ], [ 137990.0, 6960910.0 ], [ 137890.0, 6960800.0 ], [ 137790.0, 6960710.0 ], [ 137620.0, 6960720.0 ], [ 137570.0, 6960700.0 ], [ 137530.0, 6960700.0 ], [ 137510.0, 6960680.0 ], [ 137270.0, 6960680.0 ], [ 137210.0, 6960640.0 ], [ 137170.0, 6960640.0 ], [ 137150.0, 6960620.0 ], [ 137110.0, 6960620.0 ], [ 137020.0, 6960550.0 ], [ 136970.0, 6960550.0 ], [ 136900.0, 6960500.0 ], [ 136820.0, 6960490.0 ], [ 136580.0, 6960250.0 ], [ 136530.0, 6960210.0 ], [ 136480.0, 6960190.0 ], [ 136320.0, 6960170.0 ], [ 136270.0, 6960130.0 ], [ 136030.0, 6960130.0 ], [ 135940.0, 6960160.0 ], [ 135830.0, 6960160.0 ], [ 135770.0, 6960180.0 ], [ 135580.0, 6960180.0 ], [ 135570.0, 6960190.0 ], [ 135520.0, 6960190.0 ], [ 135500.0, 6960210.0 ], [ 135350.0, 6960210.0 ], [ 135310.0, 6960200.0 ], [ 135270.0, 6960160.0 ], [ 135130.0, 6960170.0 ], [ 135120.0, 6960180.0 ], [ 133740.0, 6960170.0 ], [ 133730.0, 6960180.0 ], [ 133470.0, 6960180.0 ], [ 133440.0, 6960200.0 ], [ 133170.0, 6960200.0 ], [ 133160.0, 6960190.0 ], [ 133040.0, 6960190.0 ], [ 133010.0, 6960170.0 ], [ 132930.0, 6960160.0 ], [ 132900.0, 6960140.0 ], [ 132800.0, 6960140.0 ], [ 132620.0, 6960000.0 ], [ 132600.0, 6960000.0 ], [ 132540.0, 6959960.0 ], [ 132490.0, 6959960.0 ], [ 132420.0, 6959930.0 ] ] } }
]
}
