{
"type": "FeatureCollection",
"name": "multi_path_smooth_kjovskarstinden_38",
"crs": { "type": "name", "properties": { "name": "urn:ogc:def:crs:EPSG::25833" } },
"features": [
{ "type": "Feature", "properties": { "cat": 1 }, "geometry": { "type": "LineString", "coordinates": [ [ 138550.0, 6962280.0 ], [ 138490.0, 6962300.0 ], [ 138400.0, 6962370.0 ], [ 138300.0, 6962370.0 ], [ 138290.0, 6962360.0 ], [ 138190.0, 6962370.0 ], [ 138130.0, 6962350.0 ], [ 138070.0, 6962350.0 ], [ 138010.0, 6962330.0 ], [ 137970.0, 6962290.0 ], [ 137860.0, 6962300.0 ], [ 137770.0, 6962360.0 ], [ 137710.0, 6962360.0 ], [ 137680.0, 6962340.0 ], [ 137610.0, 6962340.0 ], [ 137550.0, 6962280.0 ], [ 137550.0, 6962230.0 ], [ 137570.0, 6962210.0 ], [ 137550.0, 6962150.0 ], [ 137550.0, 6961940.0 ], [ 137570.0, 6961860.0 ], [ 137570.0, 6961750.0 ], [ 137590.0, 6961690.0 ], [ 137590.0, 6961620.0 ], [ 137610.0, 6961580.0 ], [ 137600.0, 6961110.0 ], [ 137430.0, 6960940.0 ], [ 137370.0, 6960930.0 ], [ 137270.0, 6960830.0 ], [ 137240.0, 6960830.0 ], [ 137220.0, 6960810.0 ], [ 137170.0, 6960810.0 ], [ 137100.0, 6960740.0 ], [ 137050.0, 6960730.0 ], [ 136950.0, 6960660.0 ], [ 136920.0, 6960660.0 ], [ 136830.0, 6960600.0 ], [ 136750.0, 6960600.0 ], [ 136670.0, 6960570.0 ], [ 136450.0, 6960360.0 ], [ 136020.0, 6960350.0 ], [ 136000.0, 6960330.0 ], [ 135770.0, 6960330.0 ], [ 135750.0, 6960310.0 ], [ 135050.0, 6960310.0 ], [ 134990.0, 6960290.0 ], [ 134970.0, 6960260.0 ], [ 134920.0, 6960230.0 ], [ 133150.0, 6960230.0 ], [ 133000.0, 6960090.0 ], [ 132980.0, 6960090.0 ], [ 132900.0, 6960030.0 ], [ 132690.0, 6960030.0 ], [ 132650.0, 6960000.0 ], [ 132600.0, 6960000.0 ], [ 132540.0, 6959960.0 ], [ 132470.0, 6959960.0 ], [ 132420.0, 6959930.0 ] ] } }
]
}
