{
"type": "FeatureCollection",
"name": "multi_path_smooth_kjovskarstinden_44",
"crs": { "type": "name", "properties": { "name": "urn:ogc:def:crs:EPSG::25833" } },
"features": [
{ "type": "Feature", "properties": { "cat": 1 }, "geometry": { "type": "LineString", "coordinates": [ [ 138550.0, 6962280.0 ], [ 138490.0, 6962300.0 ], [ 138450.0, 6962340.0 ], [ 138310.0, 6962350.0 ], [ 138240.0, 6962370.0 ], [ 138020.0, 6962340.0 ], [ 137970.0, 6962290.0 ], [ 137860.0, 6962300.0 ], [ 137770.0, 6962360.0 ], [ 137640.0, 6962360.0 ], [ 137610.0, 6962350.0 ], [ 137550.0, 6962290.0 ], [ 137550.0, 6962220.0 ], [ 137540.0, 6962210.0 ], [ 137540.0, 6961890.0 ], [ 137550.0, 6961880.0 ], [ 137550.0, 6961800.0 ], [ 137560.0, 6961790.0 ], [ 137560.0, 6961530.0 ], [ 137550.0, 6961520.0 ], [ 137550.0, 6961390.0 ], [ 137510.0, 6961320.0 ], [ 137510.0, 6961210.0 ], [ 137500.0, 6961190.0 ], [ 137190.0, 6960880.0 ], [ 136970.0, 6960690.0 ], [ 136930.0, 6960680.0 ], [ 136540.0, 6960300.0 ], [ 136250.0, 6960280.0 ], [ 136240.0, 6960270.0 ], [ 135160.0, 6960270.0 ], [ 135100.0, 6960210.0 ], [ 134980.0, 6960180.0 ], [ 133300.0, 6960180.0 ], [ 133280.0, 6960160.0 ], [ 133110.0, 6960150.0 ], [ 133060.0, 6960120.0 ], [ 133000.0, 6960120.0 ], [ 132980.0, 6960100.0 ], [ 132700.0, 6960100.0 ], [ 132680.0, 6960080.0 ], [ 132660.0, 6960080.0 ], [ 132620.0, 6960040.0 ], [ 132570.0, 6960020.0 ], [ 132520.0, 6960020.0 ], [ 132420.0, 6959930.0 ] ] } }
]
}
