{
"type": "FeatureCollection",
"name": "multi_path_smooth_kjovskarstinden_33",
"crs": { "type": "name", "properties": { "name": "urn:ogc:def:crs:EPSG::25833" } },
"features": [
{ "type": "Feature", "properties": { "cat": 1 }, "geometry": { "type": "LineString", "coordinates": [ [ 138550.0, 6962280.0 ], [ 138540.0, 6962270.0 ], [ 138550.0, 6962170.0 ], [ 138470.0, 6962080.0 ], [ 138460.0, 6961980.0 ], [ 138410.0, 6961930.0 ], [ 138410.0, 6961900.0 ], [ 138380.0, 6961870.0 ], [ 138380.0, 6961840.0 ], [ 138350.0, 6961810.0 ], [ 138340.0, 6961750.0 ], [ 138310.0, 6961710.0 ], [ 138310.0, 6961680.0 ], [ 138280.0, 6961630.0 ], [ 138250.0, 6961510.0 ], [ 138220.0, 6961480.0 ], [ 138220.0, 6961460.0 ], [ 138190.0, 6961420.0 ], [ 138190.0, 6961320.0 ], [ 138150.0, 6961270.0 ], [ 138150.0, 6961250.0 ], [ 138110.0, 6961190.0 ], [ 138100.0, 6961120.0 ], [ 138080.0, 6961100.0 ], [ 138080.0, 6961020.0 ], [ 137990.0, 6960930.0 ], [ 137990.0, 6960910.0 ], [ 137890.0, 6960800.0 ], [ 137790.0, 6960700.0 ], [ 137680.0, 6960700.0 ], [ 137640.0, 6960690.0 ], [ 137620.0, 6960670.0 ], [ 137580.0, 6960670.0 ], [ 137480.0, 6960590.0 ], [ 137290.0, 6960590.0 ], [ 137230.0, 6960530.0 ], [ 137140.0, 6960530.0 ], [ 137070.0, 6960500.0 ], [ 136930.0, 6960500.0 ], [ 136790.0, 6960360.0 ], [ 136760.0, 6960350.0 ], [ 136570.0, 6960170.0 ], [ 136350.0, 6960160.0 ], [ 136270.0, 6960230.0 ], [ 135850.0, 6960230.0 ], [ 135820.0, 6960250.0 ], [ 135610.0, 6960250.0 ], [ 135580.0, 6960270.0 ], [ 135500.0, 6960270.0 ], [ 135450.0, 6960300.0 ], [ 135280.0, 6960300.0 ], [ 135270.0, 6960310.0 ], [ 135040.0, 6960310.0 ], [ 135000.0, 6960290.0 ], [ 134960.0, 6960290.0 ], [ 134900.0, 6960220.0 ], [ 133140.0, 6960220.0 ], [ 133100.0, 6960180.0 ], [ 133020.0, 6960170.0 ], [ 133000.0, 6960150.0 ], [ 132980.0, 6960150.0 ], [ 132910.0, 6960080.0 ], [ 132860.0, 6960080.0 ], [ 132810.0, 6960060.0 ], [ 132750.0, 6960010.0 ], [ 132670.0, 6960010.0 ], [ 132580.0, 6959970.0 ], [ 132500.0, 6959970.0 ], [ 132480.0, 6959950.0 ], [ 132450.0, 6959950.0 ], [ 132420.0, 6959930.0 ] ] } }
]
}
