{
"type": "FeatureCollection",
"name": "multi_path_smooth_kjovskarstinden_05",
"crs": { "type": "name", "properties": { "name": "urn:ogc:def:crs:EPSG::25833" } },
"features": [
{ "type": "Feature", "properties": { "cat": 1 }, "geometry": { "type": "LineString", "coordinates": [ [ 138550.0, 6962280.0 ], [ 138540.0, 6962240.0 ], [ 138560.0, 6962180.0 ], [ 138590.0, 6962150.0 ], [ 138590.0, 6962070.0 ], [ 138560.0, 6962040.0 ], [ 138560.0, 6962020.0 ], [ 138390.0, 6961850.0 ], [ 138390.0, 6961830.0 ], [ 138350.0, 6961790.0 ], [ 138350.0, 6961760.0 ], [ 138310.0, 6961710.0 ], [ 138300.0, 6961600.0 ], [ 138270.0, 6961570.0 ], [ 138260.0, 6961530.0 ], [ 138220.0, 6961470.0 ], [ 138220.0, 6961270.0 ], [ 138180.0, 6961230.0 ], [ 138180.0, 6961190.0 ], [ 138110.0, 6961080.0 ], [ 138110.0, 6961020.0 ], [ 138020.0, 6960930.0 ], [ 138020.0, 6960910.0 ], [ 137990.0, 6960880.0 ], [ 137960.0, 6960880.0 ], [ 137810.0, 6960720.0 ], [ 137680.0, 6960730.0 ], [ 137630.0, 6960750.0 ], [ 136840.0, 6960740.0 ], [ 136740.0, 6960700.0 ], [ 136690.0, 6960700.0 ], [ 136640.0, 6960670.0 ], [ 136390.0, 6960650.0 ], [ 136380.0, 6960640.0 ], [ 136150.0, 6960640.0 ], [ 136110.0, 6960630.0 ], [ 136060.0, 6960590.0 ], [ 136040.0, 6960590.0 ], [ 135950.0, 6960500.0 ], [ 135830.0, 6960500.0 ], [ 135800.0, 6960470.0 ], [ 135200.0, 6960470.0 ], [ 135130.0, 6960450.0 ], [ 134640.0, 6960450.0 ], [ 134610.0, 6960480.0 ], [ 134390.0, 6960470.0 ], [ 134380.0, 6960480.0 ], [ 134290.0, 6960480.0 ], [ 134280.0, 6960490.0 ], [ 134150.0, 6960500.0 ], [ 134140.0, 6960510.0 ], [ 133670.0, 6960520.0 ], [ 133510.0, 6960560.0 ], [ 133270.0, 6960570.0 ], [ 133180.0, 6960600.0 ], [ 133100.0, 6960580.0 ], [ 133020.0, 6960600.0 ], [ 132970.0, 6960600.0 ], [ 132850.0, 6960570.0 ], [ 132830.0, 6960520.0 ], [ 132730.0, 6960500.0 ], [ 132620.0, 6960420.0 ], [ 132600.0, 6960420.0 ], [ 132570.0, 6960390.0 ], [ 132570.0, 6960370.0 ], [ 132620.0, 6960340.0 ], [ 132610.0, 6960260.0 ], [ 132450.0, 6960110.0 ], [ 132430.0, 6960050.0 ], [ 132420.0, 6959930.0 ] ] } }
]
}
