{
"type": "FeatureCollection",
"name": "multi_path_smooth_kjovskarstinden_48",
"crs": { "type": "name", "properties": { "name": "urn:ogc:def:crs:EPSG::25833" } },
"features": [
{ "type": "Feature", "properties": { "cat": 1 }, "geometry": { "type": "LineString", "coordinates": [ [ 138550.0, 6962280.0 ], [ 138540.0, 6962240.0 ], [ 138560.0, 6962180.0 ], [ 138600.0, 6962140.0 ], [ 138590.0, 6962060.0 ], [ 138610.0, 6962040.0 ], [ 138610.0, 6962000.0 ], [ 138740.0, 6961870.0 ], [ 138740.0, 6961850.0 ], [ 138770.0, 6961810.0 ], [ 138850.0, 6961730.0 ], [ 138870.0, 6961680.0 ], [ 138880.0, 6961580.0 ], [ 138940.0, 6961520.0 ], [ 138990.0, 6961440.0 ], [ 138990.0, 6961330.0 ], [ 138910.0, 6961250.0 ], [ 138880.0, 6961250.0 ], [ 138840.0, 6961210.0 ], [ 138600.0, 6961210.0 ], [ 138480.0, 6961090.0 ], [ 138480.0, 6961060.0 ], [ 138430.0, 6961010.0 ], [ 138430.0, 6960950.0 ], [ 138400.0, 6960910.0 ], [ 138400.0, 6960880.0 ], [ 138380.0, 6960860.0 ], [ 138380.0, 6960600.0 ], [ 138270.0, 6960500.0 ], [ 138170.0, 6960490.0 ], [ 138070.0, 6960420.0 ], [ 138020.0, 6960400.0 ], [ 137940.0, 6960400.0 ], [ 137860.0, 6960320.0 ], [ 137820.0, 6960320.0 ], [ 137750.0, 6960250.0 ], [ 137070.0, 6960240.0 ], [ 137060.0, 6960230.0 ], [ 136990.0, 6960230.0 ], [ 136920.0, 6960180.0 ], [ 136670.0, 6960170.0 ], [ 136590.0, 6960120.0 ], [ 136570.0, 6960120.0 ], [ 136420.0, 6959960.0 ], [ 136380.0, 6959940.0 ], [ 135670.0, 6959940.0 ], [ 135590.0, 6960020.0 ], [ 135570.0, 6960020.0 ], [ 135500.0, 6960080.0 ], [ 135120.0, 6960090.0 ], [ 135090.0, 6960120.0 ], [ 135020.0, 6960120.0 ], [ 135010.0, 6960130.0 ], [ 133480.0, 6960120.0 ], [ 133430.0, 6960150.0 ], [ 133140.0, 6960150.0 ], [ 133060.0, 6960070.0 ], [ 133040.0, 6960070.0 ], [ 133000.0, 6960040.0 ], [ 132960.0, 6960040.0 ], [ 132930.0, 6960010.0 ], [ 132900.0, 6960010.0 ], [ 132820.0, 6959940.0 ], [ 132770.0, 6959940.0 ], [ 132730.0, 6959900.0 ], [ 132490.0, 6959900.0 ], [ 132470.0, 6959920.0 ], [ 132430.0, 6959920.0 ], [ 132420.0, 6959930.0 ] ] } }
]
}
