{
"type": "FeatureCollection",
"name": "multi_path_smooth_kjovskarstinden_35",
"crs": { "type": "name", "properties": { "name": "urn:ogc:def:crs:EPSG::25833" } },
"features": [
{ "type": "Feature", "properties": { "cat": 1 }, "geometry": { "type": "LineString", "coordinates": [ [ 138550.0, 6962280.0 ], [ 138490.0, 6962300.0 ], [ 138400.0, 6962370.0 ], [ 138180.0, 6962370.0 ], [ 138130.0, 6962350.0 ], [ 138070.0, 6962350.0 ], [ 138060.0, 6962340.0 ], [ 138020.0, 6962340.0 ], [ 137970.0, 6962290.0 ], [ 137860.0, 6962300.0 ], [ 137770.0, 6962370.0 ], [ 137610.0, 6962370.0 ], [ 137570.0, 6962340.0 ], [ 137500.0, 6962330.0 ], [ 137440.0, 6962270.0 ], [ 137440.0, 6962190.0 ], [ 137470.0, 6962150.0 ], [ 137470.0, 6961650.0 ], [ 137480.0, 6961610.0 ], [ 137510.0, 6961570.0 ], [ 137510.0, 6961540.0 ], [ 137540.0, 6961510.0 ], [ 137540.0, 6961450.0 ], [ 137520.0, 6961430.0 ], [ 137520.0, 6961310.0 ], [ 137510.0, 6961300.0 ], [ 137500.0, 6961180.0 ], [ 137300.0, 6960980.0 ], [ 137240.0, 6960930.0 ], [ 137220.0, 6960930.0 ], [ 137120.0, 6960830.0 ], [ 137070.0, 6960830.0 ], [ 137010.0, 6960790.0 ], [ 136940.0, 6960790.0 ], [ 136900.0, 6960750.0 ], [ 136860.0, 6960750.0 ], [ 136800.0, 6960690.0 ], [ 136770.0, 6960690.0 ], [ 136750.0, 6960670.0 ], [ 136670.0, 6960670.0 ], [ 136630.0, 6960640.0 ], [ 136350.0, 6960630.0 ], [ 136310.0, 6960600.0 ], [ 135900.0, 6960590.0 ], [ 135890.0, 6960580.0 ], [ 135850.0, 6960580.0 ], [ 135790.0, 6960550.0 ], [ 135700.0, 6960550.0 ], [ 135650.0, 6960510.0 ], [ 135590.0, 6960510.0 ], [ 135550.0, 6960470.0 ], [ 134690.0, 6960470.0 ], [ 134620.0, 6960490.0 ], [ 134270.0, 6960500.0 ], [ 134240.0, 6960530.0 ], [ 134180.0, 6960530.0 ], [ 134170.0, 6960540.0 ], [ 133750.0, 6960530.0 ], [ 133740.0, 6960540.0 ], [ 133420.0, 6960540.0 ], [ 133350.0, 6960570.0 ], [ 133070.0, 6960570.0 ], [ 133000.0, 6960530.0 ], [ 132970.0, 6960530.0 ], [ 132950.0, 6960510.0 ], [ 132860.0, 6960510.0 ], [ 132810.0, 6960460.0 ], [ 132790.0, 6960460.0 ], [ 132790.0, 6960430.0 ], [ 132760.0, 6960380.0 ], [ 132730.0, 6960380.0 ], [ 132660.0, 6960340.0 ], [ 132580.0, 6960260.0 ], [ 132570.0, 6960230.0 ], [ 132540.0, 6960220.0 ], [ 132470.0, 6960150.0 ], [ 132470.0, 6960130.0 ], [ 132430.0, 6960070.0 ], [ 132400.0, 6959970.0 ], [ 132400.0, 6959950.0 ], [ 132420.0, 6959930.0 ] ] } }
]
}
