{
"type": "FeatureCollection",
"name": "multi_path_smooth_kjovskarstinden_28",
"crs": { "type": "name", "properties": { "name": "urn:ogc:def:crs:EPSG::25833" } },
"features": [
{ "type": "Feature", "properties": { "cat": 1 }, "geometry": { "type": "LineString", "coordinates": [ [ 138550.0, 6962280.0 ], [ 138490.0, 6962300.0 ], [ 138410.0, 6962360.0 ], [ 138260.0, 6962360.0 ], [ 138250.0, 6962370.0 ], [ 138180.0, 6962370.0 ], [ 138130.0, 6962350.0 ], [ 138030.0, 6962340.0 ], [ 137970.0, 6962290.0 ], [ 137860.0, 6962300.0 ], [ 137780.0, 6962360.0 ], [ 137640.0, 6962360.0 ], [ 137620.0, 6962340.0 ], [ 137500.0, 6962300.0 ], [ 137450.0, 6962250.0 ], [ 137450.0, 6962190.0 ], [ 137480.0, 6962160.0 ], [ 137530.0, 6962050.0 ], [ 137530.0, 6961960.0 ], [ 137540.0, 6961950.0 ], [ 137540.0, 6961450.0 ], [ 137500.0, 6961340.0 ], [ 137490.0, 6961220.0 ], [ 137220.0, 6960950.0 ], [ 137170.0, 6960940.0 ], [ 137130.0, 6960910.0 ], [ 137080.0, 6960910.0 ], [ 137010.0, 6960870.0 ], [ 136890.0, 6960870.0 ], [ 136860.0, 6960850.0 ], [ 136820.0, 6960850.0 ], [ 136810.0, 6960840.0 ], [ 136680.0, 6960840.0 ], [ 136620.0, 6960790.0 ], [ 136520.0, 6960770.0 ], [ 136500.0, 6960750.0 ], [ 136440.0, 6960730.0 ], [ 136380.0, 6960680.0 ], [ 136330.0, 6960660.0 ], [ 136170.0, 6960660.0 ], [ 136130.0, 6960640.0 ], [ 136060.0, 6960640.0 ], [ 135990.0, 6960610.0 ], [ 135920.0, 6960610.0 ], [ 135890.0, 6960580.0 ], [ 135850.0, 6960570.0 ], [ 135800.0, 6960530.0 ], [ 135580.0, 6960530.0 ], [ 135570.0, 6960520.0 ], [ 135450.0, 6960510.0 ], [ 135440.0, 6960500.0 ], [ 134610.0, 6960500.0 ], [ 134600.0, 6960510.0 ], [ 134220.0, 6960510.0 ], [ 134210.0, 6960520.0 ], [ 133670.0, 6960520.0 ], [ 133640.0, 6960540.0 ], [ 133600.0, 6960550.0 ], [ 133560.0, 6960540.0 ], [ 133510.0, 6960560.0 ], [ 133100.0, 6960560.0 ], [ 133050.0, 6960590.0 ], [ 132870.0, 6960590.0 ], [ 132810.0, 6960550.0 ], [ 132780.0, 6960550.0 ], [ 132750.0, 6960520.0 ], [ 132730.0, 6960520.0 ], [ 132590.0, 6960390.0 ], [ 132590.0, 6960370.0 ], [ 132630.0, 6960330.0 ], [ 132620.0, 6960250.0 ], [ 132520.0, 6960150.0 ], [ 132510.0, 6960060.0 ], [ 132470.0, 6960020.0 ], [ 132420.0, 6959930.0 ] ] } }
]
}
