{
"type": "FeatureCollection",
"name": "multi_path_smooth_kjovskarstinden_06",
"crs": { "type": "name", "properties": { "name": "urn:ogc:def:crs:EPSG::25833" } },
"features": [
{ "type": "Feature", "properties": { "cat": 1 }, "geometry": { "type": "LineString", "coordinates": [ [ 138550.0, 6962280.0 ], [ 138540.0, 6962240.0 ], [ 138560.0, 6962180.0 ], [ 138590.0, 6962140.0 ], [ 138590.0, 6962070.0 ], [ 138640.0, 6962020.0 ], [ 138640.0, 6961990.0 ], [ 138710.0, 6961910.0 ], [ 138710.0, 6961890.0 ], [ 138770.0, 6961830.0 ], [ 138810.0, 6961760.0 ], [ 138890.0, 6961670.0 ], [ 138910.0, 6961550.0 ], [ 138950.0, 6961510.0 ], [ 138950.0, 6961490.0 ], [ 138970.0, 6961470.0 ], [ 138970.0, 6961380.0 ], [ 138950.0, 6961360.0 ], [ 138950.0, 6961340.0 ], [ 138860.0, 6961250.0 ], [ 138810.0, 6961250.0 ], [ 138790.0, 6961230.0 ], [ 138650.0, 6961230.0 ], [ 138600.0, 6961210.0 ], [ 138570.0, 6961180.0 ], [ 138530.0, 6961180.0 ], [ 138470.0, 6961150.0 ], [ 138370.0, 6961150.0 ], [ 138340.0, 6961120.0 ], [ 138310.0, 6961110.0 ], [ 138200.0, 6961000.0 ], [ 138180.0, 6961000.0 ], [ 138060.0, 6960880.0 ], [ 137970.0, 6960880.0 ], [ 137820.0, 6960720.0 ], [ 137800.0, 6960720.0 ], [ 137780.0, 6960700.0 ], [ 137700.0, 6960690.0 ], [ 137670.0, 6960660.0 ], [ 137640.0, 6960660.0 ], [ 137470.0, 6960500.0 ], [ 137420.0, 6960490.0 ], [ 137380.0, 6960460.0 ], [ 137140.0, 6960450.0 ], [ 137110.0, 6960420.0 ], [ 137060.0, 6960420.0 ], [ 137010.0, 6960390.0 ], [ 136960.0, 6960390.0 ], [ 136930.0, 6960370.0 ], [ 136880.0, 6960370.0 ], [ 136850.0, 6960340.0 ], [ 136760.0, 6960310.0 ], [ 136670.0, 6960240.0 ], [ 136590.0, 6960240.0 ], [ 136540.0, 6960210.0 ], [ 136420.0, 6960200.0 ], [ 136360.0, 6960170.0 ], [ 136290.0, 6960160.0 ], [ 136270.0, 6960140.0 ], [ 135980.0, 6960140.0 ], [ 135950.0, 6960150.0 ], [ 135910.0, 6960190.0 ], [ 135810.0, 6960230.0 ], [ 135610.0, 6960240.0 ], [ 135600.0, 6960250.0 ], [ 135360.0, 6960270.0 ], [ 135290.0, 6960320.0 ], [ 134840.0, 6960320.0 ], [ 134810.0, 6960340.0 ], [ 134770.0, 6960340.0 ], [ 134660.0, 6960440.0 ], [ 134550.0, 6960450.0 ], [ 134530.0, 6960470.0 ], [ 134290.0, 6960480.0 ], [ 134280.0, 6960490.0 ], [ 134150.0, 6960500.0 ], [ 134140.0, 6960510.0 ], [ 133670.0, 6960520.0 ], [ 133510.0, 6960560.0 ], [ 133360.0, 6960560.0 ], [ 133350.0, 6960570.0 ], [ 133230.0, 6960580.0 ], [ 133180.0, 6960600.0 ], [ 133140.0, 6960600.0 ], [ 133100.0, 6960580.0 ], [ 133060.0, 6960580.0 ], [ 133020.0, 6960600.0 ], [ 132970.0, 6960600.0 ], [ 132960.0, 6960590.0 ], [ 132860.0, 6960580.0 ], [ 132840.0, 6960560.0 ], [ 132830.0, 6960520.0 ], [ 132730.0, 6960500.0 ], [ 132590.0, 6960400.0 ], [ 132590.0, 6960370.0 ], [ 132620.0, 6960330.0 ], [ 132620.0, 6960310.0 ], [ 132600.0, 6960290.0 ], [ 132600.0, 6960250.0 ], [ 132540.0, 6960190.0 ], [ 132500.0, 6960170.0 ], [ 132460.0, 6960120.0 ], [ 132440.0, 6959950.0 ], [ 132420.0, 6959930.0 ] ] } }
]
}
