{
"type": "FeatureCollection",
"name": "multi_path_smooth_kjovskarstinden_32",
"crs": { "type": "name", "properties": { "name": "urn:ogc:def:crs:EPSG::25833" } },
"features": [
{ "type": "Feature", "properties": { "cat": 1 }, "geometry": { "type": "LineString", "coordinates": [ [ 138550.0, 6962280.0 ], [ 138540.0, 6962240.0 ], [ 138560.0, 6962180.0 ], [ 138590.0, 6962140.0 ], [ 138590.0, 6962070.0 ], [ 138620.0, 6962040.0 ], [ 138660.0, 6961960.0 ], [ 138710.0, 6961910.0 ], [ 138710.0, 6961890.0 ], [ 138800.0, 6961800.0 ], [ 138830.0, 6961740.0 ], [ 138890.0, 6961680.0 ], [ 138890.0, 6961570.0 ], [ 138920.0, 6961530.0 ], [ 138910.0, 6961360.0 ], [ 138820.0, 6961270.0 ], [ 138680.0, 6961270.0 ], [ 138610.0, 6961220.0 ], [ 138520.0, 6961210.0 ], [ 138480.0, 6961170.0 ], [ 138420.0, 6961170.0 ], [ 138390.0, 6961150.0 ], [ 138360.0, 6961150.0 ], [ 138210.0, 6961000.0 ], [ 138170.0, 6961000.0 ], [ 138040.0, 6960880.0 ], [ 137980.0, 6960880.0 ], [ 137840.0, 6960720.0 ], [ 137800.0, 6960720.0 ], [ 137790.0, 6960710.0 ], [ 137300.0, 6960710.0 ], [ 137270.0, 6960740.0 ], [ 137170.0, 6960740.0 ], [ 137080.0, 6960650.0 ], [ 136990.0, 6960650.0 ], [ 136880.0, 6960560.0 ], [ 136820.0, 6960560.0 ], [ 136680.0, 6960460.0 ], [ 136620.0, 6960460.0 ], [ 136600.0, 6960440.0 ], [ 136550.0, 6960430.0 ], [ 136500.0, 6960400.0 ], [ 136420.0, 6960400.0 ], [ 136400.0, 6960380.0 ], [ 136340.0, 6960360.0 ], [ 134980.0, 6960360.0 ], [ 134940.0, 6960320.0 ], [ 134870.0, 6960320.0 ], [ 134850.0, 6960300.0 ], [ 134830.0, 6960300.0 ], [ 134780.0, 6960270.0 ], [ 134750.0, 6960240.0 ], [ 133320.0, 6960240.0 ], [ 133310.0, 6960250.0 ], [ 133130.0, 6960250.0 ], [ 133110.0, 6960230.0 ], [ 133070.0, 6960230.0 ], [ 133050.0, 6960210.0 ], [ 132800.0, 6960220.0 ], [ 132790.0, 6960210.0 ], [ 132750.0, 6960210.0 ], [ 132720.0, 6960190.0 ], [ 132550.0, 6960020.0 ], [ 132490.0, 6960000.0 ], [ 132420.0, 6959930.0 ] ] } }
]
}
