{
"type": "FeatureCollection",
"name": "multi_path_smooth_kjovskarstinden_31",
"crs": { "type": "name", "properties": { "name": "urn:ogc:def:crs:EPSG::25833" } },
"features": [
{ "type": "Feature", "properties": { "cat": 1 }, "geometry": { "type": "LineString", "coordinates": [ [ 138550.0, 6962280.0 ], [ 138540.0, 6962240.0 ], [ 138560.0, 6962200.0 ], [ 138560.0, 6962170.0 ], [ 138490.0, 6962070.0 ], [ 138490.0, 6961970.0 ], [ 138430.0, 6961900.0 ], [ 138410.0, 6961850.0 ], [ 138360.0, 6961800.0 ], [ 138360.0, 6961760.0 ], [ 138320.0, 6961710.0 ], [ 138310.0, 6961610.0 ], [ 138280.0, 6961580.0 ], [ 138260.0, 6961520.0 ], [ 138230.0, 6961490.0 ], [ 138230.0, 6961280.0 ], [ 138180.0, 6961230.0 ], [ 138170.0, 6961190.0 ], [ 138140.0, 6961150.0 ], [ 138130.0, 6961030.0 ], [ 138030.0, 6960930.0 ], [ 138030.0, 6960910.0 ], [ 138000.0, 6960880.0 ], [ 137980.0, 6960880.0 ], [ 137800.0, 6960690.0 ], [ 137680.0, 6960690.0 ], [ 137640.0, 6960650.0 ], [ 137610.0, 6960650.0 ], [ 137590.0, 6960630.0 ], [ 137550.0, 6960620.0 ], [ 137260.0, 6960610.0 ], [ 137240.0, 6960590.0 ], [ 137200.0, 6960590.0 ], [ 137010.0, 6960430.0 ], [ 136970.0, 6960430.0 ], [ 136890.0, 6960370.0 ], [ 136810.0, 6960360.0 ], [ 136580.0, 6960160.0 ], [ 136490.0, 6960130.0 ], [ 136360.0, 6960130.0 ], [ 136210.0, 6959990.0 ], [ 135720.0, 6959990.0 ], [ 135680.0, 6960030.0 ], [ 135610.0, 6960030.0 ], [ 135570.0, 6960050.0 ], [ 135480.0, 6960050.0 ], [ 135410.0, 6960080.0 ], [ 135320.0, 6960080.0 ], [ 135300.0, 6960100.0 ], [ 134810.0, 6960110.0 ], [ 134800.0, 6960100.0 ], [ 134440.0, 6960100.0 ], [ 134380.0, 6960080.0 ], [ 134080.0, 6960070.0 ], [ 134060.0, 6960050.0 ], [ 134030.0, 6960050.0 ], [ 133950.0, 6959970.0 ], [ 133870.0, 6959970.0 ], [ 133820.0, 6959940.0 ], [ 133750.0, 6959940.0 ], [ 133740.0, 6959930.0 ], [ 133670.0, 6959930.0 ], [ 133630.0, 6959950.0 ], [ 133410.0, 6959970.0 ], [ 133380.0, 6959980.0 ], [ 133350.0, 6960010.0 ], [ 133270.0, 6960030.0 ], [ 133210.0, 6960080.0 ], [ 133170.0, 6960060.0 ], [ 133090.0, 6959980.0 ], [ 133100.0, 6959950.0 ], [ 133100.0, 6959900.0 ], [ 133090.0, 6959890.0 ], [ 133070.0, 6959890.0 ], [ 132990.0, 6959840.0 ], [ 132950.0, 6959840.0 ], [ 132910.0, 6959810.0 ], [ 132850.0, 6959850.0 ], [ 132760.0, 6959880.0 ], [ 132720.0, 6959880.0 ], [ 132650.0, 6959840.0 ], [ 132600.0, 6959830.0 ], [ 132530.0, 6959900.0 ], [ 132420.0, 6959930.0 ] ] } }
]
}
