{
"type": "FeatureCollection",
"name": "multi_path_smooth_kjovskarstinden_03",
"crs": { "type": "name", "properties": { "name": "urn:ogc:def:crs:EPSG::25833" } },
"features": [
{ "type": "Feature", "properties": { "cat": 1 }, "geometry": { "type": "LineString", "coordinates": [ [ 138550.0, 6962280.0 ], [ 138540.0, 6962240.0 ], [ 138560.0, 6962180.0 ], [ 138590.0, 6962150.0 ], [ 138590.0, 6962040.0 ], [ 138350.0, 6961800.0 ], [ 138350.0, 6961750.0 ], [ 138310.0, 6961700.0 ], [ 138310.0, 6961670.0 ], [ 138280.0, 6961620.0 ], [ 138260.0, 6961530.0 ], [ 138230.0, 6961490.0 ], [ 138230.0, 6961300.0 ], [ 138160.0, 6961230.0 ], [ 138160.0, 6961150.0 ], [ 138090.0, 6961070.0 ], [ 138090.0, 6961020.0 ], [ 138000.0, 6960930.0 ], [ 138000.0, 6960910.0 ], [ 137780.0, 6960700.0 ], [ 137740.0, 6960700.0 ], [ 137690.0, 6960720.0 ], [ 137580.0, 6960720.0 ], [ 137570.0, 6960730.0 ], [ 137290.0, 6960730.0 ], [ 137280.0, 6960740.0 ], [ 137210.0, 6960740.0 ], [ 137190.0, 6960720.0 ], [ 137170.0, 6960720.0 ], [ 137130.0, 6960690.0 ], [ 137100.0, 6960690.0 ], [ 137080.0, 6960670.0 ], [ 136980.0, 6960660.0 ], [ 136930.0, 6960620.0 ], [ 136830.0, 6960620.0 ], [ 136820.0, 6960610.0 ], [ 136140.0, 6960610.0 ], [ 136080.0, 6960570.0 ], [ 136040.0, 6960570.0 ], [ 135960.0, 6960490.0 ], [ 135520.0, 6960490.0 ], [ 135510.0, 6960480.0 ], [ 135030.0, 6960490.0 ], [ 134960.0, 6960470.0 ], [ 134390.0, 6960470.0 ], [ 134380.0, 6960480.0 ], [ 134290.0, 6960480.0 ], [ 134280.0, 6960490.0 ], [ 134150.0, 6960500.0 ], [ 134140.0, 6960510.0 ], [ 133670.0, 6960520.0 ], [ 133510.0, 6960560.0 ], [ 133270.0, 6960570.0 ], [ 133180.0, 6960600.0 ], [ 133100.0, 6960580.0 ], [ 133020.0, 6960600.0 ], [ 132970.0, 6960600.0 ], [ 132850.0, 6960570.0 ], [ 132820.0, 6960520.0 ], [ 132700.0, 6960480.0 ], [ 132650.0, 6960450.0 ], [ 132590.0, 6960390.0 ], [ 132590.0, 6960370.0 ], [ 132620.0, 6960340.0 ], [ 132610.0, 6960270.0 ], [ 132440.0, 6960090.0 ], [ 132420.0, 6959930.0 ] ] } }
]
}
