{
"type": "FeatureCollection",
"name": "multi_path_smooth_kjovskarstinden_07",
"crs": { "type": "name", "properties": { "name": "urn:ogc:def:crs:EPSG::25833" } },
"features": [
{ "type": "Feature", "properties": { "cat": 1 }, "geometry": { "type": "LineString", "coordinates": [ [ 138550.0, 6962280.0 ], [ 138540.0, 6962240.0 ], [ 138580.0, 6962140.0 ], [ 138560.0, 6962120.0 ], [ 138550.0, 6962080.0 ], [ 138490.0, 6962020.0 ], [ 138490.0, 6961980.0 ], [ 138410.0, 6961900.0 ], [ 138390.0, 6961860.0 ], [ 138390.0, 6961830.0 ], [ 138360.0, 6961800.0 ], [ 138360.0, 6961750.0 ], [ 138320.0, 6961710.0 ], [ 138320.0, 6961680.0 ], [ 138290.0, 6961650.0 ], [ 138290.0, 6961600.0 ], [ 138270.0, 6961580.0 ], [ 138260.0, 6961530.0 ], [ 138210.0, 6961450.0 ], [ 138200.0, 6961270.0 ], [ 138120.0, 6961190.0 ], [ 138120.0, 6961170.0 ], [ 138090.0, 6961140.0 ], [ 138080.0, 6961010.0 ], [ 138000.0, 6960930.0 ], [ 138000.0, 6960910.0 ], [ 137950.0, 6960850.0 ], [ 137820.0, 6960720.0 ], [ 137710.0, 6960730.0 ], [ 137680.0, 6960760.0 ], [ 137120.0, 6960760.0 ], [ 137000.0, 6960650.0 ], [ 136940.0, 6960640.0 ], [ 136850.0, 6960550.0 ], [ 136820.0, 6960550.0 ], [ 136800.0, 6960530.0 ], [ 136720.0, 6960510.0 ], [ 136700.0, 6960490.0 ], [ 136640.0, 6960490.0 ], [ 136630.0, 6960480.0 ], [ 136040.0, 6960480.0 ], [ 135980.0, 6960450.0 ], [ 135840.0, 6960450.0 ], [ 135830.0, 6960440.0 ], [ 135350.0, 6960440.0 ], [ 135340.0, 6960450.0 ], [ 135210.0, 6960450.0 ], [ 135200.0, 6960440.0 ], [ 134640.0, 6960440.0 ], [ 134590.0, 6960470.0 ], [ 134390.0, 6960470.0 ], [ 134380.0, 6960480.0 ], [ 134290.0, 6960480.0 ], [ 134280.0, 6960490.0 ], [ 134150.0, 6960500.0 ], [ 134140.0, 6960510.0 ], [ 133670.0, 6960520.0 ], [ 133510.0, 6960560.0 ], [ 133270.0, 6960570.0 ], [ 133180.0, 6960600.0 ], [ 133100.0, 6960580.0 ], [ 133020.0, 6960600.0 ], [ 132970.0, 6960600.0 ], [ 132960.0, 6960590.0 ], [ 132850.0, 6960580.0 ], [ 132790.0, 6960520.0 ], [ 132630.0, 6960440.0 ], [ 132590.0, 6960400.0 ], [ 132590.0, 6960370.0 ], [ 132620.0, 6960340.0 ], [ 132610.0, 6960260.0 ], [ 132440.0, 6960090.0 ], [ 132420.0, 6959930.0 ] ] } }
]
}
