{
"type": "FeatureCollection",
"name": "multi_path_smooth_kjovskarstinden_40",
"crs": { "type": "name", "properties": { "name": "urn:ogc:def:crs:EPSG::25833" } },
"features": [
{ "type": "Feature", "properties": { "cat": 1 }, "geometry": { "type": "LineString", "coordinates": [ [ 138550.0, 6962280.0 ], [ 138540.0, 6962240.0 ], [ 138570.0, 6962170.0 ], [ 138570.0, 6962140.0 ], [ 138510.0, 6962080.0 ], [ 138490.0, 6962030.0 ], [ 138490.0, 6961980.0 ], [ 138410.0, 6961900.0 ], [ 138400.0, 6961830.0 ], [ 138380.0, 6961810.0 ], [ 138370.0, 6961750.0 ], [ 138320.0, 6961700.0 ], [ 138320.0, 6961670.0 ], [ 138300.0, 6961650.0 ], [ 138300.0, 6961600.0 ], [ 138210.0, 6961450.0 ], [ 138200.0, 6961420.0 ], [ 138200.0, 6961300.0 ], [ 138160.0, 6961260.0 ], [ 138150.0, 6961160.0 ], [ 138130.0, 6961120.0 ], [ 138130.0, 6961030.0 ], [ 138060.0, 6960950.0 ], [ 138040.0, 6960950.0 ], [ 137950.0, 6960860.0 ], [ 137900.0, 6960790.0 ], [ 137800.0, 6960690.0 ], [ 137690.0, 6960690.0 ], [ 137660.0, 6960660.0 ], [ 137600.0, 6960660.0 ], [ 137460.0, 6960550.0 ], [ 137210.0, 6960550.0 ], [ 137200.0, 6960540.0 ], [ 137160.0, 6960540.0 ], [ 137130.0, 6960510.0 ], [ 137040.0, 6960510.0 ], [ 136980.0, 6960450.0 ], [ 136930.0, 6960440.0 ], [ 136870.0, 6960410.0 ], [ 136830.0, 6960370.0 ], [ 136810.0, 6960370.0 ], [ 136650.0, 6960220.0 ], [ 136590.0, 6960220.0 ], [ 136550.0, 6960180.0 ], [ 136530.0, 6960180.0 ], [ 136510.0, 6960160.0 ], [ 136350.0, 6960140.0 ], [ 136240.0, 6960040.0 ], [ 136180.0, 6960040.0 ], [ 136120.0, 6960020.0 ], [ 136000.0, 6960020.0 ], [ 135990.0, 6960030.0 ], [ 135900.0, 6960030.0 ], [ 135820.0, 6960080.0 ], [ 135660.0, 6960080.0 ], [ 135590.0, 6960110.0 ], [ 135540.0, 6960110.0 ], [ 135480.0, 6960130.0 ], [ 135230.0, 6960130.0 ], [ 135220.0, 6960140.0 ], [ 135110.0, 6960140.0 ], [ 135100.0, 6960150.0 ], [ 134910.0, 6960150.0 ], [ 134900.0, 6960140.0 ], [ 134010.0, 6960140.0 ], [ 134000.0, 6960150.0 ], [ 133630.0, 6960150.0 ], [ 133620.0, 6960160.0 ], [ 133550.0, 6960160.0 ], [ 133420.0, 6960190.0 ], [ 133220.0, 6960190.0 ], [ 133210.0, 6960180.0 ], [ 133080.0, 6960180.0 ], [ 133040.0, 6960160.0 ], [ 132970.0, 6960160.0 ], [ 132920.0, 6960120.0 ], [ 132880.0, 6960110.0 ], [ 132740.0, 6960110.0 ], [ 132700.0, 6960070.0 ], [ 132680.0, 6960070.0 ], [ 132620.0, 6960020.0 ], [ 132570.0, 6960010.0 ], [ 132470.0, 6959930.0 ], [ 132420.0, 6959930.0 ] ] } }
]
}
