{
"type": "FeatureCollection",
"name": "multi_path_smooth_kjovskarstinden_25",
"crs": { "type": "name", "properties": { "name": "urn:ogc:def:crs:EPSG::25833" } },
"features": [
{ "type": "Feature", "properties": { "cat": 1 }, "geometry": { "type": "LineString", "coordinates": [ [ 138550.0, 6962280.0 ], [ 138540.0, 6962240.0 ], [ 138560.0, 6962200.0 ], [ 138560.0, 6962150.0 ], [ 138480.0, 6962070.0 ], [ 138480.0, 6962030.0 ], [ 138460.0, 6962010.0 ], [ 138460.0, 6961980.0 ], [ 138380.0, 6961870.0 ], [ 138370.0, 6961760.0 ], [ 138320.0, 6961710.0 ], [ 138310.0, 6961610.0 ], [ 138280.0, 6961580.0 ], [ 138260.0, 6961520.0 ], [ 138220.0, 6961480.0 ], [ 138200.0, 6961430.0 ], [ 138200.0, 6961310.0 ], [ 138160.0, 6961270.0 ], [ 138150.0, 6961210.0 ], [ 138110.0, 6961150.0 ], [ 138110.0, 6961100.0 ], [ 138090.0, 6961080.0 ], [ 138090.0, 6961020.0 ], [ 138000.0, 6960930.0 ], [ 138000.0, 6960910.0 ], [ 137950.0, 6960850.0 ], [ 137790.0, 6960690.0 ], [ 137730.0, 6960690.0 ], [ 137600.0, 6960560.0 ], [ 137540.0, 6960560.0 ], [ 137490.0, 6960510.0 ], [ 137470.0, 6960510.0 ], [ 137450.0, 6960490.0 ], [ 137190.0, 6960480.0 ], [ 137170.0, 6960460.0 ], [ 137140.0, 6960460.0 ], [ 137110.0, 6960430.0 ], [ 137090.0, 6960430.0 ], [ 137020.0, 6960390.0 ], [ 136970.0, 6960390.0 ], [ 136890.0, 6960330.0 ], [ 136840.0, 6960330.0 ], [ 136740.0, 6960280.0 ], [ 136640.0, 6960270.0 ], [ 136540.0, 6960170.0 ], [ 136520.0, 6960170.0 ], [ 136490.0, 6960140.0 ], [ 136370.0, 6960140.0 ], [ 136320.0, 6960170.0 ], [ 136130.0, 6960160.0 ], [ 136120.0, 6960170.0 ], [ 136030.0, 6960170.0 ], [ 135970.0, 6960190.0 ], [ 135880.0, 6960190.0 ], [ 135870.0, 6960200.0 ], [ 135470.0, 6960200.0 ], [ 135420.0, 6960220.0 ], [ 135340.0, 6960220.0 ], [ 135310.0, 6960250.0 ], [ 135200.0, 6960250.0 ], [ 135160.0, 6960240.0 ], [ 135150.0, 6960220.0 ], [ 135050.0, 6960220.0 ], [ 135040.0, 6960210.0 ], [ 133000.0, 6960210.0 ], [ 132930.0, 6960160.0 ], [ 132900.0, 6960160.0 ], [ 132860.0, 6960130.0 ], [ 132810.0, 6960130.0 ], [ 132770.0, 6960090.0 ], [ 132680.0, 6960070.0 ], [ 132620.0, 6960020.0 ], [ 132500.0, 6960000.0 ], [ 132420.0, 6959930.0 ] ] } }
]
}
