{
"type": "FeatureCollection",
"name": "multi_path_smooth_kjovskarstinden_36",
"crs": { "type": "name", "properties": { "name": "urn:ogc:def:crs:EPSG::25833" } },
"features": [
{ "type": "Feature", "properties": { "cat": 1 }, "geometry": { "type": "LineString", "coordinates": [ [ 138550.0, 6962280.0 ], [ 138540.0, 6962240.0 ], [ 138560.0, 6962180.0 ], [ 138580.0, 6962160.0 ], [ 138570.0, 6962020.0 ], [ 138440.0, 6961890.0 ], [ 138430.0, 6961860.0 ], [ 138380.0, 6961810.0 ], [ 138380.0, 6961790.0 ], [ 138360.0, 6961770.0 ], [ 138360.0, 6961740.0 ], [ 138320.0, 6961700.0 ], [ 138320.0, 6961670.0 ], [ 138300.0, 6961650.0 ], [ 138300.0, 6961600.0 ], [ 138280.0, 6961580.0 ], [ 138260.0, 6961510.0 ], [ 138240.0, 6961490.0 ], [ 138240.0, 6961280.0 ], [ 138170.0, 6961210.0 ], [ 138120.0, 6961130.0 ], [ 138100.0, 6960990.0 ], [ 138060.0, 6960950.0 ], [ 138040.0, 6960950.0 ], [ 138000.0, 6960890.0 ], [ 137970.0, 6960890.0 ], [ 137940.0, 6960870.0 ], [ 137850.0, 6960770.0 ], [ 137780.0, 6960770.0 ], [ 137760.0, 6960790.0 ], [ 137680.0, 6960810.0 ], [ 137140.0, 6960800.0 ], [ 137100.0, 6960760.0 ], [ 137060.0, 6960760.0 ], [ 136920.0, 6960620.0 ], [ 136880.0, 6960600.0 ], [ 136770.0, 6960590.0 ], [ 136590.0, 6960450.0 ], [ 136490.0, 6960450.0 ], [ 136440.0, 6960430.0 ], [ 136390.0, 6960390.0 ], [ 136050.0, 6960390.0 ], [ 136040.0, 6960380.0 ], [ 134880.0, 6960390.0 ], [ 134850.0, 6960360.0 ], [ 134800.0, 6960340.0 ], [ 134710.0, 6960330.0 ], [ 134640.0, 6960270.0 ], [ 134610.0, 6960260.0 ], [ 133860.0, 6960260.0 ], [ 133850.0, 6960250.0 ], [ 132910.0, 6960260.0 ], [ 132880.0, 6960230.0 ], [ 132800.0, 6960230.0 ], [ 132770.0, 6960210.0 ], [ 132730.0, 6960210.0 ], [ 132660.0, 6960160.0 ], [ 132630.0, 6960160.0 ], [ 132600.0, 6960140.0 ], [ 132530.0, 6960060.0 ], [ 132510.0, 6960060.0 ], [ 132470.0, 6960020.0 ], [ 132470.0, 6959990.0 ], [ 132420.0, 6959930.0 ] ] } }
]
}
