{
"type": "FeatureCollection",
"name": "multi_path_smooth_kjovskarstinden_49",
"crs": { "type": "name", "properties": { "name": "urn:ogc:def:crs:EPSG::25833" } },
"features": [
{ "type": "Feature", "properties": { "cat": 1 }, "geometry": { "type": "LineString", "coordinates": [ [ 138550.0, 6962280.0 ], [ 138450.0, 6962320.0 ], [ 138420.0, 6962350.0 ], [ 138140.0, 6962360.0 ], [ 138130.0, 6962350.0 ], [ 138070.0, 6962350.0 ], [ 138050.0, 6962330.0 ], [ 137950.0, 6962330.0 ], [ 137890.0, 6962350.0 ], [ 137850.0, 6962390.0 ], [ 137620.0, 6962380.0 ], [ 137590.0, 6962350.0 ], [ 137510.0, 6962330.0 ], [ 137440.0, 6962260.0 ], [ 137440.0, 6962180.0 ], [ 137470.0, 6962150.0 ], [ 137470.0, 6962110.0 ], [ 137480.0, 6962100.0 ], [ 137480.0, 6961680.0 ], [ 137490.0, 6961670.0 ], [ 137490.0, 6961600.0 ], [ 137510.0, 6961580.0 ], [ 137510.0, 6961540.0 ], [ 137530.0, 6961520.0 ], [ 137530.0, 6961440.0 ], [ 137500.0, 6961340.0 ], [ 137500.0, 6961220.0 ], [ 136950.0, 6960700.0 ], [ 136910.0, 6960680.0 ], [ 136620.0, 6960390.0 ], [ 136530.0, 6960330.0 ], [ 136440.0, 6960320.0 ], [ 136410.0, 6960300.0 ], [ 136330.0, 6960300.0 ], [ 136320.0, 6960290.0 ], [ 135170.0, 6960280.0 ], [ 135130.0, 6960230.0 ], [ 135100.0, 6960220.0 ], [ 134090.0, 6960210.0 ], [ 134080.0, 6960200.0 ], [ 133160.0, 6960200.0 ], [ 133150.0, 6960190.0 ], [ 133030.0, 6960190.0 ], [ 132960.0, 6960160.0 ], [ 132780.0, 6960150.0 ], [ 132760.0, 6960130.0 ], [ 132700.0, 6960130.0 ], [ 132650.0, 6960080.0 ], [ 132580.0, 6960080.0 ], [ 132510.0, 6960030.0 ], [ 132420.0, 6959930.0 ] ] } }
]
}
