{
"type": "FeatureCollection",
"name": "multi_path_smooth_kjovskarstinden_02",
"crs": { "type": "name", "properties": { "name": "urn:ogc:def:crs:EPSG::25833" } },
"features": [
{ "type": "Feature", "properties": { "cat": 1 }, "geometry": { "type": "LineString", "coordinates": [ [ 138550.0, 6962280.0 ], [ 138540.0, 6962240.0 ], [ 138560.0, 6962180.0 ], [ 138590.0, 6962140.0 ], [ 138590.0, 6962070.0 ], [ 138560.0, 6962040.0 ], [ 138560.0, 6962020.0 ], [ 138350.0, 6961800.0 ], [ 138350.0, 6961760.0 ], [ 138310.0, 6961710.0 ], [ 138310.0, 6961670.0 ], [ 138290.0, 6961650.0 ], [ 138290.0, 6961600.0 ], [ 138270.0, 6961580.0 ], [ 138270.0, 6961550.0 ], [ 138220.0, 6961470.0 ], [ 138220.0, 6961310.0 ], [ 138150.0, 6961230.0 ], [ 138130.0, 6961180.0 ], [ 138100.0, 6961150.0 ], [ 138100.0, 6961020.0 ], [ 138020.0, 6960930.0 ], [ 138020.0, 6960910.0 ], [ 137990.0, 6960880.0 ], [ 137960.0, 6960880.0 ], [ 137890.0, 6960810.0 ], [ 137890.0, 6960790.0 ], [ 137810.0, 6960720.0 ], [ 137580.0, 6960730.0 ], [ 137570.0, 6960740.0 ], [ 137260.0, 6960740.0 ], [ 137250.0, 6960730.0 ], [ 137070.0, 6960720.0 ], [ 137060.0, 6960710.0 ], [ 136910.0, 6960690.0 ], [ 136870.0, 6960670.0 ], [ 136770.0, 6960670.0 ], [ 136720.0, 6960650.0 ], [ 136490.0, 6960650.0 ], [ 136480.0, 6960640.0 ], [ 136100.0, 6960620.0 ], [ 136070.0, 6960590.0 ], [ 136020.0, 6960580.0 ], [ 135950.0, 6960510.0 ], [ 135520.0, 6960510.0 ], [ 135500.0, 6960490.0 ], [ 135200.0, 6960490.0 ], [ 135180.0, 6960470.0 ], [ 135070.0, 6960470.0 ], [ 135060.0, 6960460.0 ], [ 134530.0, 6960460.0 ], [ 134520.0, 6960470.0 ], [ 134290.0, 6960480.0 ], [ 134280.0, 6960490.0 ], [ 134150.0, 6960500.0 ], [ 134140.0, 6960510.0 ], [ 133670.0, 6960520.0 ], [ 133510.0, 6960560.0 ], [ 133360.0, 6960560.0 ], [ 133350.0, 6960570.0 ], [ 133230.0, 6960580.0 ], [ 133180.0, 6960600.0 ], [ 133140.0, 6960600.0 ], [ 133100.0, 6960580.0 ], [ 133020.0, 6960600.0 ], [ 132970.0, 6960600.0 ], [ 132960.0, 6960590.0 ], [ 132860.0, 6960580.0 ], [ 132820.0, 6960520.0 ], [ 132700.0, 6960480.0 ], [ 132620.0, 6960420.0 ], [ 132600.0, 6960420.0 ], [ 132570.0, 6960390.0 ], [ 132570.0, 6960370.0 ], [ 132600.0, 6960360.0 ], [ 132620.0, 6960330.0 ], [ 132610.0, 6960270.0 ], [ 132440.0, 6960090.0 ], [ 132420.0, 6959930.0 ] ] } }
]
}
