{
"type": "FeatureCollection",
"name": "multi_path_smooth_kjovskarstinden_46",
"crs": { "type": "name", "properties": { "name": "urn:ogc:def:crs:EPSG::25833" } },
"features": [
{ "type": "Feature", "properties": { "cat": 1 }, "geometry": { "type": "LineString", "coordinates": [ [ 138550.0, 6962280.0 ], [ 138530.0, 6962280.0 ], [ 138510.0, 6962300.0 ], [ 138360.0, 6962360.0 ], [ 138190.0, 6962370.0 ], [ 138130.0, 6962350.0 ], [ 138070.0, 6962350.0 ], [ 138020.0, 6962330.0 ], [ 137980.0, 6962290.0 ], [ 137980.0, 6962260.0 ], [ 138020.0, 6962210.0 ], [ 138020.0, 6962160.0 ], [ 137630.0, 6961780.0 ], [ 137630.0, 6961410.0 ], [ 137600.0, 6961380.0 ], [ 137590.0, 6961240.0 ], [ 137180.0, 6960830.0 ], [ 137010.0, 6960800.0 ], [ 136910.0, 6960710.0 ], [ 136860.0, 6960700.0 ], [ 136780.0, 6960620.0 ], [ 136740.0, 6960620.0 ], [ 136630.0, 6960570.0 ], [ 136550.0, 6960570.0 ], [ 136520.0, 6960540.0 ], [ 136450.0, 6960530.0 ], [ 136420.0, 6960500.0 ], [ 136390.0, 6960500.0 ], [ 136340.0, 6960450.0 ], [ 136310.0, 6960450.0 ], [ 136220.0, 6960360.0 ], [ 135700.0, 6960360.0 ], [ 135680.0, 6960340.0 ], [ 134920.0, 6960340.0 ], [ 134900.0, 6960320.0 ], [ 134870.0, 6960320.0 ], [ 134810.0, 6960280.0 ], [ 134730.0, 6960280.0 ], [ 134690.0, 6960260.0 ], [ 134330.0, 6960260.0 ], [ 134320.0, 6960270.0 ], [ 134250.0, 6960270.0 ], [ 134240.0, 6960280.0 ], [ 133880.0, 6960280.0 ], [ 133870.0, 6960290.0 ], [ 133570.0, 6960290.0 ], [ 133560.0, 6960300.0 ], [ 132950.0, 6960300.0 ], [ 132870.0, 6960220.0 ], [ 132810.0, 6960220.0 ], [ 132780.0, 6960200.0 ], [ 132710.0, 6960200.0 ], [ 132640.0, 6960160.0 ], [ 132590.0, 6960110.0 ], [ 132550.0, 6960090.0 ], [ 132520.0, 6960090.0 ], [ 132430.0, 6959990.0 ], [ 132420.0, 6959930.0 ] ] } }
]
}
