{
"type": "FeatureCollection",
"name": "multi_path_smooth_kjovskarstinden_22",
"crs": { "type": "name", "properties": { "name": "urn:ogc:def:crs:EPSG::25833" } },
"features": [
{ "type": "Feature", "properties": { "cat": 1 }, "geometry": { "type": "LineString", "coordinates": [ [ 138550.0, 6962280.0 ], [ 138470.0, 6962310.0 ], [ 138410.0, 6962360.0 ], [ 138260.0, 6962360.0 ], [ 138250.0, 6962370.0 ], [ 138180.0, 6962370.0 ], [ 138130.0, 6962350.0 ], [ 138030.0, 6962340.0 ], [ 137970.0, 6962290.0 ], [ 137860.0, 6962300.0 ], [ 137750.0, 6962370.0 ], [ 137610.0, 6962370.0 ], [ 137560.0, 6962320.0 ], [ 137510.0, 6962320.0 ], [ 137440.0, 6962250.0 ], [ 137440.0, 6962190.0 ], [ 137480.0, 6962140.0 ], [ 137480.0, 6961690.0 ], [ 137510.0, 6961650.0 ], [ 137510.0, 6961560.0 ], [ 137540.0, 6961530.0 ], [ 137540.0, 6961390.0 ], [ 137500.0, 6961320.0 ], [ 137490.0, 6961200.0 ], [ 136940.0, 6960670.0 ], [ 136850.0, 6960590.0 ], [ 136820.0, 6960590.0 ], [ 136780.0, 6960560.0 ], [ 136700.0, 6960480.0 ], [ 136610.0, 6960470.0 ], [ 136550.0, 6960430.0 ], [ 136440.0, 6960430.0 ], [ 136430.0, 6960420.0 ], [ 136080.0, 6960420.0 ], [ 136070.0, 6960410.0 ], [ 135900.0, 6960410.0 ], [ 135890.0, 6960400.0 ], [ 135760.0, 6960400.0 ], [ 135750.0, 6960390.0 ], [ 135500.0, 6960390.0 ], [ 135490.0, 6960380.0 ], [ 134980.0, 6960380.0 ], [ 134940.0, 6960340.0 ], [ 134830.0, 6960300.0 ], [ 134750.0, 6960230.0 ], [ 133140.0, 6960230.0 ], [ 133130.0, 6960220.0 ], [ 133030.0, 6960220.0 ], [ 132980.0, 6960180.0 ], [ 132930.0, 6960180.0 ], [ 132870.0, 6960150.0 ], [ 132830.0, 6960110.0 ], [ 132800.0, 6960110.0 ], [ 132780.0, 6960090.0 ], [ 132760.0, 6960090.0 ], [ 132660.0, 6960000.0 ], [ 132620.0, 6959990.0 ], [ 132540.0, 6959940.0 ], [ 132420.0, 6959930.0 ] ] } }
]
}
