{
"type": "FeatureCollection",
"name": "multi_path_smooth_kjovskarstinden_14",
"crs": { "type": "name", "properties": { "name": "urn:ogc:def:crs:EPSG::25833" } },
"features": [
{ "type": "Feature", "properties": { "cat": 1 }, "geometry": { "type": "LineString", "coordinates": [ [ 138550.0, 6962280.0 ], [ 138470.0, 6962310.0 ], [ 138400.0, 6962370.0 ], [ 138180.0, 6962370.0 ], [ 138130.0, 6962350.0 ], [ 138070.0, 6962350.0 ], [ 138010.0, 6962330.0 ], [ 137970.0, 6962290.0 ], [ 137860.0, 6962300.0 ], [ 137780.0, 6962360.0 ], [ 137610.0, 6962370.0 ], [ 137550.0, 6962320.0 ], [ 137510.0, 6962310.0 ], [ 137440.0, 6962240.0 ], [ 137440.0, 6962190.0 ], [ 137480.0, 6962150.0 ], [ 137490.0, 6962110.0 ], [ 137490.0, 6961750.0 ], [ 137500.0, 6961740.0 ], [ 137500.0, 6961690.0 ], [ 137550.0, 6961640.0 ], [ 137550.0, 6961450.0 ], [ 137520.0, 6961420.0 ], [ 137520.0, 6961340.0 ], [ 137500.0, 6961290.0 ], [ 137500.0, 6961220.0 ], [ 137260.0, 6960980.0 ], [ 137240.0, 6960980.0 ], [ 137150.0, 6960920.0 ], [ 137060.0, 6960910.0 ], [ 137040.0, 6960890.0 ], [ 137020.0, 6960890.0 ], [ 136950.0, 6960820.0 ], [ 136870.0, 6960820.0 ], [ 136820.0, 6960780.0 ], [ 136790.0, 6960780.0 ], [ 136770.0, 6960760.0 ], [ 136700.0, 6960760.0 ], [ 136680.0, 6960740.0 ], [ 136460.0, 6960740.0 ], [ 136410.0, 6960720.0 ], [ 136360.0, 6960680.0 ], [ 136340.0, 6960680.0 ], [ 136310.0, 6960650.0 ], [ 136260.0, 6960650.0 ], [ 136230.0, 6960630.0 ], [ 136080.0, 6960620.0 ], [ 136040.0, 6960590.0 ], [ 135980.0, 6960570.0 ], [ 135930.0, 6960520.0 ], [ 135780.0, 6960520.0 ], [ 135760.0, 6960500.0 ], [ 135200.0, 6960490.0 ], [ 135190.0, 6960500.0 ], [ 135090.0, 6960500.0 ], [ 135080.0, 6960510.0 ], [ 134570.0, 6960510.0 ], [ 134560.0, 6960500.0 ], [ 134450.0, 6960500.0 ], [ 134440.0, 6960490.0 ], [ 134310.0, 6960490.0 ], [ 134300.0, 6960500.0 ], [ 134150.0, 6960500.0 ], [ 134140.0, 6960510.0 ], [ 134050.0, 6960510.0 ], [ 134040.0, 6960520.0 ], [ 133670.0, 6960520.0 ], [ 133510.0, 6960560.0 ], [ 133300.0, 6960560.0 ], [ 133250.0, 6960590.0 ], [ 133170.0, 6960590.0 ], [ 133160.0, 6960600.0 ], [ 133140.0, 6960590.0 ], [ 133100.0, 6960600.0 ], [ 132930.0, 6960600.0 ], [ 132890.0, 6960580.0 ], [ 132830.0, 6960520.0 ], [ 132740.0, 6960500.0 ], [ 132630.0, 6960440.0 ], [ 132590.0, 6960400.0 ], [ 132590.0, 6960370.0 ], [ 132620.0, 6960340.0 ], [ 132610.0, 6960260.0 ], [ 132470.0, 6960110.0 ], [ 132450.0, 6960060.0 ], [ 132440.0, 6959970.0 ], [ 132420.0, 6959950.0 ], [ 132420.0, 6959930.0 ] ] } }
]
}
