{
"type": "FeatureCollection",
"name": "multi_path_smooth_kjovskarstinden_39",
"crs": { "type": "name", "properties": { "name": "urn:ogc:def:crs:EPSG::25833" } },
"features": [
{ "type": "Feature", "properties": { "cat": 1 }, "geometry": { "type": "LineString", "coordinates": [ [ 138550.0, 6962280.0 ], [ 138540.0, 6962240.0 ], [ 138590.0, 6962140.0 ], [ 138590.0, 6962060.0 ], [ 138620.0, 6962030.0 ], [ 138630.0, 6961980.0 ], [ 138810.0, 6961780.0 ], [ 138810.0, 6961760.0 ], [ 138890.0, 6961680.0 ], [ 138890.0, 6961660.0 ], [ 138910.0, 6961640.0 ], [ 138950.0, 6961530.0 ], [ 138960.0, 6961380.0 ], [ 138920.0, 6961340.0 ], [ 138920.0, 6961320.0 ], [ 138830.0, 6961230.0 ], [ 138800.0, 6961220.0 ], [ 138640.0, 6961220.0 ], [ 138480.0, 6961070.0 ], [ 138480.0, 6961050.0 ], [ 138450.0, 6961000.0 ], [ 138450.0, 6960950.0 ], [ 138420.0, 6960910.0 ], [ 138430.0, 6960820.0 ], [ 138390.0, 6960780.0 ], [ 138400.0, 6960660.0 ], [ 138410.0, 6960650.0 ], [ 138410.0, 6960560.0 ], [ 138190.0, 6960340.0 ], [ 138170.0, 6960340.0 ], [ 138140.0, 6960310.0 ], [ 138030.0, 6960310.0 ], [ 137990.0, 6960290.0 ], [ 137930.0, 6960230.0 ], [ 137100.0, 6960230.0 ], [ 137060.0, 6960210.0 ], [ 137030.0, 6960210.0 ], [ 136930.0, 6960150.0 ], [ 136860.0, 6960150.0 ], [ 136820.0, 6960130.0 ], [ 136610.0, 6960130.0 ], [ 136590.0, 6960110.0 ], [ 136560.0, 6960110.0 ], [ 136280.0, 6959820.0 ], [ 136150.0, 6959820.0 ], [ 136130.0, 6959800.0 ], [ 135900.0, 6959800.0 ], [ 135820.0, 6959780.0 ], [ 135690.0, 6959780.0 ], [ 135680.0, 6959770.0 ], [ 135240.0, 6959760.0 ], [ 135200.0, 6959770.0 ], [ 135170.0, 6959800.0 ], [ 135140.0, 6959800.0 ], [ 135030.0, 6959840.0 ], [ 134420.0, 6959820.0 ], [ 134410.0, 6959830.0 ], [ 134320.0, 6959830.0 ], [ 134290.0, 6959860.0 ], [ 134260.0, 6959870.0 ], [ 134130.0, 6959860.0 ], [ 134110.0, 6959880.0 ], [ 134090.0, 6959860.0 ], [ 134080.0, 6959870.0 ], [ 134050.0, 6959860.0 ], [ 133950.0, 6959910.0 ], [ 133700.0, 6959920.0 ], [ 133580.0, 6959960.0 ], [ 133490.0, 6959960.0 ], [ 133480.0, 6959970.0 ], [ 133370.0, 6959980.0 ], [ 133340.0, 6960010.0 ], [ 133280.0, 6960020.0 ], [ 133220.0, 6960080.0 ], [ 133170.0, 6960060.0 ], [ 133090.0, 6959980.0 ], [ 133090.0, 6959950.0 ], [ 133060.0, 6959910.0 ], [ 133060.0, 6959890.0 ], [ 133030.0, 6959860.0 ], [ 133000.0, 6959840.0 ], [ 132930.0, 6959830.0 ], [ 132890.0, 6959800.0 ], [ 132860.0, 6959750.0 ], [ 132700.0, 6959750.0 ], [ 132620.0, 6959800.0 ], [ 132560.0, 6959800.0 ], [ 132480.0, 6959770.0 ], [ 132450.0, 6959800.0 ], [ 132450.0, 6959860.0 ], [ 132410.0, 6959910.0 ], [ 132420.0, 6959930.0 ] ] } }
]
}
