{
"type": "FeatureCollection",
"name": "multi_path_smooth_kjovskarstinden_13",
"crs": { "type": "name", "properties": { "name": "urn:ogc:def:crs:EPSG::25833" } },
"features": [
{ "type": "Feature", "properties": { "cat": 1 }, "geometry": { "type": "LineString", "coordinates": [ [ 138550.0, 6962280.0 ], [ 138540.0, 6962240.0 ], [ 138580.0, 6962160.0 ], [ 138580.0, 6962070.0 ], [ 138560.0, 6962050.0 ], [ 138560.0, 6962020.0 ], [ 138410.0, 6961870.0 ], [ 138410.0, 6961850.0 ], [ 138380.0, 6961820.0 ], [ 138380.0, 6961790.0 ], [ 138360.0, 6961770.0 ], [ 138360.0, 6961740.0 ], [ 138290.0, 6961650.0 ], [ 138280.0, 6961560.0 ], [ 138230.0, 6961490.0 ], [ 138230.0, 6961270.0 ], [ 138200.0, 6961240.0 ], [ 138170.0, 6961150.0 ], [ 138110.0, 6961080.0 ], [ 138110.0, 6961020.0 ], [ 138020.0, 6960930.0 ], [ 138020.0, 6960910.0 ], [ 137990.0, 6960880.0 ], [ 137970.0, 6960880.0 ], [ 137790.0, 6960690.0 ], [ 137700.0, 6960690.0 ], [ 137630.0, 6960630.0 ], [ 137580.0, 6960620.0 ], [ 137440.0, 6960500.0 ], [ 137320.0, 6960500.0 ], [ 137280.0, 6960480.0 ], [ 137160.0, 6960470.0 ], [ 137050.0, 6960420.0 ], [ 136950.0, 6960420.0 ], [ 136740.0, 6960290.0 ], [ 136700.0, 6960250.0 ], [ 136630.0, 6960250.0 ], [ 136530.0, 6960150.0 ], [ 136490.0, 6960150.0 ], [ 136430.0, 6960120.0 ], [ 136360.0, 6960120.0 ], [ 136340.0, 6960110.0 ], [ 136240.0, 6960010.0 ], [ 135760.0, 6960010.0 ], [ 135670.0, 6960050.0 ], [ 135480.0, 6960060.0 ], [ 135460.0, 6960080.0 ], [ 135420.0, 6960090.0 ], [ 135310.0, 6960090.0 ], [ 135280.0, 6960100.0 ], [ 135220.0, 6960160.0 ], [ 135140.0, 6960160.0 ], [ 135100.0, 6960170.0 ], [ 135080.0, 6960190.0 ], [ 134200.0, 6960190.0 ], [ 134130.0, 6960150.0 ], [ 133960.0, 6959990.0 ], [ 133840.0, 6959990.0 ], [ 133790.0, 6959940.0 ], [ 133750.0, 6959930.0 ], [ 133670.0, 6959930.0 ], [ 133630.0, 6959950.0 ], [ 133570.0, 6959950.0 ], [ 133500.0, 6959970.0 ], [ 133460.0, 6959960.0 ], [ 133380.0, 6959980.0 ], [ 133350.0, 6960010.0 ], [ 133290.0, 6960020.0 ], [ 133220.0, 6960070.0 ], [ 133170.0, 6960060.0 ], [ 133130.0, 6960010.0 ], [ 133110.0, 6960010.0 ], [ 133090.0, 6959990.0 ], [ 133100.0, 6959900.0 ], [ 133000.0, 6959840.0 ], [ 132880.0, 6959830.0 ], [ 132850.0, 6959850.0 ], [ 132730.0, 6959880.0 ], [ 132630.0, 6959980.0 ], [ 132580.0, 6959970.0 ], [ 132540.0, 6959940.0 ], [ 132480.0, 6959940.0 ], [ 132470.0, 6959930.0 ], [ 132440.0, 6959940.0 ], [ 132420.0, 6959930.0 ] ] } }
]
}
