{
"type": "FeatureCollection",
"name": "multi_path_smooth_kjovskarstinden_34",
"crs": { "type": "name", "properties": { "name": "urn:ogc:def:crs:EPSG::25833" } },
"features": [
{ "type": "Feature", "properties": { "cat": 1 }, "geometry": { "type": "LineString", "coordinates": [ [ 138550.0, 6962280.0 ], [ 138540.0, 6962240.0 ], [ 138580.0, 6962160.0 ], [ 138590.0, 6962060.0 ], [ 138620.0, 6962030.0 ], [ 138630.0, 6961980.0 ], [ 138710.0, 6961900.0 ], [ 138800.0, 6961760.0 ], [ 138890.0, 6961670.0 ], [ 138890.0, 6961650.0 ], [ 138910.0, 6961630.0 ], [ 138920.0, 6961560.0 ], [ 138950.0, 6961530.0 ], [ 138950.0, 6961470.0 ], [ 138990.0, 6961430.0 ], [ 138990.0, 6961360.0 ], [ 138860.0, 6961230.0 ], [ 138600.0, 6961210.0 ], [ 138490.0, 6961120.0 ], [ 138480.0, 6961050.0 ], [ 138450.0, 6961000.0 ], [ 138450.0, 6960950.0 ], [ 138420.0, 6960910.0 ], [ 138430.0, 6960820.0 ], [ 138390.0, 6960780.0 ], [ 138390.0, 6960640.0 ], [ 138410.0, 6960620.0 ], [ 138410.0, 6960530.0 ], [ 138150.0, 6960280.0 ], [ 137130.0, 6960270.0 ], [ 137060.0, 6960240.0 ], [ 136930.0, 6960240.0 ], [ 136900.0, 6960230.0 ], [ 136820.0, 6960150.0 ], [ 136740.0, 6960100.0 ], [ 136600.0, 6960100.0 ], [ 136560.0, 6960110.0 ], [ 136460.0, 6960030.0 ], [ 136230.0, 6960030.0 ], [ 136200.0, 6960010.0 ], [ 136060.0, 6960010.0 ], [ 136020.0, 6960050.0 ], [ 135960.0, 6960070.0 ], [ 135500.0, 6960090.0 ], [ 135430.0, 6960120.0 ], [ 135340.0, 6960120.0 ], [ 135300.0, 6960140.0 ], [ 135230.0, 6960140.0 ], [ 135220.0, 6960150.0 ], [ 135150.0, 6960150.0 ], [ 135140.0, 6960160.0 ], [ 133660.0, 6960160.0 ], [ 133650.0, 6960170.0 ], [ 133240.0, 6960180.0 ], [ 133230.0, 6960170.0 ], [ 133120.0, 6960160.0 ], [ 133100.0, 6960140.0 ], [ 132920.0, 6960140.0 ], [ 132850.0, 6960090.0 ], [ 132620.0, 6960080.0 ], [ 132580.0, 6960040.0 ], [ 132510.0, 6960000.0 ], [ 132440.0, 6959930.0 ], [ 132420.0, 6959930.0 ] ] } }
]
}
