{
"type": "FeatureCollection",
"name": "multi_path_smooth_kjovskarstinden_42",
"crs": { "type": "name", "properties": { "name": "urn:ogc:def:crs:EPSG::25833" } },
"features": [
{ "type": "Feature", "properties": { "cat": 1 }, "geometry": { "type": "LineString", "coordinates": [ [ 138550.0, 6962280.0 ], [ 138540.0, 6962240.0 ], [ 138560.0, 6962180.0 ], [ 138470.0, 6962080.0 ], [ 138470.0, 6962020.0 ], [ 138450.0, 6961970.0 ], [ 138400.0, 6961920.0 ], [ 138400.0, 6961890.0 ], [ 138380.0, 6961870.0 ], [ 138380.0, 6961830.0 ], [ 138350.0, 6961800.0 ], [ 138350.0, 6961750.0 ], [ 138310.0, 6961710.0 ], [ 138310.0, 6961680.0 ], [ 138280.0, 6961630.0 ], [ 138270.0, 6961540.0 ], [ 138230.0, 6961490.0 ], [ 138230.0, 6961290.0 ], [ 138140.0, 6961200.0 ], [ 138140.0, 6961180.0 ], [ 138060.0, 6961080.0 ], [ 138060.0, 6961010.0 ], [ 137990.0, 6960940.0 ], [ 137990.0, 6960910.0 ], [ 137850.0, 6960770.0 ], [ 137780.0, 6960770.0 ], [ 137730.0, 6960800.0 ], [ 137600.0, 6960800.0 ], [ 137590.0, 6960810.0 ], [ 137090.0, 6960800.0 ], [ 136940.0, 6960740.0 ], [ 136900.0, 6960740.0 ], [ 136850.0, 6960700.0 ], [ 136770.0, 6960670.0 ], [ 136690.0, 6960670.0 ], [ 136660.0, 6960650.0 ], [ 136600.0, 6960640.0 ], [ 136580.0, 6960620.0 ], [ 136520.0, 6960620.0 ], [ 136470.0, 6960580.0 ], [ 136280.0, 6960560.0 ], [ 136210.0, 6960520.0 ], [ 136170.0, 6960520.0 ], [ 136150.0, 6960500.0 ], [ 135850.0, 6960500.0 ], [ 135830.0, 6960480.0 ], [ 135230.0, 6960480.0 ], [ 135180.0, 6960500.0 ], [ 135140.0, 6960500.0 ], [ 135110.0, 6960530.0 ], [ 134410.0, 6960530.0 ], [ 134400.0, 6960540.0 ], [ 133960.0, 6960530.0 ], [ 133950.0, 6960520.0 ], [ 133910.0, 6960520.0 ], [ 133890.0, 6960540.0 ], [ 133670.0, 6960540.0 ], [ 133630.0, 6960530.0 ], [ 133620.0, 6960540.0 ], [ 133520.0, 6960550.0 ], [ 133480.0, 6960590.0 ], [ 133190.0, 6960590.0 ], [ 133150.0, 6960560.0 ], [ 133050.0, 6960560.0 ], [ 133010.0, 6960530.0 ], [ 132980.0, 6960530.0 ], [ 132960.0, 6960510.0 ], [ 132860.0, 6960510.0 ], [ 132810.0, 6960460.0 ], [ 132790.0, 6960460.0 ], [ 132790.0, 6960430.0 ], [ 132770.0, 6960390.0 ], [ 132660.0, 6960340.0 ], [ 132630.0, 6960310.0 ], [ 132610.0, 6960260.0 ], [ 132540.0, 6960190.0 ], [ 132500.0, 6960170.0 ], [ 132460.0, 6960120.0 ], [ 132460.0, 6960080.0 ], [ 132410.0, 6960030.0 ], [ 132410.0, 6959940.0 ], [ 132420.0, 6959930.0 ] ] } }
]
}
