{
"type": "FeatureCollection",
"name": "multi_path_smooth_kjovskarstinden_04",
"crs": { "type": "name", "properties": { "name": "urn:ogc:def:crs:EPSG::25833" } },
"features": [
{ "type": "Feature", "properties": { "cat": 1 }, "geometry": { "type": "LineString", "coordinates": [ [ 138550.0, 6962280.0 ], [ 138540.0, 6962240.0 ], [ 138560.0, 6962180.0 ], [ 138580.0, 6962160.0 ], [ 138580.0, 6962130.0 ], [ 138560.0, 6962110.0 ], [ 138560.0, 6962080.0 ], [ 138450.0, 6961960.0 ], [ 138380.0, 6961860.0 ], [ 138380.0, 6961830.0 ], [ 138350.0, 6961800.0 ], [ 138350.0, 6961750.0 ], [ 138310.0, 6961700.0 ], [ 138310.0, 6961670.0 ], [ 138290.0, 6961650.0 ], [ 138290.0, 6961590.0 ], [ 138210.0, 6961450.0 ], [ 138210.0, 6961310.0 ], [ 138150.0, 6961240.0 ], [ 138150.0, 6961180.0 ], [ 138110.0, 6961140.0 ], [ 138110.0, 6961110.0 ], [ 138080.0, 6961080.0 ], [ 138080.0, 6961020.0 ], [ 138010.0, 6960950.0 ], [ 138010.0, 6960910.0 ], [ 137980.0, 6960880.0 ], [ 137960.0, 6960880.0 ], [ 137910.0, 6960830.0 ], [ 137910.0, 6960810.0 ], [ 137810.0, 6960720.0 ], [ 137790.0, 6960710.0 ], [ 137690.0, 6960710.0 ], [ 137640.0, 6960660.0 ], [ 137590.0, 6960640.0 ], [ 137530.0, 6960580.0 ], [ 137480.0, 6960550.0 ], [ 137460.0, 6960550.0 ], [ 137340.0, 6960440.0 ], [ 137050.0, 6960440.0 ], [ 137000.0, 6960410.0 ], [ 136950.0, 6960410.0 ], [ 136920.0, 6960390.0 ], [ 136880.0, 6960390.0 ], [ 136810.0, 6960330.0 ], [ 136750.0, 6960330.0 ], [ 136670.0, 6960260.0 ], [ 136640.0, 6960250.0 ], [ 136550.0, 6960160.0 ], [ 136340.0, 6960160.0 ], [ 136330.0, 6960170.0 ], [ 135920.0, 6960160.0 ], [ 135820.0, 6960200.0 ], [ 135760.0, 6960200.0 ], [ 135750.0, 6960210.0 ], [ 135510.0, 6960210.0 ], [ 135500.0, 6960220.0 ], [ 135320.0, 6960250.0 ], [ 135300.0, 6960270.0 ], [ 135210.0, 6960270.0 ], [ 135180.0, 6960300.0 ], [ 135130.0, 6960300.0 ], [ 135090.0, 6960330.0 ], [ 134950.0, 6960330.0 ], [ 134930.0, 6960310.0 ], [ 134840.0, 6960320.0 ], [ 134800.0, 6960340.0 ], [ 134760.0, 6960340.0 ], [ 134660.0, 6960420.0 ], [ 134630.0, 6960420.0 ], [ 134600.0, 6960450.0 ], [ 134540.0, 6960450.0 ], [ 134520.0, 6960470.0 ], [ 134290.0, 6960480.0 ], [ 134280.0, 6960490.0 ], [ 134150.0, 6960500.0 ], [ 134140.0, 6960510.0 ], [ 133670.0, 6960520.0 ], [ 133510.0, 6960560.0 ], [ 133360.0, 6960560.0 ], [ 133350.0, 6960570.0 ], [ 133230.0, 6960580.0 ], [ 133180.0, 6960600.0 ], [ 133140.0, 6960600.0 ], [ 133100.0, 6960580.0 ], [ 133060.0, 6960580.0 ], [ 133020.0, 6960600.0 ], [ 132970.0, 6960600.0 ], [ 132960.0, 6960590.0 ], [ 132860.0, 6960580.0 ], [ 132840.0, 6960560.0 ], [ 132830.0, 6960520.0 ], [ 132710.0, 6960490.0 ], [ 132680.0, 6960460.0 ], [ 132650.0, 6960450.0 ], [ 132590.0, 6960390.0 ], [ 132590.0, 6960370.0 ], [ 132620.0, 6960330.0 ], [ 132610.0, 6960270.0 ], [ 132440.0, 6960090.0 ], [ 132420.0, 6959930.0 ] ] } }
]
}
