{
"type": "FeatureCollection",
"name": "multi_path_smooth_kjovskarstinden_19",
"crs": { "type": "name", "properties": { "name": "urn:ogc:def:crs:EPSG::25833" } },
"features": [
{ "type": "Feature", "properties": { "cat": 1 }, "geometry": { "type": "LineString", "coordinates": [ [ 138550.0, 6962280.0 ], [ 138540.0, 6962240.0 ], [ 138580.0, 6962160.0 ], [ 138580.0, 6962130.0 ], [ 138560.0, 6962110.0 ], [ 138560.0, 6962080.0 ], [ 138390.0, 6961890.0 ], [ 138380.0, 6961830.0 ], [ 138350.0, 6961800.0 ], [ 138350.0, 6961770.0 ], [ 138310.0, 6961710.0 ], [ 138310.0, 6961680.0 ], [ 138280.0, 6961630.0 ], [ 138250.0, 6961510.0 ], [ 138220.0, 6961460.0 ], [ 138220.0, 6961270.0 ], [ 138190.0, 6961240.0 ], [ 138190.0, 6961190.0 ], [ 138120.0, 6961100.0 ], [ 138120.0, 6961020.0 ], [ 138030.0, 6960930.0 ], [ 138030.0, 6960910.0 ], [ 138000.0, 6960880.0 ], [ 137970.0, 6960880.0 ], [ 137790.0, 6960690.0 ], [ 137720.0, 6960690.0 ], [ 137620.0, 6960610.0 ], [ 137580.0, 6960610.0 ], [ 137520.0, 6960550.0 ], [ 137490.0, 6960550.0 ], [ 137420.0, 6960520.0 ], [ 137350.0, 6960520.0 ], [ 137310.0, 6960500.0 ], [ 137110.0, 6960500.0 ], [ 137070.0, 6960490.0 ], [ 137040.0, 6960460.0 ], [ 137020.0, 6960460.0 ], [ 136980.0, 6960430.0 ], [ 136870.0, 6960420.0 ], [ 136830.0, 6960380.0 ], [ 136790.0, 6960360.0 ], [ 136730.0, 6960360.0 ], [ 136710.0, 6960340.0 ], [ 136670.0, 6960340.0 ], [ 136580.0, 6960250.0 ], [ 136530.0, 6960220.0 ], [ 136470.0, 6960210.0 ], [ 136450.0, 6960190.0 ], [ 136390.0, 6960190.0 ], [ 136360.0, 6960170.0 ], [ 136280.0, 6960200.0 ], [ 136260.0, 6960220.0 ], [ 136200.0, 6960230.0 ], [ 136150.0, 6960270.0 ], [ 136120.0, 6960270.0 ], [ 136070.0, 6960300.0 ], [ 136020.0, 6960300.0 ], [ 136000.0, 6960320.0 ], [ 135810.0, 6960320.0 ], [ 135790.0, 6960340.0 ], [ 134990.0, 6960350.0 ], [ 134930.0, 6960310.0 ], [ 134870.0, 6960320.0 ], [ 134850.0, 6960300.0 ], [ 134830.0, 6960300.0 ], [ 134770.0, 6960240.0 ], [ 133950.0, 6960240.0 ], [ 133860.0, 6960200.0 ], [ 133720.0, 6960200.0 ], [ 133710.0, 6960190.0 ], [ 133450.0, 6960190.0 ], [ 133400.0, 6960210.0 ], [ 133320.0, 6960210.0 ], [ 133310.0, 6960200.0 ], [ 133020.0, 6960200.0 ], [ 133000.0, 6960180.0 ], [ 132940.0, 6960180.0 ], [ 132830.0, 6960080.0 ], [ 132800.0, 6960060.0 ], [ 132740.0, 6960050.0 ], [ 132690.0, 6960010.0 ], [ 132640.0, 6959990.0 ], [ 132590.0, 6960010.0 ], [ 132500.0, 6960000.0 ], [ 132420.0, 6959930.0 ] ] } }
]
}
