{
"type": "FeatureCollection",
"name": "multi_path_smooth_kjovskarstinden_30",
"crs": { "type": "name", "properties": { "name": "urn:ogc:def:crs:EPSG::25833" } },
"features": [
{ "type": "Feature", "properties": { "cat": 1 }, "geometry": { "type": "LineString", "coordinates": [ [ 138550.0, 6962280.0 ], [ 138490.0, 6962300.0 ], [ 138390.0, 6962380.0 ], [ 138180.0, 6962370.0 ], [ 138130.0, 6962350.0 ], [ 138070.0, 6962350.0 ], [ 138010.0, 6962330.0 ], [ 137990.0, 6962310.0 ], [ 137980.0, 6962270.0 ], [ 138020.0, 6962210.0 ], [ 138030.0, 6962160.0 ], [ 137620.0, 6961750.0 ], [ 137620.0, 6961400.0 ], [ 137600.0, 6961370.0 ], [ 137600.0, 6961130.0 ], [ 137580.0, 6961090.0 ], [ 137420.0, 6960930.0 ], [ 137360.0, 6960930.0 ], [ 137260.0, 6960830.0 ], [ 137200.0, 6960830.0 ], [ 137150.0, 6960810.0 ], [ 137070.0, 6960810.0 ], [ 136970.0, 6960710.0 ], [ 136950.0, 6960710.0 ], [ 136900.0, 6960660.0 ], [ 136860.0, 6960650.0 ], [ 136830.0, 6960620.0 ], [ 136770.0, 6960620.0 ], [ 136750.0, 6960600.0 ], [ 136730.0, 6960600.0 ], [ 136690.0, 6960560.0 ], [ 136570.0, 6960560.0 ], [ 136530.0, 6960540.0 ], [ 136410.0, 6960540.0 ], [ 136400.0, 6960530.0 ], [ 136110.0, 6960530.0 ], [ 136040.0, 6960510.0 ], [ 135940.0, 6960420.0 ], [ 135840.0, 6960420.0 ], [ 135830.0, 6960410.0 ], [ 134700.0, 6960410.0 ], [ 134660.0, 6960450.0 ], [ 134620.0, 6960460.0 ], [ 134250.0, 6960480.0 ], [ 134220.0, 6960500.0 ], [ 133690.0, 6960510.0 ], [ 133660.0, 6960530.0 ], [ 133630.0, 6960530.0 ], [ 133590.0, 6960560.0 ], [ 133570.0, 6960560.0 ], [ 133540.0, 6960590.0 ], [ 133170.0, 6960590.0 ], [ 133160.0, 6960600.0 ], [ 133120.0, 6960600.0 ], [ 133090.0, 6960570.0 ], [ 133040.0, 6960570.0 ], [ 133000.0, 6960540.0 ], [ 132850.0, 6960540.0 ], [ 132800.0, 6960510.0 ], [ 132670.0, 6960490.0 ], [ 132580.0, 6960400.0 ], [ 132580.0, 6960380.0 ], [ 132620.0, 6960330.0 ], [ 132610.0, 6960320.0 ], [ 132610.0, 6960270.0 ], [ 132510.0, 6960150.0 ], [ 132500.0, 6960110.0 ], [ 132440.0, 6960020.0 ], [ 132420.0, 6959930.0 ] ] } }
]
}
