{
"type": "FeatureCollection",
"name": "multi_path_smooth_kjovskarstinden_23",
"crs": { "type": "name", "properties": { "name": "urn:ogc:def:crs:EPSG::25833" } },
"features": [
{ "type": "Feature", "properties": { "cat": 1 }, "geometry": { "type": "LineString", "coordinates": [ [ 138550.0, 6962280.0 ], [ 138540.0, 6962240.0 ], [ 138560.0, 6962180.0 ], [ 138590.0, 6962150.0 ], [ 138590.0, 6962070.0 ], [ 138640.0, 6962020.0 ], [ 138640.0, 6961990.0 ], [ 138710.0, 6961910.0 ], [ 138710.0, 6961890.0 ], [ 138890.0, 6961680.0 ], [ 138890.0, 6961640.0 ], [ 138910.0, 6961620.0 ], [ 138950.0, 6961530.0 ], [ 138970.0, 6961450.0 ], [ 138970.0, 6961370.0 ], [ 138840.0, 6961240.0 ], [ 138790.0, 6961220.0 ], [ 138640.0, 6961220.0 ], [ 138590.0, 6961190.0 ], [ 138480.0, 6961080.0 ], [ 138480.0, 6961050.0 ], [ 138430.0, 6961000.0 ], [ 138430.0, 6960930.0 ], [ 138420.0, 6960920.0 ], [ 138430.0, 6960820.0 ], [ 138390.0, 6960780.0 ], [ 138380.0, 6960600.0 ], [ 138290.0, 6960510.0 ], [ 138190.0, 6960510.0 ], [ 138110.0, 6960430.0 ], [ 137530.0, 6960430.0 ], [ 137510.0, 6960410.0 ], [ 137470.0, 6960410.0 ], [ 137420.0, 6960380.0 ], [ 137400.0, 6960380.0 ], [ 137360.0, 6960340.0 ], [ 137310.0, 6960340.0 ], [ 137280.0, 6960320.0 ], [ 137200.0, 6960320.0 ], [ 137110.0, 6960290.0 ], [ 136970.0, 6960290.0 ], [ 136940.0, 6960260.0 ], [ 136860.0, 6960250.0 ], [ 136840.0, 6960230.0 ], [ 136740.0, 6960190.0 ], [ 136710.0, 6960160.0 ], [ 136640.0, 6960150.0 ], [ 136590.0, 6960120.0 ], [ 136570.0, 6960120.0 ], [ 136510.0, 6960070.0 ], [ 136340.0, 6960070.0 ], [ 136280.0, 6960040.0 ], [ 136240.0, 6960000.0 ], [ 135560.0, 6960000.0 ], [ 135550.0, 6960010.0 ], [ 135460.0, 6960020.0 ], [ 135410.0, 6960050.0 ], [ 135320.0, 6960060.0 ], [ 135290.0, 6960090.0 ], [ 135240.0, 6960110.0 ], [ 135010.0, 6960110.0 ], [ 134970.0, 6960140.0 ], [ 133660.0, 6960140.0 ], [ 133640.0, 6960160.0 ], [ 133530.0, 6960160.0 ], [ 133490.0, 6960180.0 ], [ 133240.0, 6960190.0 ], [ 133230.0, 6960180.0 ], [ 133090.0, 6960180.0 ], [ 133050.0, 6960140.0 ], [ 132930.0, 6960140.0 ], [ 132850.0, 6960080.0 ], [ 132810.0, 6960080.0 ], [ 132760.0, 6960030.0 ], [ 132730.0, 6960030.0 ], [ 132710.0, 6960010.0 ], [ 132660.0, 6960010.0 ], [ 132640.0, 6959990.0 ], [ 132560.0, 6960020.0 ], [ 132490.0, 6959960.0 ], [ 132460.0, 6959960.0 ], [ 132420.0, 6959930.0 ] ] } }
]
}
