{
"type": "FeatureCollection",
"name": "multi_path_smooth_kjovskarstinden_11",
"crs": { "type": "name", "properties": { "name": "urn:ogc:def:crs:EPSG::25833" } },
"features": [
{ "type": "Feature", "properties": { "cat": 1 }, "geometry": { "type": "LineString", "coordinates": [ [ 138550.0, 6962280.0 ], [ 138540.0, 6962240.0 ], [ 138580.0, 6962140.0 ], [ 138490.0, 6962030.0 ], [ 138490.0, 6961970.0 ], [ 138380.0, 6961860.0 ], [ 138380.0, 6961830.0 ], [ 138350.0, 6961800.0 ], [ 138350.0, 6961750.0 ], [ 138310.0, 6961700.0 ], [ 138310.0, 6961670.0 ], [ 138280.0, 6961630.0 ], [ 138260.0, 6961530.0 ], [ 138220.0, 6961480.0 ], [ 138200.0, 6961430.0 ], [ 138200.0, 6961310.0 ], [ 138090.0, 6961160.0 ], [ 138090.0, 6961110.0 ], [ 138070.0, 6961090.0 ], [ 138070.0, 6961010.0 ], [ 137990.0, 6960940.0 ], [ 137990.0, 6960910.0 ], [ 137790.0, 6960700.0 ], [ 137630.0, 6960690.0 ], [ 137440.0, 6960510.0 ], [ 137310.0, 6960510.0 ], [ 137290.0, 6960490.0 ], [ 137180.0, 6960490.0 ], [ 137130.0, 6960460.0 ], [ 137090.0, 6960460.0 ], [ 137000.0, 6960400.0 ], [ 136950.0, 6960400.0 ], [ 136920.0, 6960380.0 ], [ 136840.0, 6960380.0 ], [ 136820.0, 6960360.0 ], [ 136790.0, 6960360.0 ], [ 136710.0, 6960280.0 ], [ 136640.0, 6960230.0 ], [ 136590.0, 6960220.0 ], [ 136480.0, 6960150.0 ], [ 136420.0, 6960130.0 ], [ 136330.0, 6960130.0 ], [ 136280.0, 6960080.0 ], [ 136230.0, 6960070.0 ], [ 136170.0, 6960030.0 ], [ 136130.0, 6960030.0 ], [ 136120.0, 6960020.0 ], [ 136080.0, 6960020.0 ], [ 136040.0, 6960050.0 ], [ 135880.0, 6960050.0 ], [ 135860.0, 6960070.0 ], [ 135760.0, 6960070.0 ], [ 135740.0, 6960090.0 ], [ 135510.0, 6960100.0 ], [ 135460.0, 6960120.0 ], [ 135320.0, 6960120.0 ], [ 135270.0, 6960140.0 ], [ 134830.0, 6960150.0 ], [ 134780.0, 6960130.0 ], [ 134140.0, 6960130.0 ], [ 134100.0, 6960100.0 ], [ 134030.0, 6960090.0 ], [ 133950.0, 6960010.0 ], [ 133810.0, 6960010.0 ], [ 133740.0, 6959940.0 ], [ 133700.0, 6959940.0 ], [ 133690.0, 6959930.0 ], [ 133630.0, 6959950.0 ], [ 133570.0, 6959950.0 ], [ 133500.0, 6959970.0 ], [ 133460.0, 6959960.0 ], [ 133410.0, 6959980.0 ], [ 133370.0, 6959980.0 ], [ 133340.0, 6960010.0 ], [ 133280.0, 6960020.0 ], [ 133220.0, 6960070.0 ], [ 133190.0, 6960070.0 ], [ 133090.0, 6959980.0 ], [ 133100.0, 6959940.0 ], [ 133100.0, 6959900.0 ], [ 133090.0, 6959890.0 ], [ 133070.0, 6959890.0 ], [ 132990.0, 6959840.0 ], [ 132950.0, 6959840.0 ], [ 132900.0, 6959820.0 ], [ 132850.0, 6959850.0 ], [ 132760.0, 6959880.0 ], [ 132720.0, 6959880.0 ], [ 132630.0, 6959980.0 ], [ 132600.0, 6959980.0 ], [ 132570.0, 6959950.0 ], [ 132540.0, 6959940.0 ], [ 132470.0, 6959940.0 ], [ 132450.0, 6959950.0 ], [ 132420.0, 6959930.0 ] ] } }
]
}
