{
"type": "FeatureCollection",
"name": "multi_path_smooth_kjovskarstinden_08",
"crs": { "type": "name", "properties": { "name": "urn:ogc:def:crs:EPSG::25833" } },
"features": [
{ "type": "Feature", "properties": { "cat": 1 }, "geometry": { "type": "LineString", "coordinates": [ [ 138550.0, 6962280.0 ], [ 138540.0, 6962240.0 ], [ 138560.0, 6962180.0 ], [ 138580.0, 6962160.0 ], [ 138580.0, 6962070.0 ], [ 138560.0, 6962050.0 ], [ 138560.0, 6962030.0 ], [ 138380.0, 6961850.0 ], [ 138380.0, 6961830.0 ], [ 138350.0, 6961800.0 ], [ 138350.0, 6961760.0 ], [ 138310.0, 6961710.0 ], [ 138310.0, 6961670.0 ], [ 138280.0, 6961620.0 ], [ 138260.0, 6961530.0 ], [ 138230.0, 6961490.0 ], [ 138230.0, 6961290.0 ], [ 138170.0, 6961230.0 ], [ 138170.0, 6961180.0 ], [ 138100.0, 6961100.0 ], [ 138100.0, 6961020.0 ], [ 137990.0, 6960930.0 ], [ 137990.0, 6960910.0 ], [ 137790.0, 6960700.0 ], [ 137740.0, 6960700.0 ], [ 137730.0, 6960710.0 ], [ 137500.0, 6960710.0 ], [ 137490.0, 6960720.0 ], [ 137300.0, 6960720.0 ], [ 137280.0, 6960740.0 ], [ 137240.0, 6960730.0 ], [ 136780.0, 6960730.0 ], [ 136770.0, 6960720.0 ], [ 136670.0, 6960720.0 ], [ 136640.0, 6960700.0 ], [ 136360.0, 6960690.0 ], [ 136320.0, 6960660.0 ], [ 136120.0, 6960650.0 ], [ 136080.0, 6960630.0 ], [ 136030.0, 6960630.0 ], [ 136010.0, 6960610.0 ], [ 135960.0, 6960610.0 ], [ 135940.0, 6960590.0 ], [ 135820.0, 6960590.0 ], [ 135780.0, 6960560.0 ], [ 135710.0, 6960560.0 ], [ 135680.0, 6960550.0 ], [ 135650.0, 6960520.0 ], [ 135530.0, 6960520.0 ], [ 135490.0, 6960490.0 ], [ 135150.0, 6960500.0 ], [ 135130.0, 6960480.0 ], [ 134530.0, 6960480.0 ], [ 134520.0, 6960470.0 ], [ 134390.0, 6960470.0 ], [ 134380.0, 6960480.0 ], [ 134290.0, 6960480.0 ], [ 134220.0, 6960500.0 ], [ 134090.0, 6960500.0 ], [ 134080.0, 6960510.0 ], [ 133960.0, 6960510.0 ], [ 133950.0, 6960520.0 ], [ 133670.0, 6960520.0 ], [ 133510.0, 6960560.0 ], [ 133360.0, 6960560.0 ], [ 133350.0, 6960570.0 ], [ 133230.0, 6960580.0 ], [ 133180.0, 6960600.0 ], [ 133140.0, 6960600.0 ], [ 133100.0, 6960580.0 ], [ 133060.0, 6960580.0 ], [ 133020.0, 6960600.0 ], [ 132930.0, 6960600.0 ], [ 132850.0, 6960580.0 ], [ 132760.0, 6960500.0 ], [ 132710.0, 6960500.0 ], [ 132660.0, 6960450.0 ], [ 132630.0, 6960450.0 ], [ 132570.0, 6960390.0 ], [ 132570.0, 6960370.0 ], [ 132610.0, 6960350.0 ], [ 132620.0, 6960310.0 ], [ 132600.0, 6960290.0 ], [ 132600.0, 6960250.0 ], [ 132460.0, 6960120.0 ], [ 132460.0, 6960070.0 ], [ 132440.0, 6960020.0 ], [ 132440.0, 6959940.0 ], [ 132420.0, 6959930.0 ] ] } }
]
}
