{
"type": "FeatureCollection",
"name": "multi_path_smooth_kjovskarstinden_10",
"crs": { "type": "name", "properties": { "name": "urn:ogc:def:crs:EPSG::25833" } },
"features": [
{ "type": "Feature", "properties": { "cat": 1 }, "geometry": { "type": "LineString", "coordinates": [ [ 138550.0, 6962280.0 ], [ 138540.0, 6962240.0 ], [ 138580.0, 6962150.0 ], [ 138510.0, 6962080.0 ], [ 138490.0, 6962050.0 ], [ 138490.0, 6962000.0 ], [ 138420.0, 6961920.0 ], [ 138420.0, 6961890.0 ], [ 138380.0, 6961820.0 ], [ 138370.0, 6961760.0 ], [ 138330.0, 6961720.0 ], [ 138320.0, 6961670.0 ], [ 138300.0, 6961650.0 ], [ 138300.0, 6961600.0 ], [ 138220.0, 6961470.0 ], [ 138210.0, 6961290.0 ], [ 138140.0, 6961220.0 ], [ 138140.0, 6961180.0 ], [ 138100.0, 6961140.0 ], [ 138090.0, 6961010.0 ], [ 138010.0, 6960930.0 ], [ 138010.0, 6960910.0 ], [ 137820.0, 6960720.0 ], [ 137760.0, 6960720.0 ], [ 137740.0, 6960740.0 ], [ 137710.0, 6960740.0 ], [ 137660.0, 6960780.0 ], [ 137590.0, 6960780.0 ], [ 137570.0, 6960800.0 ], [ 137060.0, 6960790.0 ], [ 137040.0, 6960770.0 ], [ 137000.0, 6960760.0 ], [ 136800.0, 6960760.0 ], [ 136790.0, 6960750.0 ], [ 136740.0, 6960750.0 ], [ 136700.0, 6960730.0 ], [ 136580.0, 6960630.0 ], [ 136490.0, 6960630.0 ], [ 136480.0, 6960620.0 ], [ 136140.0, 6960620.0 ], [ 136090.0, 6960580.0 ], [ 136030.0, 6960570.0 ], [ 135940.0, 6960480.0 ], [ 135880.0, 6960480.0 ], [ 135780.0, 6960450.0 ], [ 135410.0, 6960450.0 ], [ 135340.0, 6960430.0 ], [ 134610.0, 6960430.0 ], [ 134600.0, 6960440.0 ], [ 134560.0, 6960440.0 ], [ 134520.0, 6960470.0 ], [ 134290.0, 6960480.0 ], [ 134280.0, 6960490.0 ], [ 134150.0, 6960500.0 ], [ 134140.0, 6960510.0 ], [ 133670.0, 6960520.0 ], [ 133510.0, 6960560.0 ], [ 133270.0, 6960570.0 ], [ 133180.0, 6960600.0 ], [ 133140.0, 6960590.0 ], [ 133100.0, 6960600.0 ], [ 132970.0, 6960600.0 ], [ 132850.0, 6960570.0 ], [ 132800.0, 6960510.0 ], [ 132720.0, 6960490.0 ], [ 132650.0, 6960450.0 ], [ 132590.0, 6960390.0 ], [ 132590.0, 6960370.0 ], [ 132630.0, 6960330.0 ], [ 132620.0, 6960260.0 ], [ 132420.0, 6960040.0 ], [ 132420.0, 6959970.0 ], [ 132410.0, 6959960.0 ], [ 132420.0, 6959930.0 ] ] } }
]
}
