{
"type": "FeatureCollection",
"name": "multi_path_smooth_kjovskarstinden_43",
"crs": { "type": "name", "properties": { "name": "urn:ogc:def:crs:EPSG::25833" } },
"features": [
{ "type": "Feature", "properties": { "cat": 1 }, "geometry": { "type": "LineString", "coordinates": [ [ 138550.0, 6962280.0 ], [ 138540.0, 6962240.0 ], [ 138560.0, 6962180.0 ], [ 138590.0, 6962140.0 ], [ 138600.0, 6962060.0 ], [ 138640.0, 6962020.0 ], [ 138660.0, 6961960.0 ], [ 138710.0, 6961910.0 ], [ 138730.0, 6961860.0 ], [ 138880.0, 6961670.0 ], [ 138880.0, 6961630.0 ], [ 138900.0, 6961600.0 ], [ 138900.0, 6961570.0 ], [ 138930.0, 6961540.0 ], [ 138930.0, 6961370.0 ], [ 138850.0, 6961280.0 ], [ 138820.0, 6961270.0 ], [ 138670.0, 6961270.0 ], [ 138600.0, 6961220.0 ], [ 138560.0, 6961220.0 ], [ 138480.0, 6961140.0 ], [ 138480.0, 6961050.0 ], [ 138440.0, 6961000.0 ], [ 138440.0, 6960600.0 ], [ 138340.0, 6960500.0 ], [ 138250.0, 6960430.0 ], [ 138170.0, 6960420.0 ], [ 138160.0, 6960410.0 ], [ 138080.0, 6960410.0 ], [ 138010.0, 6960340.0 ], [ 137970.0, 6960320.0 ], [ 137380.0, 6960320.0 ], [ 137360.0, 6960300.0 ], [ 137110.0, 6960300.0 ], [ 137090.0, 6960280.0 ], [ 136980.0, 6960280.0 ], [ 136850.0, 6960160.0 ], [ 136800.0, 6960150.0 ], [ 136740.0, 6960100.0 ], [ 136550.0, 6960110.0 ], [ 136380.0, 6959950.0 ], [ 135610.0, 6959950.0 ], [ 135500.0, 6960030.0 ], [ 135340.0, 6960030.0 ], [ 135320.0, 6960050.0 ], [ 135270.0, 6960050.0 ], [ 135260.0, 6960060.0 ], [ 135150.0, 6960060.0 ], [ 135090.0, 6960110.0 ], [ 133580.0, 6960110.0 ], [ 133510.0, 6960130.0 ], [ 133230.0, 6960130.0 ], [ 133220.0, 6960120.0 ], [ 133130.0, 6960120.0 ], [ 133070.0, 6960060.0 ], [ 132940.0, 6960050.0 ], [ 132900.0, 6960020.0 ], [ 132840.0, 6960010.0 ], [ 132810.0, 6959980.0 ], [ 132710.0, 6959980.0 ], [ 132660.0, 6959950.0 ], [ 132510.0, 6959950.0 ], [ 132500.0, 6959940.0 ], [ 132420.0, 6959930.0 ] ] } }
]
}
