{
"type": "FeatureCollection",
"name": "multi_path_smooth_kjovskarstinden_47",
"crs": { "type": "name", "properties": { "name": "urn:ogc:def:crs:EPSG::25833" } },
"features": [
{ "type": "Feature", "properties": { "cat": 1 }, "geometry": { "type": "LineString", "coordinates": [ [ 138550.0, 6962280.0 ], [ 138540.0, 6962240.0 ], [ 138560.0, 6962200.0 ], [ 138560.0, 6962150.0 ], [ 138500.0, 6962090.0 ], [ 138490.0, 6962000.0 ], [ 138420.0, 6961920.0 ], [ 138420.0, 6961900.0 ], [ 138360.0, 6961820.0 ], [ 138360.0, 6961740.0 ], [ 138320.0, 6961700.0 ], [ 138320.0, 6961670.0 ], [ 138280.0, 6961630.0 ], [ 138250.0, 6961510.0 ], [ 138210.0, 6961450.0 ], [ 138210.0, 6961300.0 ], [ 138170.0, 6961250.0 ], [ 138170.0, 6961140.0 ], [ 138120.0, 6961090.0 ], [ 138120.0, 6961030.0 ], [ 138020.0, 6960930.0 ], [ 138020.0, 6960910.0 ], [ 137990.0, 6960880.0 ], [ 137940.0, 6960870.0 ], [ 137800.0, 6960720.0 ], [ 137650.0, 6960720.0 ], [ 137630.0, 6960700.0 ], [ 137540.0, 6960690.0 ], [ 137500.0, 6960650.0 ], [ 137460.0, 6960640.0 ], [ 137220.0, 6960630.0 ], [ 136950.0, 6960380.0 ], [ 136860.0, 6960370.0 ], [ 136840.0, 6960350.0 ], [ 136810.0, 6960350.0 ], [ 136700.0, 6960250.0 ], [ 136560.0, 6960240.0 ], [ 136510.0, 6960190.0 ], [ 136480.0, 6960190.0 ], [ 136450.0, 6960170.0 ], [ 136330.0, 6960170.0 ], [ 136260.0, 6960210.0 ], [ 135320.0, 6960210.0 ], [ 135270.0, 6960160.0 ], [ 134020.0, 6960160.0 ], [ 133990.0, 6960130.0 ], [ 133570.0, 6960130.0 ], [ 133450.0, 6960170.0 ], [ 133070.0, 6960170.0 ], [ 133040.0, 6960140.0 ], [ 133000.0, 6960140.0 ], [ 132870.0, 6960050.0 ], [ 132710.0, 6960050.0 ], [ 132660.0, 6960010.0 ], [ 132630.0, 6960010.0 ], [ 132540.0, 6959970.0 ], [ 132480.0, 6959970.0 ], [ 132450.0, 6959940.0 ], [ 132420.0, 6959930.0 ] ] } }
]
}
