{
"type": "FeatureCollection",
"name": "multi_path_smooth_kjovskarstinden_27",
"crs": { "type": "name", "properties": { "name": "urn:ogc:def:crs:EPSG::25833" } },
"features": [
{ "type": "Feature", "properties": { "cat": 1 }, "geometry": { "type": "LineString", "coordinates": [ [ 138550.0, 6962280.0 ], [ 138540.0, 6962240.0 ], [ 138570.0, 6962170.0 ], [ 138600.0, 6962140.0 ], [ 138590.0, 6962070.0 ], [ 138620.0, 6962040.0 ], [ 138620.0, 6962000.0 ], [ 138780.0, 6961820.0 ], [ 138790.0, 6961780.0 ], [ 138880.0, 6961670.0 ], [ 138880.0, 6961630.0 ], [ 138900.0, 6961600.0 ], [ 138900.0, 6961570.0 ], [ 138940.0, 6961520.0 ], [ 138940.0, 6961370.0 ], [ 138820.0, 6961250.0 ], [ 138780.0, 6961250.0 ], [ 138760.0, 6961230.0 ], [ 138570.0, 6961230.0 ], [ 138490.0, 6961160.0 ], [ 138480.0, 6961140.0 ], [ 138480.0, 6961060.0 ], [ 138420.0, 6961000.0 ], [ 138410.0, 6960960.0 ], [ 138410.0, 6960880.0 ], [ 138430.0, 6960850.0 ], [ 138430.0, 6960820.0 ], [ 138390.0, 6960780.0 ], [ 138390.0, 6960750.0 ], [ 138400.0, 6960740.0 ], [ 138400.0, 6960660.0 ], [ 138420.0, 6960640.0 ], [ 138420.0, 6960560.0 ], [ 138200.0, 6960340.0 ], [ 138180.0, 6960340.0 ], [ 138160.0, 6960320.0 ], [ 138130.0, 6960310.0 ], [ 138000.0, 6960310.0 ], [ 137990.0, 6960300.0 ], [ 137120.0, 6960300.0 ], [ 137050.0, 6960270.0 ], [ 136970.0, 6960270.0 ], [ 136850.0, 6960160.0 ], [ 136760.0, 6960130.0 ], [ 136740.0, 6960110.0 ], [ 136310.0, 6960100.0 ], [ 136190.0, 6960030.0 ], [ 136130.0, 6960030.0 ], [ 136120.0, 6960020.0 ], [ 136090.0, 6960020.0 ], [ 136060.0, 6960040.0 ], [ 135880.0, 6960040.0 ], [ 135870.0, 6960050.0 ], [ 135770.0, 6960050.0 ], [ 135760.0, 6960060.0 ], [ 135480.0, 6960070.0 ], [ 135430.0, 6960100.0 ], [ 135320.0, 6960100.0 ], [ 135300.0, 6960120.0 ], [ 134540.0, 6960120.0 ], [ 134470.0, 6960100.0 ], [ 134010.0, 6960100.0 ], [ 133970.0, 6960070.0 ], [ 133870.0, 6960070.0 ], [ 133820.0, 6960030.0 ], [ 133750.0, 6960000.0 ], [ 133700.0, 6959950.0 ], [ 133570.0, 6959950.0 ], [ 133560.0, 6959960.0 ], [ 133370.0, 6959980.0 ], [ 133340.0, 6960010.0 ], [ 133280.0, 6960020.0 ], [ 133220.0, 6960070.0 ], [ 133190.0, 6960070.0 ], [ 133160.0, 6960060.0 ], [ 133130.0, 6960010.0 ], [ 133110.0, 6960010.0 ], [ 132960.0, 6959880.0 ], [ 132800.0, 6959880.0 ], [ 132790.0, 6959870.0 ], [ 132720.0, 6959880.0 ], [ 132620.0, 6959830.0 ], [ 132550.0, 6959840.0 ], [ 132470.0, 6959920.0 ], [ 132430.0, 6959920.0 ], [ 132420.0, 6959930.0 ] ] } }
]
}
