{
"type": "FeatureCollection",
"name": "multi_path_smooth_kjovskarstinden_20",
"crs": { "type": "name", "properties": { "name": "urn:ogc:def:crs:EPSG::25833" } },
"features": [
{ "type": "Feature", "properties": { "cat": 1 }, "geometry": { "type": "LineString", "coordinates": [ [ 138550.0, 6962280.0 ], [ 138540.0, 6962240.0 ], [ 138560.0, 6962180.0 ], [ 138590.0, 6962150.0 ], [ 138590.0, 6962040.0 ], [ 138400.0, 6961840.0 ], [ 138380.0, 6961810.0 ], [ 138370.0, 6961750.0 ], [ 138320.0, 6961700.0 ], [ 138320.0, 6961670.0 ], [ 138300.0, 6961650.0 ], [ 138300.0, 6961600.0 ], [ 138190.0, 6961420.0 ], [ 138190.0, 6961300.0 ], [ 138120.0, 6961210.0 ], [ 138120.0, 6961190.0 ], [ 138080.0, 6961150.0 ], [ 138070.0, 6961020.0 ], [ 137990.0, 6960940.0 ], [ 137990.0, 6960910.0 ], [ 137790.0, 6960710.0 ], [ 137670.0, 6960720.0 ], [ 137660.0, 6960730.0 ], [ 137560.0, 6960730.0 ], [ 137550.0, 6960740.0 ], [ 137240.0, 6960740.0 ], [ 137220.0, 6960720.0 ], [ 137100.0, 6960710.0 ], [ 137060.0, 6960680.0 ], [ 136990.0, 6960670.0 ], [ 136880.0, 6960570.0 ], [ 136810.0, 6960570.0 ], [ 136730.0, 6960510.0 ], [ 136080.0, 6960500.0 ], [ 136070.0, 6960490.0 ], [ 135980.0, 6960490.0 ], [ 135960.0, 6960470.0 ], [ 135900.0, 6960470.0 ], [ 135890.0, 6960460.0 ], [ 134640.0, 6960460.0 ], [ 134590.0, 6960480.0 ], [ 134230.0, 6960490.0 ], [ 134210.0, 6960510.0 ], [ 134070.0, 6960510.0 ], [ 134050.0, 6960490.0 ], [ 133970.0, 6960490.0 ], [ 133960.0, 6960500.0 ], [ 133800.0, 6960510.0 ], [ 133780.0, 6960530.0 ], [ 133630.0, 6960530.0 ], [ 133550.0, 6960550.0 ], [ 133420.0, 6960550.0 ], [ 133350.0, 6960570.0 ], [ 133270.0, 6960570.0 ], [ 133180.0, 6960600.0 ], [ 133130.0, 6960600.0 ], [ 133100.0, 6960580.0 ], [ 133070.0, 6960580.0 ], [ 133030.0, 6960610.0 ], [ 132890.0, 6960610.0 ], [ 132770.0, 6960520.0 ], [ 132750.0, 6960520.0 ], [ 132690.0, 6960460.0 ], [ 132650.0, 6960450.0 ], [ 132600.0, 6960400.0 ], [ 132590.0, 6960370.0 ], [ 132630.0, 6960330.0 ], [ 132620.0, 6960260.0 ], [ 132500.0, 6960130.0 ], [ 132510.0, 6960080.0 ], [ 132450.0, 6960020.0 ], [ 132450.0, 6959980.0 ], [ 132420.0, 6959950.0 ], [ 132420.0, 6959930.0 ] ] } }
]
}
