{
"type": "FeatureCollection",
"name": "multi_path_smooth_kjovskarstinden_12",
"crs": { "type": "name", "properties": { "name": "urn:ogc:def:crs:EPSG::25833" } },
"features": [
{ "type": "Feature", "properties": { "cat": 1 }, "geometry": { "type": "LineString", "coordinates": [ [ 138550.0, 6962280.0 ], [ 138540.0, 6962240.0 ], [ 138560.0, 6962180.0 ], [ 138590.0, 6962150.0 ], [ 138590.0, 6962070.0 ], [ 138640.0, 6962020.0 ], [ 138650.0, 6961970.0 ], [ 138770.0, 6961830.0 ], [ 138790.0, 6961780.0 ], [ 138890.0, 6961680.0 ], [ 138890.0, 6961640.0 ], [ 138920.0, 6961590.0 ], [ 138910.0, 6961360.0 ], [ 138900.0, 6961320.0 ], [ 138830.0, 6961250.0 ], [ 138810.0, 6961250.0 ], [ 138790.0, 6961230.0 ], [ 138650.0, 6961230.0 ], [ 138620.0, 6961210.0 ], [ 138580.0, 6961210.0 ], [ 138480.0, 6961110.0 ], [ 138480.0, 6961050.0 ], [ 138440.0, 6961000.0 ], [ 138440.0, 6960930.0 ], [ 138420.0, 6960910.0 ], [ 138430.0, 6960820.0 ], [ 138390.0, 6960780.0 ], [ 138390.0, 6960570.0 ], [ 138310.0, 6960490.0 ], [ 138220.0, 6960490.0 ], [ 138210.0, 6960480.0 ], [ 138140.0, 6960480.0 ], [ 138130.0, 6960470.0 ], [ 136970.0, 6960440.0 ], [ 136900.0, 6960420.0 ], [ 136820.0, 6960350.0 ], [ 136710.0, 6960350.0 ], [ 136580.0, 6960220.0 ], [ 136540.0, 6960200.0 ], [ 136490.0, 6960200.0 ], [ 136460.0, 6960170.0 ], [ 136350.0, 6960170.0 ], [ 136340.0, 6960180.0 ], [ 136060.0, 6960180.0 ], [ 136050.0, 6960190.0 ], [ 135900.0, 6960200.0 ], [ 135820.0, 6960240.0 ], [ 135730.0, 6960240.0 ], [ 135700.0, 6960260.0 ], [ 135620.0, 6960260.0 ], [ 135560.0, 6960310.0 ], [ 135360.0, 6960310.0 ], [ 135310.0, 6960330.0 ], [ 135180.0, 6960330.0 ], [ 135170.0, 6960340.0 ], [ 134970.0, 6960340.0 ], [ 134940.0, 6960320.0 ], [ 134840.0, 6960320.0 ], [ 134800.0, 6960340.0 ], [ 134750.0, 6960340.0 ], [ 134680.0, 6960400.0 ], [ 134660.0, 6960400.0 ], [ 134600.0, 6960430.0 ], [ 134570.0, 6960460.0 ], [ 134530.0, 6960470.0 ], [ 134390.0, 6960470.0 ], [ 134380.0, 6960480.0 ], [ 134290.0, 6960480.0 ], [ 134220.0, 6960500.0 ], [ 133960.0, 6960510.0 ], [ 133950.0, 6960520.0 ], [ 133670.0, 6960520.0 ], [ 133510.0, 6960560.0 ], [ 133360.0, 6960560.0 ], [ 133350.0, 6960570.0 ], [ 133230.0, 6960580.0 ], [ 133180.0, 6960600.0 ], [ 133140.0, 6960600.0 ], [ 133100.0, 6960580.0 ], [ 132880.0, 6960600.0 ], [ 132840.0, 6960560.0 ], [ 132830.0, 6960520.0 ], [ 132760.0, 6960520.0 ], [ 132740.0, 6960500.0 ], [ 132710.0, 6960500.0 ], [ 132650.0, 6960450.0 ], [ 132630.0, 6960450.0 ], [ 132580.0, 6960400.0 ], [ 132580.0, 6960380.0 ], [ 132610.0, 6960350.0 ], [ 132620.0, 6960310.0 ], [ 132570.0, 6960230.0 ], [ 132450.0, 6960110.0 ], [ 132430.0, 6960070.0 ], [ 132430.0, 6959960.0 ], [ 132420.0, 6959930.0 ] ] } }
]
}
