{
"type": "FeatureCollection",
"name": "multi_path_smooth_kjovskarstinden_16",
"crs": { "type": "name", "properties": { "name": "urn:ogc:def:crs:EPSG::25833" } },
"features": [
{ "type": "Feature", "properties": { "cat": 1 }, "geometry": { "type": "LineString", "coordinates": [ [ 138550.0, 6962280.0 ], [ 138540.0, 6962240.0 ], [ 138570.0, 6962160.0 ], [ 138500.0, 6962090.0 ], [ 138490.0, 6962070.0 ], [ 138490.0, 6961980.0 ], [ 138400.0, 6961890.0 ], [ 138390.0, 6961830.0 ], [ 138360.0, 6961800.0 ], [ 138360.0, 6961750.0 ], [ 138330.0, 6961720.0 ], [ 138320.0, 6961670.0 ], [ 138300.0, 6961650.0 ], [ 138300.0, 6961600.0 ], [ 138270.0, 6961570.0 ], [ 138250.0, 6961510.0 ], [ 138220.0, 6961480.0 ], [ 138210.0, 6961450.0 ], [ 138210.0, 6961300.0 ], [ 138160.0, 6961250.0 ], [ 138160.0, 6961180.0 ], [ 138080.0, 6961090.0 ], [ 138080.0, 6961020.0 ], [ 138000.0, 6960940.0 ], [ 138000.0, 6960910.0 ], [ 137810.0, 6960720.0 ], [ 137640.0, 6960740.0 ], [ 137600.0, 6960770.0 ], [ 137400.0, 6960770.0 ], [ 137350.0, 6960750.0 ], [ 137070.0, 6960750.0 ], [ 137040.0, 6960720.0 ], [ 137000.0, 6960710.0 ], [ 136930.0, 6960640.0 ], [ 136850.0, 6960640.0 ], [ 136700.0, 6960500.0 ], [ 136520.0, 6960490.0 ], [ 136500.0, 6960470.0 ], [ 136470.0, 6960470.0 ], [ 136430.0, 6960430.0 ], [ 136350.0, 6960430.0 ], [ 136330.0, 6960410.0 ], [ 135920.0, 6960390.0 ], [ 135890.0, 6960370.0 ], [ 134970.0, 6960370.0 ], [ 134940.0, 6960360.0 ], [ 134900.0, 6960320.0 ], [ 134870.0, 6960320.0 ], [ 134850.0, 6960300.0 ], [ 134830.0, 6960300.0 ], [ 134740.0, 6960210.0 ], [ 134110.0, 6960200.0 ], [ 134100.0, 6960190.0 ], [ 134060.0, 6960190.0 ], [ 133880.0, 6960020.0 ], [ 133830.0, 6960020.0 ], [ 133760.0, 6959950.0 ], [ 133710.0, 6959950.0 ], [ 133690.0, 6959930.0 ], [ 133630.0, 6959950.0 ], [ 133570.0, 6959950.0 ], [ 133500.0, 6959970.0 ], [ 133460.0, 6959960.0 ], [ 133410.0, 6959980.0 ], [ 133370.0, 6959980.0 ], [ 133340.0, 6960010.0 ], [ 133280.0, 6960020.0 ], [ 133220.0, 6960070.0 ], [ 133160.0, 6960060.0 ], [ 133140.0, 6960020.0 ], [ 133090.0, 6959980.0 ], [ 133100.0, 6959950.0 ], [ 133100.0, 6959900.0 ], [ 133090.0, 6959890.0 ], [ 133070.0, 6959890.0 ], [ 132990.0, 6959840.0 ], [ 132950.0, 6959840.0 ], [ 132940.0, 6959830.0 ], [ 132880.0, 6959830.0 ], [ 132760.0, 6959880.0 ], [ 132720.0, 6959880.0 ], [ 132630.0, 6959980.0 ], [ 132610.0, 6959980.0 ], [ 132540.0, 6959940.0 ], [ 132420.0, 6959930.0 ] ] } }
]
}
