{
"type": "FeatureCollection",
"name": "multi_path_smooth_kjovskarstinden_15",
"crs": { "type": "name", "properties": { "name": "urn:ogc:def:crs:EPSG::25833" } },
"features": [
{ "type": "Feature", "properties": { "cat": 1 }, "geometry": { "type": "LineString", "coordinates": [ [ 138550.0, 6962280.0 ], [ 138540.0, 6962240.0 ], [ 138560.0, 6962180.0 ], [ 138590.0, 6962150.0 ], [ 138590.0, 6962070.0 ], [ 138620.0, 6962040.0 ], [ 138620.0, 6962010.0 ], [ 138710.0, 6961910.0 ], [ 138710.0, 6961890.0 ], [ 138740.0, 6961850.0 ], [ 138800.0, 6961790.0 ], [ 138810.0, 6961750.0 ], [ 138870.0, 6961690.0 ], [ 138890.0, 6961580.0 ], [ 138950.0, 6961520.0 ], [ 138950.0, 6961480.0 ], [ 138980.0, 6961450.0 ], [ 138980.0, 6961360.0 ], [ 138860.0, 6961240.0 ], [ 138790.0, 6961220.0 ], [ 138560.0, 6961220.0 ], [ 138450.0, 6961140.0 ], [ 138360.0, 6961140.0 ], [ 138340.0, 6961120.0 ], [ 138320.0, 6961120.0 ], [ 138200.0, 6961000.0 ], [ 138180.0, 6961000.0 ], [ 138090.0, 6960910.0 ], [ 138050.0, 6960880.0 ], [ 137970.0, 6960880.0 ], [ 137870.0, 6960770.0 ], [ 137790.0, 6960710.0 ], [ 137580.0, 6960700.0 ], [ 137570.0, 6960690.0 ], [ 137520.0, 6960690.0 ], [ 137500.0, 6960670.0 ], [ 137300.0, 6960670.0 ], [ 137150.0, 6960520.0 ], [ 137080.0, 6960500.0 ], [ 136910.0, 6960360.0 ], [ 136880.0, 6960360.0 ], [ 136860.0, 6960340.0 ], [ 136740.0, 6960340.0 ], [ 136710.0, 6960320.0 ], [ 136660.0, 6960320.0 ], [ 136520.0, 6960180.0 ], [ 136460.0, 6960150.0 ], [ 136380.0, 6960150.0 ], [ 136320.0, 6960170.0 ], [ 136240.0, 6960150.0 ], [ 135970.0, 6960150.0 ], [ 135950.0, 6960170.0 ], [ 135820.0, 6960170.0 ], [ 135750.0, 6960190.0 ], [ 135450.0, 6960190.0 ], [ 135370.0, 6960210.0 ], [ 135320.0, 6960250.0 ], [ 135280.0, 6960260.0 ], [ 135160.0, 6960260.0 ], [ 135130.0, 6960230.0 ], [ 135080.0, 6960230.0 ], [ 135070.0, 6960220.0 ], [ 134090.0, 6960220.0 ], [ 134050.0, 6960200.0 ], [ 133750.0, 6960200.0 ], [ 133650.0, 6960170.0 ], [ 133550.0, 6960170.0 ], [ 133480.0, 6960190.0 ], [ 133350.0, 6960190.0 ], [ 133340.0, 6960200.0 ], [ 133220.0, 6960200.0 ], [ 133190.0, 6960170.0 ], [ 133150.0, 6960170.0 ], [ 133140.0, 6960160.0 ], [ 132900.0, 6960140.0 ], [ 132840.0, 6960080.0 ], [ 132770.0, 6960040.0 ], [ 132740.0, 6960040.0 ], [ 132710.0, 6960010.0 ], [ 132670.0, 6960010.0 ], [ 132620.0, 6959990.0 ], [ 132540.0, 6959940.0 ], [ 132470.0, 6959940.0 ], [ 132450.0, 6959950.0 ], [ 132420.0, 6959930.0 ] ] } }
]
}
