{
"type": "FeatureCollection",
"name": "multi_path_smooth_kjovskarstinden_24",
"crs": { "type": "name", "properties": { "name": "urn:ogc:def:crs:EPSG::25833" } },
"features": [
{ "type": "Feature", "properties": { "cat": 1 }, "geometry": { "type": "LineString", "coordinates": [ [ 138550.0, 6962280.0 ], [ 138470.0, 6962310.0 ], [ 138400.0, 6962370.0 ], [ 138180.0, 6962370.0 ], [ 138130.0, 6962350.0 ], [ 138030.0, 6962340.0 ], [ 137980.0, 6962290.0 ], [ 137980.0, 6962270.0 ], [ 138020.0, 6962210.0 ], [ 138030.0, 6962160.0 ], [ 137780.0, 6961930.0 ], [ 137650.0, 6961800.0 ], [ 137560.0, 6961690.0 ], [ 137550.0, 6961400.0 ], [ 137510.0, 6961330.0 ], [ 137510.0, 6961220.0 ], [ 137500.0, 6961190.0 ], [ 137340.0, 6961030.0 ], [ 137320.0, 6961030.0 ], [ 137260.0, 6960970.0 ], [ 137200.0, 6960970.0 ], [ 137180.0, 6960950.0 ], [ 137080.0, 6960940.0 ], [ 136910.0, 6960790.0 ], [ 136850.0, 6960770.0 ], [ 136780.0, 6960710.0 ], [ 136730.0, 6960700.0 ], [ 136640.0, 6960630.0 ], [ 136480.0, 6960620.0 ], [ 136440.0, 6960590.0 ], [ 136010.0, 6960580.0 ], [ 135940.0, 6960520.0 ], [ 135870.0, 6960520.0 ], [ 135800.0, 6960500.0 ], [ 135780.0, 6960480.0 ], [ 134970.0, 6960480.0 ], [ 134950.0, 6960500.0 ], [ 134830.0, 6960500.0 ], [ 134790.0, 6960520.0 ], [ 134220.0, 6960520.0 ], [ 134210.0, 6960530.0 ], [ 133960.0, 6960530.0 ], [ 133950.0, 6960520.0 ], [ 133910.0, 6960520.0 ], [ 133890.0, 6960540.0 ], [ 133780.0, 6960540.0 ], [ 133770.0, 6960550.0 ], [ 133630.0, 6960550.0 ], [ 133610.0, 6960540.0 ], [ 133560.0, 6960580.0 ], [ 133260.0, 6960580.0 ], [ 133250.0, 6960570.0 ], [ 133170.0, 6960570.0 ], [ 133160.0, 6960560.0 ], [ 133050.0, 6960560.0 ], [ 133010.0, 6960530.0 ], [ 132980.0, 6960530.0 ], [ 132950.0, 6960510.0 ], [ 132880.0, 6960510.0 ], [ 132860.0, 6960530.0 ], [ 132720.0, 6960520.0 ], [ 132610.0, 6960420.0 ], [ 132590.0, 6960420.0 ], [ 132560.0, 6960390.0 ], [ 132620.0, 6960330.0 ], [ 132570.0, 6960230.0 ], [ 132480.0, 6960150.0 ], [ 132480.0, 6960090.0 ], [ 132440.0, 6960040.0 ], [ 132420.0, 6959930.0 ] ] } }
]
}
