{
"type": "FeatureCollection",
"name": "multi_path_smooth_kjovskarstinden_37",
"crs": { "type": "name", "properties": { "name": "urn:ogc:def:crs:EPSG::25833" } },
"features": [
{ "type": "Feature", "properties": { "cat": 1 }, "geometry": { "type": "LineString", "coordinates": [ [ 138550.0, 6962280.0 ], [ 138540.0, 6962240.0 ], [ 138560.0, 6962200.0 ], [ 138560.0, 6962170.0 ], [ 138530.0, 6962120.0 ], [ 138480.0, 6962070.0 ], [ 138480.0, 6962030.0 ], [ 138460.0, 6962010.0 ], [ 138460.0, 6961980.0 ], [ 138400.0, 6961900.0 ], [ 138370.0, 6961760.0 ], [ 138310.0, 6961700.0 ], [ 138310.0, 6961670.0 ], [ 138290.0, 6961650.0 ], [ 138290.0, 6961600.0 ], [ 138260.0, 6961570.0 ], [ 138250.0, 6961510.0 ], [ 138220.0, 6961480.0 ], [ 138220.0, 6961260.0 ], [ 138200.0, 6961240.0 ], [ 138190.0, 6961180.0 ], [ 138110.0, 6961090.0 ], [ 138110.0, 6961030.0 ], [ 138050.0, 6960970.0 ], [ 138020.0, 6960970.0 ], [ 137990.0, 6960940.0 ], [ 137990.0, 6960910.0 ], [ 137800.0, 6960720.0 ], [ 137760.0, 6960720.0 ], [ 137750.0, 6960730.0 ], [ 137560.0, 6960730.0 ], [ 137540.0, 6960710.0 ], [ 137310.0, 6960710.0 ], [ 137170.0, 6960580.0 ], [ 136990.0, 6960580.0 ], [ 136930.0, 6960520.0 ], [ 136850.0, 6960490.0 ], [ 136730.0, 6960370.0 ], [ 136710.0, 6960370.0 ], [ 136580.0, 6960240.0 ], [ 136540.0, 6960220.0 ], [ 136510.0, 6960210.0 ], [ 136410.0, 6960210.0 ], [ 136360.0, 6960170.0 ], [ 136310.0, 6960190.0 ], [ 136260.0, 6960240.0 ], [ 135410.0, 6960240.0 ], [ 135400.0, 6960250.0 ], [ 135200.0, 6960250.0 ], [ 135160.0, 6960240.0 ], [ 135130.0, 6960200.0 ], [ 133050.0, 6960210.0 ], [ 133000.0, 6960180.0 ], [ 132930.0, 6960180.0 ], [ 132890.0, 6960150.0 ], [ 132730.0, 6960140.0 ], [ 132670.0, 6960080.0 ], [ 132600.0, 6960080.0 ], [ 132540.0, 6960030.0 ], [ 132520.0, 6960030.0 ], [ 132420.0, 6959930.0 ] ] } }
]
}
