{
"type": "FeatureCollection",
"name": "multi_path_smooth_kjovskarstinden_41",
"crs": { "type": "name", "properties": { "name": "urn:ogc:def:crs:EPSG::25833" } },
"features": [
{ "type": "Feature", "properties": { "cat": 1 }, "geometry": { "type": "LineString", "coordinates": [ [ 138550.0, 6962280.0 ], [ 138530.0, 6962280.0 ], [ 138460.0, 6962330.0 ], [ 138440.0, 6962330.0 ], [ 138390.0, 6962380.0 ], [ 138190.0, 6962370.0 ], [ 138130.0, 6962350.0 ], [ 138070.0, 6962350.0 ], [ 138020.0, 6962330.0 ], [ 137980.0, 6962290.0 ], [ 137980.0, 6962270.0 ], [ 138020.0, 6962220.0 ], [ 138030.0, 6962160.0 ], [ 137640.0, 6961760.0 ], [ 137640.0, 6961490.0 ], [ 137670.0, 6961460.0 ], [ 137670.0, 6961280.0 ], [ 137640.0, 6961230.0 ], [ 137640.0, 6961140.0 ], [ 137610.0, 6961110.0 ], [ 137580.0, 6961050.0 ], [ 137370.0, 6960820.0 ], [ 137300.0, 6960810.0 ], [ 137260.0, 6960780.0 ], [ 137210.0, 6960780.0 ], [ 137080.0, 6960650.0 ], [ 136990.0, 6960650.0 ], [ 136960.0, 6960620.0 ], [ 136930.0, 6960620.0 ], [ 136870.0, 6960560.0 ], [ 136750.0, 6960550.0 ], [ 136690.0, 6960500.0 ], [ 136630.0, 6960490.0 ], [ 136570.0, 6960450.0 ], [ 136480.0, 6960450.0 ], [ 136440.0, 6960410.0 ], [ 136120.0, 6960410.0 ], [ 136110.0, 6960400.0 ], [ 135980.0, 6960400.0 ], [ 135970.0, 6960390.0 ], [ 134850.0, 6960390.0 ], [ 134800.0, 6960340.0 ], [ 134710.0, 6960330.0 ], [ 134640.0, 6960270.0 ], [ 134130.0, 6960270.0 ], [ 134070.0, 6960250.0 ], [ 133740.0, 6960250.0 ], [ 133730.0, 6960260.0 ], [ 132950.0, 6960280.0 ], [ 132890.0, 6960230.0 ], [ 132810.0, 6960230.0 ], [ 132770.0, 6960190.0 ], [ 132720.0, 6960190.0 ], [ 132660.0, 6960130.0 ], [ 132630.0, 6960130.0 ], [ 132600.0, 6960100.0 ], [ 132550.0, 6960090.0 ], [ 132520.0, 6960040.0 ], [ 132420.0, 6959930.0 ] ] } }
]
}
