{
"type": "FeatureCollection",
"name": "multi_path_smooth_kjovskarstinden_09",
"crs": { "type": "name", "properties": { "name": "urn:ogc:def:crs:EPSG::25833" } },
"features": [
{ "type": "Feature", "properties": { "cat": 1 }, "geometry": { "type": "LineString", "coordinates": [ [ 138550.0, 6962280.0 ], [ 138540.0, 6962240.0 ], [ 138570.0, 6962170.0 ], [ 138590.0, 6962150.0 ], [ 138590.0, 6962070.0 ], [ 138630.0, 6962030.0 ], [ 138660.0, 6961960.0 ], [ 138710.0, 6961910.0 ], [ 138750.0, 6961840.0 ], [ 138890.0, 6961670.0 ], [ 138900.0, 6961600.0 ], [ 138940.0, 6961540.0 ], [ 138940.0, 6961470.0 ], [ 138960.0, 6961430.0 ], [ 138960.0, 6961370.0 ], [ 138840.0, 6961240.0 ], [ 138800.0, 6961240.0 ], [ 138780.0, 6961220.0 ], [ 138580.0, 6961220.0 ], [ 138480.0, 6961120.0 ], [ 138480.0, 6961050.0 ], [ 138430.0, 6961000.0 ], [ 138430.0, 6960940.0 ], [ 138420.0, 6960930.0 ], [ 138430.0, 6960820.0 ], [ 138390.0, 6960780.0 ], [ 138400.0, 6960570.0 ], [ 138280.0, 6960450.0 ], [ 138160.0, 6960440.0 ], [ 138150.0, 6960430.0 ], [ 137860.0, 6960440.0 ], [ 137850.0, 6960450.0 ], [ 137420.0, 6960450.0 ], [ 137340.0, 6960430.0 ], [ 137140.0, 6960430.0 ], [ 137110.0, 6960410.0 ], [ 137070.0, 6960410.0 ], [ 137020.0, 6960380.0 ], [ 136970.0, 6960380.0 ], [ 136910.0, 6960340.0 ], [ 136860.0, 6960340.0 ], [ 136810.0, 6960300.0 ], [ 136790.0, 6960300.0 ], [ 136770.0, 6960280.0 ], [ 136740.0, 6960280.0 ], [ 136710.0, 6960250.0 ], [ 136630.0, 6960220.0 ], [ 136540.0, 6960140.0 ], [ 136500.0, 6960140.0 ], [ 136390.0, 6960100.0 ], [ 136310.0, 6960090.0 ], [ 136280.0, 6960080.0 ], [ 136220.0, 6960030.0 ], [ 136160.0, 6960030.0 ], [ 136150.0, 6960020.0 ], [ 136090.0, 6960020.0 ], [ 136080.0, 6960030.0 ], [ 135780.0, 6960030.0 ], [ 135720.0, 6960050.0 ], [ 135700.0, 6960070.0 ], [ 135510.0, 6960080.0 ], [ 135420.0, 6960110.0 ], [ 135290.0, 6960110.0 ], [ 135230.0, 6960130.0 ], [ 135160.0, 6960130.0 ], [ 135140.0, 6960150.0 ], [ 135070.0, 6960150.0 ], [ 135060.0, 6960160.0 ], [ 134630.0, 6960160.0 ], [ 134580.0, 6960130.0 ], [ 134240.0, 6960110.0 ], [ 134220.0, 6960090.0 ], [ 134170.0, 6960080.0 ], [ 134150.0, 6960060.0 ], [ 134050.0, 6960050.0 ], [ 133910.0, 6959910.0 ], [ 133700.0, 6959920.0 ], [ 133640.0, 6959950.0 ], [ 133570.0, 6959950.0 ], [ 133500.0, 6959970.0 ], [ 133460.0, 6959960.0 ], [ 133380.0, 6959980.0 ], [ 133350.0, 6960010.0 ], [ 133290.0, 6960020.0 ], [ 133220.0, 6960070.0 ], [ 133170.0, 6960060.0 ], [ 133090.0, 6959980.0 ], [ 133100.0, 6959900.0 ], [ 133000.0, 6959840.0 ], [ 132880.0, 6959830.0 ], [ 132850.0, 6959850.0 ], [ 132730.0, 6959880.0 ], [ 132630.0, 6959980.0 ], [ 132610.0, 6959980.0 ], [ 132540.0, 6959940.0 ], [ 132470.0, 6959940.0 ], [ 132450.0, 6959950.0 ], [ 132420.0, 6959930.0 ] ] } }
]
}
