{
"type": "FeatureCollection",
"name": "multi_path_smooth_kjovskarstinden_45",
"crs": { "type": "name", "properties": { "name": "urn:ogc:def:crs:EPSG::25833" } },
"features": [
{ "type": "Feature", "properties": { "cat": 1 }, "geometry": { "type": "LineString", "coordinates": [ [ 138550.0, 6962280.0 ], [ 138540.0, 6962240.0 ], [ 138580.0, 6962150.0 ], [ 138570.0, 6962020.0 ], [ 138340.0, 6961780.0 ], [ 138340.0, 6961750.0 ], [ 138310.0, 6961710.0 ], [ 138310.0, 6961670.0 ], [ 138290.0, 6961650.0 ], [ 138280.0, 6961560.0 ], [ 138260.0, 6961520.0 ], [ 138220.0, 6961480.0 ], [ 138210.0, 6961440.0 ], [ 138180.0, 6961410.0 ], [ 138180.0, 6961290.0 ], [ 138150.0, 6961260.0 ], [ 138130.0, 6961180.0 ], [ 138100.0, 6961150.0 ], [ 138090.0, 6961020.0 ], [ 138010.0, 6960930.0 ], [ 138010.0, 6960910.0 ], [ 137870.0, 6960770.0 ], [ 137790.0, 6960710.0 ], [ 137650.0, 6960700.0 ], [ 137590.0, 6960670.0 ], [ 137550.0, 6960630.0 ], [ 137480.0, 6960620.0 ], [ 137440.0, 6960600.0 ], [ 137250.0, 6960600.0 ], [ 137240.0, 6960590.0 ], [ 137200.0, 6960590.0 ], [ 137150.0, 6960560.0 ], [ 137030.0, 6960550.0 ], [ 136920.0, 6960450.0 ], [ 136880.0, 6960450.0 ], [ 136730.0, 6960300.0 ], [ 136690.0, 6960300.0 ], [ 136550.0, 6960160.0 ], [ 136490.0, 6960140.0 ], [ 136430.0, 6960080.0 ], [ 136400.0, 6960080.0 ], [ 136330.0, 6960010.0 ], [ 136280.0, 6960010.0 ], [ 136260.0, 6959990.0 ], [ 135830.0, 6959990.0 ], [ 135770.0, 6960030.0 ], [ 135530.0, 6960040.0 ], [ 135510.0, 6960060.0 ], [ 135270.0, 6960060.0 ], [ 135260.0, 6960070.0 ], [ 135060.0, 6960070.0 ], [ 135050.0, 6960080.0 ], [ 134580.0, 6960080.0 ], [ 134570.0, 6960070.0 ], [ 133900.0, 6960070.0 ], [ 133890.0, 6960060.0 ], [ 133850.0, 6960060.0 ], [ 133830.0, 6960040.0 ], [ 133770.0, 6960040.0 ], [ 133690.0, 6959970.0 ], [ 133410.0, 6959970.0 ], [ 133380.0, 6959980.0 ], [ 133350.0, 6960010.0 ], [ 133320.0, 6960010.0 ], [ 133300.0, 6960030.0 ], [ 133240.0, 6960050.0 ], [ 133220.0, 6960070.0 ], [ 133190.0, 6960070.0 ], [ 133130.0, 6960010.0 ], [ 133110.0, 6960010.0 ], [ 133080.0, 6959980.0 ], [ 133060.0, 6959980.0 ], [ 132960.0, 6959890.0 ], [ 132940.0, 6959890.0 ], [ 132900.0, 6959860.0 ], [ 132860.0, 6959860.0 ], [ 132850.0, 6959850.0 ], [ 132760.0, 6959880.0 ], [ 132720.0, 6959880.0 ], [ 132650.0, 6959840.0 ], [ 132600.0, 6959830.0 ], [ 132560.0, 6959870.0 ], [ 132490.0, 6959880.0 ], [ 132420.0, 6959930.0 ] ] } }
]
}
