{
"type": "FeatureCollection",
"name": "multi_path_smooth_kjovskarstinden_18",
"crs": { "type": "name", "properties": { "name": "urn:ogc:def:crs:EPSG::25833" } },
"features": [
{ "type": "Feature", "properties": { "cat": 1 }, "geometry": { "type": "LineString", "coordinates": [ [ 138550.0, 6962280.0 ], [ 138540.0, 6962260.0 ], [ 138550.0, 6962210.0 ], [ 138600.0, 6962140.0 ], [ 138590.0, 6962070.0 ], [ 138630.0, 6962030.0 ], [ 138630.0, 6961990.0 ], [ 138790.0, 6961810.0 ], [ 138790.0, 6961780.0 ], [ 138880.0, 6961680.0 ], [ 138880.0, 6961630.0 ], [ 138900.0, 6961580.0 ], [ 138930.0, 6961550.0 ], [ 138930.0, 6961450.0 ], [ 138900.0, 6961420.0 ], [ 138900.0, 6961310.0 ], [ 138840.0, 6961250.0 ], [ 138790.0, 6961230.0 ], [ 138650.0, 6961230.0 ], [ 138590.0, 6961190.0 ], [ 138530.0, 6961180.0 ], [ 138480.0, 6961130.0 ], [ 138480.0, 6961060.0 ], [ 138420.0, 6961000.0 ], [ 138410.0, 6960880.0 ], [ 138430.0, 6960850.0 ], [ 138430.0, 6960820.0 ], [ 138390.0, 6960780.0 ], [ 138390.0, 6960650.0 ], [ 138410.0, 6960630.0 ], [ 138410.0, 6960570.0 ], [ 138310.0, 6960470.0 ], [ 138150.0, 6960460.0 ], [ 138130.0, 6960440.0 ], [ 138000.0, 6960440.0 ], [ 137990.0, 6960450.0 ], [ 137530.0, 6960440.0 ], [ 137500.0, 6960410.0 ], [ 137450.0, 6960380.0 ], [ 137430.0, 6960380.0 ], [ 137410.0, 6960360.0 ], [ 137320.0, 6960360.0 ], [ 137290.0, 6960330.0 ], [ 137230.0, 6960330.0 ], [ 137160.0, 6960290.0 ], [ 137090.0, 6960280.0 ], [ 137050.0, 6960250.0 ], [ 136920.0, 6960250.0 ], [ 136890.0, 6960220.0 ], [ 136870.0, 6960220.0 ], [ 136760.0, 6960120.0 ], [ 136430.0, 6960120.0 ], [ 136420.0, 6960110.0 ], [ 136360.0, 6960110.0 ], [ 136290.0, 6960080.0 ], [ 136230.0, 6960020.0 ], [ 135610.0, 6960020.0 ], [ 135600.0, 6960030.0 ], [ 135470.0, 6960030.0 ], [ 135440.0, 6960040.0 ], [ 135410.0, 6960070.0 ], [ 135340.0, 6960070.0 ], [ 135240.0, 6960100.0 ], [ 135210.0, 6960120.0 ], [ 135120.0, 6960130.0 ], [ 135080.0, 6960170.0 ], [ 134580.0, 6960170.0 ], [ 134570.0, 6960180.0 ], [ 133620.0, 6960180.0 ], [ 133610.0, 6960170.0 ], [ 133470.0, 6960170.0 ], [ 133460.0, 6960180.0 ], [ 133240.0, 6960180.0 ], [ 133230.0, 6960170.0 ], [ 133140.0, 6960170.0 ], [ 133130.0, 6960160.0 ], [ 133060.0, 6960160.0 ], [ 133050.0, 6960150.0 ], [ 132980.0, 6960150.0 ], [ 132920.0, 6960130.0 ], [ 132810.0, 6960120.0 ], [ 132760.0, 6960090.0 ], [ 132680.0, 6960010.0 ], [ 132600.0, 6959980.0 ], [ 132570.0, 6959950.0 ], [ 132540.0, 6959940.0 ], [ 132470.0, 6959940.0 ], [ 132460.0, 6959950.0 ], [ 132420.0, 6959930.0 ] ] } }
]
}
