{
"type": "FeatureCollection",
"name": "sore_klauva_02_wgs84",
"crs": { "type": "name", "properties": { "name": "urn:ogc:def:crs:OGC:1.3:CRS84" } },
"features": [
{ "type": "Feature", "properties": { "cat": 1 }, "geometry": { "type": "LineString", "coordinates": [ [ 7.877644363904238, 62.616137403443325 ], [ 7.876032603266296, 62.614702601386178 ], [ 7.873948455278725, 62.613604267208707 ], [ 7.871606715449468, 62.612763205823448 ], [ 7.871026694641032, 62.612733534769305 ], [ 7.870489620068743, 62.612525734071916 ], [ 7.869329591862766, 62.61246638044409 ], [ 7.86767548171351, 62.612021079735065 ], [ 7.86670881353057, 62.611971599844949 ], [ 7.866493996553638, 62.612050765930441 ], [ 7.864195493341786, 62.61184292101219 ], [ 7.863357689877942, 62.6120705052505 ], [ 7.86026438859875, 62.611912050776056 ], [ 7.859899232025251, 62.61180317760406 ], [ 7.859040116700235, 62.611308337127376 ], [ 7.858288322711829, 62.611179645054747 ], [ 7.85691382379408, 62.610387883037639 ], [ 7.856956845557046, 62.610209760997947 ], [ 7.856613233924246, 62.610011818660631 ], [ 7.856656256797702, 62.609833696728444 ], [ 7.856033588902576, 62.609170627405717 ], [ 7.854487453096558, 62.608279871565337 ], [ 7.852962545835978, 62.608111497303703 ], [ 7.851588329635752, 62.607319686640672 ], [ 7.846197621426965, 62.606952844598744 ], [ 7.843793205275278, 62.605567056699307 ], [ 7.843836296784607, 62.605388939654212 ], [ 7.839714980463425, 62.60301321543092 ], [ 7.839135190300288, 62.602983414912849 ], [ 7.837203372054684, 62.602072610620546 ], [ 7.836108532974012, 62.601745815723604 ], [ 7.83570130429348, 62.601003544822014 ], [ 7.834714364000257, 62.600231454902101 ], [ 7.834585826257793, 62.599954344659878 ], [ 7.834779935129287, 62.59915283332893 ], [ 7.835510598482407, 62.598559252069215 ], [ 7.835403623813547, 62.598193085572532 ], [ 7.835533006630921, 62.597658743639222 ], [ 7.835747796468117, 62.597579624865787 ], [ 7.835899562640677, 62.596144773781518 ], [ 7.834376264941846, 62.595164755294427 ], [ 7.83321700546291, 62.59510511182976 ], [ 7.832873724688023, 62.594907115519085 ], [ 7.832896203017223, 62.594006608460731 ], [ 7.832038045717921, 62.593511614731909 ], [ 7.832295952080805, 62.593254388198012 ], [ 7.832210601114697, 62.592799163562134 ], [ 7.833112775305363, 62.592304592167565 ], [ 7.8344012963665, 62.591829893954603 ], [ 7.8345306620657, 62.591295552708246 ], [ 7.835454308453665, 62.590711908063561 ], [ 7.835368913693855, 62.590256684761151 ], [ 7.836184739718257, 62.590118320093168 ], [ 7.83646413260081, 62.589772027689961 ], [ 7.836207104582181, 62.589217810942891 ], [ 7.833461347363124, 62.58763388232947 ], [ 7.833419990479356, 62.586189093912523 ] ] } }
]
}
