{
"type": "FeatureCollection",
"name": "sore_klauva_01_wgs84",
"crs": { "type": "name", "properties": { "name": "urn:ogc:def:crs:OGC:1.3:CRS84" } },
"features": [
{ "type": "Feature", "properties": { "cat": 1 }, "geometry": { "type": "LineString", "coordinates": [ [ 7.877644363904238, 62.616137403443325 ], [ 7.876032603266296, 62.614702601386178 ], [ 7.873948455278725, 62.613604267208707 ], [ 7.871606715449468, 62.612763205823448 ], [ 7.871026694641032, 62.612733534769305 ], [ 7.870489620068743, 62.612525734071916 ], [ 7.869329591862766, 62.61246638044409 ], [ 7.867868815788151, 62.612030974915172 ], [ 7.866902146875107, 62.6119814963549 ], [ 7.866687330322322, 62.612060662743872 ], [ 7.864195493341786, 62.61184292101219 ], [ 7.86333619653863, 62.612159567495915 ], [ 7.859856224967408, 62.61198130074947 ], [ 7.859491069124752, 62.611872426518943 ], [ 7.85691382379408, 62.610387883037639 ], [ 7.856978356219222, 62.610120699970089 ], [ 7.856484453539052, 62.60973472532995 ], [ 7.8565274766753, 62.609556603440865 ], [ 7.854294149071213, 62.60826995824717 ], [ 7.853542453569704, 62.608141241931897 ], [ 7.852168220181031, 62.607349436749061 ], [ 7.850256784896174, 62.607161200659419 ], [ 7.849548196125042, 62.606854343983755 ], [ 7.848581734253225, 62.606804741279333 ], [ 7.848409975510543, 62.606705760539867 ], [ 7.846090490540041, 62.606586684189359 ], [ 7.840423374941941, 62.603320119421305 ], [ 7.836108532974012, 62.601745815723604 ], [ 7.83570130429348, 62.601003544822014 ], [ 7.834714364000257, 62.600231454902101 ], [ 7.834585826257793, 62.599954344659878 ], [ 7.834779935129287, 62.59915283332893 ], [ 7.835510598482407, 62.598559252069215 ], [ 7.835382059497887, 62.598282142542665 ], [ 7.835533006630921, 62.597658743639222 ], [ 7.835747796468117, 62.597579624865787 ], [ 7.835856440601487, 62.596322887962749 ], [ 7.836758666480171, 62.595828293686587 ], [ 7.83684489734841, 62.595472064572213 ], [ 7.836673241946503, 62.595373070784085 ], [ 7.83590039239967, 62.595333322142025 ], [ 7.835557090737651, 62.595135332153404 ], [ 7.83321700546291, 62.59510511182976 ], [ 7.832745224147073, 62.594630004083257 ], [ 7.832896203017223, 62.594006608460731 ], [ 7.832038045717921, 62.593511614731909 ], [ 7.832274383005623, 62.593343444623834 ], [ 7.832189032202907, 62.592888219977091 ], [ 7.832661691991216, 62.592551878646233 ], [ 7.834186545702009, 62.591909011189244 ], [ 7.834315915694681, 62.591374670200821 ], [ 7.835454308453665, 62.590711908063561 ], [ 7.835368913693855, 62.590256684761151 ], [ 7.836399471975226, 62.590039199529336 ], [ 7.83646413260081, 62.589772027689961 ], [ 7.836207104582181, 62.589217810942891 ], [ 7.833461347363124, 62.58763388232947 ], [ 7.833419990479356, 62.586189093912523 ] ] } }
]
}
