{
"type": "FeatureCollection",
"name": "sore_klauva_03_wgs84",
"crs": { "type": "name", "properties": { "name": "urn:ogc:def:crs:OGC:1.3:CRS84" } },
"features": [
{ "type": "Feature", "properties": { "cat": 1 }, "geometry": { "type": "LineString", "coordinates": [ [ 7.877644363904238, 62.616137403443325 ], [ 7.876032603266296, 62.614702601386178 ], [ 7.873948455278725, 62.613604267208707 ], [ 7.871606715449468, 62.612763205823448 ], [ 7.871026694641032, 62.612733534769305 ], [ 7.870296281669487, 62.612515842465562 ], [ 7.869329591862766, 62.61246638044409 ], [ 7.86767548171351, 62.612021079735065 ], [ 7.866902146875107, 62.6119814963549 ], [ 7.866687330322322, 62.612060662743872 ], [ 7.864195493341786, 62.61184292101219 ], [ 7.863121369487035, 62.61223872825105 ], [ 7.859641390283543, 62.612060456041853 ], [ 7.857235931429562, 62.610674885795362 ], [ 7.857300461750228, 62.610407702550525 ], [ 7.856978356219222, 62.610120699970089 ], [ 7.856892593138571, 62.609665484895864 ], [ 7.856377187176919, 62.609368570990284 ], [ 7.856463232805281, 62.609012327255662 ], [ 7.853027489148287, 62.607032858680498 ], [ 7.852447603686497, 62.607003112213626 ], [ 7.851717471982154, 62.606785326450563 ], [ 7.846498608649548, 62.606517473876188 ], [ 7.845983362016006, 62.606220523729355 ], [ 7.845210214745932, 62.606180822642337 ], [ 7.840101507971227, 62.603033081113821 ], [ 7.839714980463425, 62.60301321543092 ], [ 7.836108532974012, 62.601745815723604 ], [ 7.83570130429348, 62.601003544822014 ], [ 7.834714364000257, 62.600231454902101 ], [ 7.834585826257793, 62.599954344659878 ], [ 7.834779935129287, 62.59915283332893 ], [ 7.835510598482407, 62.598559252069215 ], [ 7.835403623813547, 62.598193085572532 ], [ 7.835533006630921, 62.597658743639222 ], [ 7.835747796468117, 62.597579624865787 ], [ 7.835856440601487, 62.596322887962749 ], [ 7.836758666480171, 62.595828293686587 ], [ 7.83684489734841, 62.595472064572213 ], [ 7.836673241946503, 62.595373070784085 ], [ 7.83590039239967, 62.595333322142025 ], [ 7.835557090737651, 62.595135332153404 ], [ 7.83302379606254, 62.59509517032226 ], [ 7.832745224147073, 62.594630004083257 ], [ 7.832896203017223, 62.594006608460731 ], [ 7.832038045717921, 62.593511614731909 ], [ 7.832295952080805, 62.593254388198012 ], [ 7.832189032202907, 62.592888219977091 ], [ 7.833327531661266, 62.592225476664559 ], [ 7.834616045892727, 62.591750776373623 ], [ 7.834788526595521, 62.591038320991764 ], [ 7.835454308453665, 62.590711908063561 ], [ 7.835540536118507, 62.590355679706946 ], [ 7.836399471975226, 62.590039199529336 ], [ 7.83646413260081, 62.589772027689961 ], [ 7.836207104582181, 62.589217810942891 ], [ 7.833461347363124, 62.58763388232947 ], [ 7.833419990479356, 62.586189093912523 ] ] } }
]
}
