{
"type": "FeatureCollection",
"name": "sore_klauva_15_wgs84",
"crs": { "type": "name", "properties": { "name": "urn:ogc:def:crs:OGC:1.3:CRS84" } },
"features": [
{ "type": "Feature", "properties": { "cat": 1 }, "geometry": { "type": "LineString", "coordinates": [ [ 7.877644363904238, 62.616137403443325 ], [ 7.876376400088734, 62.614900498381175 ], [ 7.875302104220102, 62.614484934130964 ], [ 7.87358322568317, 62.613495428871794 ], [ 7.872852774648541, 62.613277749439597 ], [ 7.872165270023242, 62.612881938437674 ], [ 7.871391905204953, 62.612842379542158 ], [ 7.870296281669487, 62.612515842465562 ], [ 7.868942916961942, 62.612446593773633 ], [ 7.86784733600098, 62.612120038039038 ], [ 7.864925843175984, 62.612060644404174 ], [ 7.863636892712088, 62.612535618821333 ], [ 7.859963541890004, 62.612347453095275 ], [ 7.859619885819057, 62.612149517563708 ], [ 7.8588465612575, 62.612109889664694 ], [ 7.856956565913426, 62.611021220160922 ], [ 7.857042610668197, 62.610664976059262 ], [ 7.856870801446269, 62.610566005056022 ], [ 7.857279490138628, 62.60887384502049 ], [ 7.853650411392379, 62.606884481918392 ], [ 7.852770020433795, 62.606478666523458 ], [ 7.849290794222062, 62.606300146312066 ], [ 7.848195662609277, 62.60597344234187 ], [ 7.846649375764483, 62.605894060513741 ], [ 7.84594085497465, 62.605587186434363 ], [ 7.845167724244556, 62.605547485336523 ], [ 7.844824245276603, 62.605349515760587 ], [ 7.844244403063205, 62.605319735776021 ], [ 7.840123062525257, 62.602944023282362 ], [ 7.838834897544453, 62.602607316267246 ], [ 7.837868596393196, 62.602557641514849 ], [ 7.835979976456706, 62.601468706511994 ], [ 7.835916118507078, 62.600924426122191 ], [ 7.835057716735619, 62.600429447658598 ], [ 7.834757500071069, 62.600053341267326 ], [ 7.83529750076344, 62.597015467659332 ], [ 7.833430885541897, 62.59583744715782 ], [ 7.833474021211319, 62.595659333912387 ], [ 7.832787448343262, 62.595263341557562 ], [ 7.832830586808694, 62.595085228549017 ], [ 7.832122464688903, 62.594778289697601 ], [ 7.832165606243101, 62.594600176936709 ], [ 7.831822338284804, 62.594402178211979 ], [ 7.832210601114697, 62.592799163562134 ], [ 7.833091209549206, 62.592393648765253 ], [ 7.833457807482418, 62.59087968587616 ], [ 7.835583649072417, 62.590177565496489 ], [ 7.835970006323153, 62.590197440310703 ], [ 7.836614203094061, 62.589960078619249 ], [ 7.836678861573291, 62.589692906650932 ], [ 7.836550344718762, 62.589415798495835 ], [ 7.834512529915967, 62.58813880450743 ], [ 7.83423399279786, 62.587673641708406 ], [ 7.833719187166126, 62.587376652250846 ], [ 7.833419990479356, 62.586189093912523 ] ] } }
]
}
