{
"type": "FeatureCollection",
"name": "sore_klauva_14_wgs84",
"crs": { "type": "name", "properties": { "name": "urn:ogc:def:crs:OGC:1.3:CRS84" } },
"features": [
{ "type": "Feature", "properties": { "cat": 1 }, "geometry": { "type": "LineString", "coordinates": [ [ 7.877644363904238, 62.616137403443325 ], [ 7.87682773648553, 62.61546453689806 ], [ 7.876548300211, 62.614999446584029 ], [ 7.87467892262635, 62.613821941124087 ], [ 7.874098877268025, 62.613792282511731 ], [ 7.873067584363254, 62.613198573464359 ], [ 7.872487553209448, 62.613168908344349 ], [ 7.871606715449468, 62.612763205823448 ], [ 7.86784733600098, 62.612120038039038 ], [ 7.864174002721384, 62.611931983423617 ], [ 7.863529529680749, 62.612169468677394 ], [ 7.86004955547913, 62.611991206718301 ], [ 7.857472271556982, 62.610506673032546 ], [ 7.856699279086322, 62.609655574774926 ], [ 7.856012076282386, 62.609259688261595 ], [ 7.856098125885877, 62.608903444806032 ], [ 7.851782041180621, 62.606518146283499 ], [ 7.848302817878109, 62.60633960146621 ], [ 7.848131062685315, 62.606240620431343 ], [ 7.847164623762366, 62.606191008219049 ], [ 7.846821123957483, 62.605993043278218 ], [ 7.844888271412851, 62.605893794347267 ], [ 7.839736536156749, 62.602924157674721 ], [ 7.838791781193845, 62.602785431430163 ], [ 7.837933278364686, 62.602290469294772 ], [ 7.836838422976556, 62.601963679906298 ], [ 7.837485259512552, 62.599291961348399 ], [ 7.837356699215109, 62.599014853352493 ], [ 7.835790085025786, 62.598212962302114 ], [ 7.836221317799257, 62.596431820269473 ], [ 7.836092780077972, 62.59615471141359 ], [ 7.833926029345067, 62.594600594474443 ], [ 7.834443555817004, 62.592463231412864 ], [ 7.83508781474035, 62.592225877623726 ], [ 7.835432751171399, 62.590800965139337 ], [ 7.835647490420309, 62.590721845829258 ], [ 7.835755271789902, 62.590276560181955 ], [ 7.836421025663483, 62.589950142254892 ], [ 7.836249402490221, 62.589851148382692 ], [ 7.836357170848885, 62.589405862091539 ], [ 7.834834189557396, 62.588425852900308 ], [ 7.834878146834185, 62.587436287454132 ], [ 7.834191738087094, 62.587040304242699 ], [ 7.834299524314489, 62.586595019782486 ], [ 7.833419990479356, 62.586189093912523 ] ] } }
]
}
