{
"type": "FeatureCollection",
"name": "sore_klauva_11_wgs84",
"crs": { "type": "name", "properties": { "name": "urn:ogc:def:crs:OGC:1.3:CRS84" } },
"features": [
{ "type": "Feature", "properties": { "cat": 1 }, "geometry": { "type": "LineString", "coordinates": [ [ 7.877644363904238, 62.616137403443325 ], [ 7.87682773648553, 62.61546453689806 ], [ 7.876397856867855, 62.614811433634436 ], [ 7.87467892262635, 62.613821941124087 ], [ 7.874292225574902, 62.613802168981849 ], [ 7.873067584363254, 62.613198573464359 ], [ 7.872487553209448, 62.613168908344349 ], [ 7.871606715449468, 62.612763205823448 ], [ 7.870833354663451, 62.612723643885971 ], [ 7.870296281669487, 62.612515842465562 ], [ 7.869522929532155, 62.612476273380345 ], [ 7.86767548171351, 62.612021079735065 ], [ 7.866515480332061, 62.611961703069007 ], [ 7.86630066293099, 62.612040868851054 ], [ 7.864388824787621, 62.611852820979756 ], [ 7.863314703053218, 62.612248629735994 ], [ 7.85983472121924, 62.612070362314164 ], [ 7.851545281016699, 62.60749780666135 ], [ 7.851180211294137, 62.607388911843479 ], [ 7.847915720093082, 62.607131213715711 ], [ 7.8475722046566, 62.606933250412943 ], [ 7.846047410332003, 62.606764802083781 ], [ 7.842956087296085, 62.604983064780441 ], [ 7.842849002178255, 62.604616902501633 ], [ 7.839758091703598, 62.602835099913172 ], [ 7.838813339442394, 62.60269637385138 ], [ 7.838469935739277, 62.60249838964954 ], [ 7.837718459202502, 62.602369591034133 ], [ 7.835829856450585, 62.60128065423153 ], [ 7.835916118507078, 62.600924426122191 ], [ 7.834714364000257, 62.600231454902101 ], [ 7.834757500071069, 62.600053341267326 ], [ 7.834414153583495, 62.599855347856554 ], [ 7.834780800899664, 62.598341382194 ], [ 7.834437473346885, 62.598143389097629 ], [ 7.834588439383355, 62.59751999147408 ], [ 7.83383799428916, 62.596579723065901 ], [ 7.833924262898747, 62.596223496273282 ], [ 7.8332376712942, 62.595827505880621 ], [ 7.832937520822671, 62.595451396468498 ], [ 7.83302379606254, 62.59509517032226 ], [ 7.832745224147073, 62.594630004083257 ], [ 7.832917770841189, 62.593917551921798 ], [ 7.832746137527192, 62.593818553599888 ], [ 7.832897111151614, 62.593195157903459 ], [ 7.833111874664098, 62.593116042830452 ], [ 7.833672552388864, 62.590800569685236 ], [ 7.835583649072417, 62.590177565496489 ], [ 7.835970006323153, 62.590197440310703 ], [ 7.836399471975226, 62.590039199529336 ], [ 7.836507238952568, 62.589593913103606 ], [ 7.836035486220983, 62.589118816872748 ], [ 7.833847669787646, 62.587653762550232 ], [ 7.833956330993115, 62.586397027325113 ], [ 7.833419990479356, 62.586189093912523 ] ] } }
]
}
