{
"type": "FeatureCollection",
"name": "sore_klauva_10_wgs84",
"crs": { "type": "name", "properties": { "name": "urn:ogc:def:crs:OGC:1.3:CRS84" } },
"features": [
{ "type": "Feature", "properties": { "cat": 1 }, "geometry": { "type": "LineString", "coordinates": [ [ 7.877644363904238, 62.616137403443325 ], [ 7.87669874539796, 62.615187459396175 ], [ 7.873239463662695, 62.613297525463224 ], [ 7.872852774648541, 62.613277749439597 ], [ 7.871971928599762, 62.612872049112781 ], [ 7.871391905204953, 62.612842379542158 ], [ 7.870296281669487, 62.612515842465562 ], [ 7.869329591862766, 62.61246638044409 ], [ 7.868040670791814, 62.612129932990676 ], [ 7.860479220578088, 62.611832894487485 ], [ 7.859963741515765, 62.611535992846008 ], [ 7.858653465558763, 62.61128852225773 ], [ 7.857278951789542, 62.610496763637478 ], [ 7.857408009360633, 62.609962397035865 ], [ 7.857107417121975, 62.609586333691055 ], [ 7.857171945599665, 62.609319150479564 ], [ 7.85667805304665, 62.608933176661139 ], [ 7.856742583584209, 62.608665993675601 ], [ 7.854509311067188, 62.607379352669916 ], [ 7.8541227148538, 62.607359525986944 ], [ 7.852920273313348, 62.606666702365196 ], [ 7.848861153668848, 62.606458424415599 ], [ 7.847422518016065, 62.605933753554815 ], [ 7.84510309828716, 62.605814661669733 ], [ 7.844416139828877, 62.605418721346773 ], [ 7.843492828689904, 62.605190966947106 ], [ 7.839693424623628, 62.603102273181783 ], [ 7.839113632751548, 62.603072472550842 ], [ 7.838426817403154, 62.60267650467263 ], [ 7.837460514868803, 62.602626827073834 ], [ 7.837117121191391, 62.602428839677309 ], [ 7.837181809558635, 62.602161667892766 ], [ 7.836666731394279, 62.60186468561924 ], [ 7.836108532974012, 62.601745815723604 ], [ 7.835872987771888, 62.601102540187576 ], [ 7.835186260692665, 62.600706557550147 ], [ 7.834843770454211, 62.599697113933537 ], [ 7.835059436154824, 62.598806545224207 ], [ 7.835510598482407, 62.598559252069215 ], [ 7.835856440601487, 62.596322887962749 ], [ 7.836758666480171, 62.595828293686587 ], [ 7.83684489734841, 62.595472064572213 ], [ 7.836673241946503, 62.595373070784085 ], [ 7.83590039239967, 62.595333322142025 ], [ 7.835557090737651, 62.595135332153404 ], [ 7.834977459409961, 62.595105516512994 ], [ 7.833775954487888, 62.594412540594604 ], [ 7.834250363053612, 62.592453291831745 ], [ 7.835109374365587, 62.592136820633613 ], [ 7.835432751171399, 62.590800965139337 ], [ 7.835647490420309, 62.590721845829258 ], [ 7.835755271789902, 62.590276560181955 ], [ 7.836184739718257, 62.590118320093168 ], [ 7.83646413260081, 62.589772027689961 ], [ 7.83567069798965, 62.589009885290359 ], [ 7.833611388660743, 62.587821936093789 ], [ 7.833311307902007, 62.587445828428592 ], [ 7.833591583580269, 62.586288090858517 ], [ 7.833419990479356, 62.586189093912523 ] ] } }
]
}
