{
"type": "FeatureCollection",
"name": "sore_klauva_09_wgs84",
"crs": { "type": "name", "properties": { "name": "urn:ogc:def:crs:OGC:1.3:CRS84" } },
"features": [
{ "type": "Feature", "properties": { "cat": 1 }, "geometry": { "type": "LineString", "coordinates": [ [ 7.877644363904238, 62.616137403443325 ], [ 7.87682773648553, 62.61546453689806 ], [ 7.876548300211, 62.614999446584029 ], [ 7.876032603266296, 62.614702601386178 ], [ 7.873948455278725, 62.613604267208707 ], [ 7.873239463662695, 62.613297525463224 ], [ 7.872487553209448, 62.613168908344349 ], [ 7.871606715449468, 62.612763205823448 ], [ 7.870833354663451, 62.612723643885971 ], [ 7.870296281669487, 62.612515842465562 ], [ 7.869329591862766, 62.61246638044409 ], [ 7.86767548171351, 62.612021079735065 ], [ 7.864560666899449, 62.611951783167775 ], [ 7.863293209421702, 62.612337691970765 ], [ 7.859619885819057, 62.612149517563708 ], [ 7.857214421030256, 62.610763946866321 ], [ 7.857064121491359, 62.610575915020512 ], [ 7.857214693159692, 62.609952487600097 ], [ 7.857085907337019, 62.609675394750894 ], [ 7.856570499226711, 62.609378481530442 ], [ 7.856506254742226, 62.608834205356388 ], [ 7.852898753666415, 62.606755762646259 ], [ 7.847486592522971, 62.606478031604716 ], [ 7.847143087312561, 62.606280067383594 ], [ 7.845596788088187, 62.606200673717595 ], [ 7.840123062525257, 62.602944023282362 ], [ 7.8395432731922, 62.602914224472144 ], [ 7.838834897544453, 62.602607316267246 ], [ 7.838255116414208, 62.60257751221328 ], [ 7.837568323850722, 62.602181540416723 ], [ 7.837010115698004, 62.602062673997487 ], [ 7.835829856450585, 62.60128065423153 ], [ 7.834585826257793, 62.599954344659878 ], [ 7.834779935129287, 62.59915283332893 ], [ 7.835510598482407, 62.598559252069215 ], [ 7.835403623813547, 62.598193085572532 ], [ 7.835834879362179, 62.596411945045304 ], [ 7.834976604797898, 62.595916967808741 ], [ 7.834891207527361, 62.595461744186316 ], [ 7.832831498666256, 62.594273778045377 ], [ 7.832896203017223, 62.594006608460731 ], [ 7.832402874314457, 62.593620556368705 ], [ 7.832145893939787, 62.593066332790954 ], [ 7.832661691991216, 62.592551878646233 ], [ 7.833542286878877, 62.592146360815242 ], [ 7.834122730053855, 62.591364730539951 ], [ 7.834552222502987, 62.591206495815115 ], [ 7.834724700729311, 62.590494040477324 ], [ 7.836614203094061, 62.589960078619249 ], [ 7.836678861573291, 62.589692906650932 ], [ 7.836250211453393, 62.589039696442818 ], [ 7.833182831099522, 62.587168717714107 ], [ 7.833333752754776, 62.58654532082442 ], [ 7.833162159101748, 62.586446323553581 ], [ 7.833419990479356, 62.586189093912523 ] ] } }
]
}
