{
"type": "FeatureCollection",
"name": "sore_klauva_05_wgs84",
"crs": { "type": "name", "properties": { "name": "urn:ogc:def:crs:OGC:1.3:CRS84" } },
"features": [
{ "type": "Feature", "properties": { "cat": 1 }, "geometry": { "type": "LineString", "coordinates": [ [ 7.877644363904238, 62.616137403443325 ], [ 7.87682773648553, 62.61546453689806 ], [ 7.876548300211, 62.614999446584029 ], [ 7.876032603266296, 62.614702601386178 ], [ 7.873948455278725, 62.613604267208707 ], [ 7.871606715449468, 62.612763205823448 ], [ 7.868771057104734, 62.612347636744062 ], [ 7.86767548171351, 62.612021079735065 ], [ 7.864174002721384, 62.611931983423617 ], [ 7.863529529680749, 62.612169468677394 ], [ 7.86004955547913, 62.611991206718301 ], [ 7.858116506356546, 62.611080675489305 ], [ 7.852984066536965, 62.608022437027529 ], [ 7.852597463252327, 62.608002606020989 ], [ 7.851051491860269, 62.607111814322629 ], [ 7.849376433801428, 62.606755364385833 ], [ 7.84589720107725, 62.606576759431917 ], [ 7.845532164184765, 62.606467850276957 ], [ 7.84430841850413, 62.605864014483473 ], [ 7.843492828689904, 62.605190966947106 ], [ 7.843535921306934, 62.605012850009658 ], [ 7.840616640917436, 62.603330051445205 ], [ 7.840230109112903, 62.603310187131598 ], [ 7.838834897544453, 62.602607316267246 ], [ 7.837718459202502, 62.602369591034133 ], [ 7.837203372054684, 62.602072610620546 ], [ 7.836108532974012, 62.601745815723604 ], [ 7.83570130429348, 62.601003544822014 ], [ 7.834714364000257, 62.600231454902101 ], [ 7.834585826257793, 62.599954344659878 ], [ 7.834779935129287, 62.59915283332893 ], [ 7.835510598482407, 62.598559252069215 ], [ 7.835403623813547, 62.598193085572532 ], [ 7.835533006630921, 62.597658743639222 ], [ 7.835747796468117, 62.597579624865787 ], [ 7.835705508850219, 62.596946287428317 ], [ 7.833152300960619, 62.595372281560415 ], [ 7.832745224147073, 62.594630004083257 ], [ 7.832896203017223, 62.594006608460731 ], [ 7.832038045717921, 62.593511614731909 ], [ 7.832295952080805, 62.593254388198012 ], [ 7.832210601114697, 62.592799163562134 ], [ 7.834229669618734, 62.591730897547855 ], [ 7.834315915694681, 62.591374670200821 ], [ 7.834745407298495, 62.591216434869338 ], [ 7.835024827972327, 62.590870145730769 ], [ 7.835669046987062, 62.590632788710494 ], [ 7.835755271789902, 62.590276560181955 ], [ 7.836399471975226, 62.590039199529336 ], [ 7.83646413260081, 62.589772027689961 ], [ 7.83567069798965, 62.589009885290359 ], [ 7.833611388660743, 62.587821936093789 ], [ 7.833354428847783, 62.587267715015173 ], [ 7.833419990479356, 62.586189093912523 ] ] } }
]
}
