{
"type": "FeatureCollection",
"name": "sore_klauva_06_wgs84",
"crs": { "type": "name", "properties": { "name": "urn:ogc:def:crs:OGC:1.3:CRS84" } },
"features": [
{ "type": "Feature", "properties": { "cat": 1 }, "geometry": { "type": "LineString", "coordinates": [ [ 7.877644363904238, 62.616137403443325 ], [ 7.87669874539796, 62.615187459396175 ], [ 7.873239463662695, 62.613297525463224 ], [ 7.871971928599762, 62.612872049112781 ], [ 7.871391905204953, 62.612842379542158 ], [ 7.870296281669487, 62.612515842465562 ], [ 7.868577720589503, 62.612337742781371 ], [ 7.868040670791814, 62.612129932990676 ], [ 7.864560666899449, 62.611951783167775 ], [ 7.863701370623893, 62.612268431907964 ], [ 7.860414714903326, 62.612100079535352 ], [ 7.857472271556982, 62.610506673032546 ], [ 7.857408009360633, 62.609962397035865 ], [ 7.855002821439082, 62.608576791944152 ], [ 7.85504585132592, 62.608398670602931 ], [ 7.854186914025062, 62.607903802646398 ], [ 7.854251464114275, 62.607636621077866 ], [ 7.852533687710775, 62.606646871421866 ], [ 7.852168624473383, 62.606537979278812 ], [ 7.848710927795207, 62.606270384568148 ], [ 7.848367416531604, 62.606072423280011 ], [ 7.846821123957483, 62.605993043278218 ], [ 7.846134138023126, 62.605597111044133 ], [ 7.844587877734096, 62.605517706721535 ], [ 7.839521716929232, 62.603003282190748 ], [ 7.838941927205539, 62.602973480875185 ], [ 7.838598519531351, 62.602775496936076 ], [ 7.837632213416352, 62.602725820478263 ], [ 7.837117121191391, 62.602428839677309 ], [ 7.837181809558635, 62.602161667892766 ], [ 7.835979976456706, 62.601468706511994 ], [ 7.834585826257793, 62.599954344659878 ], [ 7.834779935129287, 62.59915283332893 ], [ 7.835510598482407, 62.598559252069215 ], [ 7.835403623813547, 62.598193085572532 ], [ 7.835878001694319, 62.596233830874823 ], [ 7.835041294418979, 62.595649797029175 ], [ 7.834934333761629, 62.595283630360363 ], [ 7.833561183068977, 62.594491656582434 ], [ 7.833992480826695, 62.592710522310448 ], [ 7.834421993898469, 62.592552288268656 ], [ 7.834939439522308, 62.590414922251554 ], [ 7.835583649072417, 62.590177565496489 ], [ 7.836184739718257, 62.590118320093168 ], [ 7.83646413260081, 62.589772027689961 ], [ 7.83567069798965, 62.589009885290359 ], [ 7.833782991512723, 62.587920932936782 ], [ 7.833763177818966, 62.586387087608777 ], [ 7.833419990479356, 62.586189093912523 ] ] } }
]
}
