{
"type": "FeatureCollection",
"name": "sore_klauva_13_wgs84",
"crs": { "type": "name", "properties": { "name": "urn:ogc:def:crs:OGC:1.3:CRS84" } },
"features": [
{ "type": "Feature", "properties": { "cat": 1 }, "geometry": { "type": "LineString", "coordinates": [ [ 7.877644363904238, 62.616137403443325 ], [ 7.87682773648553, 62.61546453689806 ], [ 7.876548300211, 62.614999446584029 ], [ 7.875302104220102, 62.614484934130964 ], [ 7.874313687593115, 62.613713104626136 ], [ 7.873755108404228, 62.613594380281491 ], [ 7.872165270023242, 62.612881938437674 ], [ 7.870833354663451, 62.612723643885971 ], [ 7.870296281669487, 62.612515842465562 ], [ 7.869522929532155, 62.612476273380345 ], [ 7.868792534332957, 62.612258573443384 ], [ 7.868019191428823, 62.612218996146701 ], [ 7.86767548171351, 62.612021079735065 ], [ 7.866515480332061, 62.611961703069007 ], [ 7.865892510488845, 62.612110136637938 ], [ 7.864560666899449, 62.611951783167775 ], [ 7.863271715644085, 62.612426754200186 ], [ 7.859985045506539, 62.612258391509023 ], [ 7.857407742507899, 62.610773856374017 ], [ 7.85691382379408, 62.610387883037639 ], [ 7.856956845557046, 62.610209760997947 ], [ 7.851974923186326, 62.607339520312166 ], [ 7.850493134584317, 62.606992999849957 ], [ 7.845489080850513, 62.606645967956474 ], [ 7.839500160519788, 62.603092339903959 ], [ 7.837782351713455, 62.602913871066697 ], [ 7.837267254801461, 62.602616890756615 ], [ 7.836945426061516, 62.60232984568519 ], [ 7.837010115698004, 62.602062673997487 ], [ 7.836108532974012, 62.601745815723604 ], [ 7.836023107225025, 62.601290592414173 ], [ 7.835186260692665, 62.600706557550147 ], [ 7.834907607484148, 62.600241394531281 ], [ 7.83516640828306, 62.59917271194967 ], [ 7.834823068822194, 62.598974719640928 ], [ 7.835039585274796, 62.597272699618117 ], [ 7.834352955022181, 62.596876714191801 ], [ 7.834396087083057, 62.59669860061247 ], [ 7.833602532450929, 62.595936444821604 ], [ 7.833796634543099, 62.595134934757901 ], [ 7.833131636815668, 62.594649887518997 ], [ 7.833800167737328, 62.591889131150147 ], [ 7.834229669618734, 62.591730897547855 ], [ 7.834337476847531, 62.591285613350678 ], [ 7.834766967020229, 62.591127377933219 ], [ 7.834917880972072, 62.590503979230505 ], [ 7.836421025663483, 62.589950142254892 ], [ 7.83567069798965, 62.589009885290359 ], [ 7.834104641757722, 62.588207982884917 ], [ 7.833461347363124, 62.58763388232947 ], [ 7.833526027733903, 62.58736671212052 ], [ 7.833182831099522, 62.587168717714107 ], [ 7.833247512687469, 62.586901547650648 ], [ 7.832925884220815, 62.586614496021063 ], [ 7.832990566586508, 62.586347326087051 ], [ 7.833419990479356, 62.586189093912523 ] ] } }
]
}
