{
"type": "FeatureCollection",
"name": "sore_klauva_12_wgs84",
"crs": { "type": "name", "properties": { "name": "urn:ogc:def:crs:OGC:1.3:CRS84" } },
"features": [
{ "type": "Feature", "properties": { "cat": 1 }, "geometry": { "type": "LineString", "coordinates": [ [ 7.877644363904238, 62.616137403443325 ], [ 7.87669874539796, 62.615187459396175 ], [ 7.873239463662695, 62.613297525463224 ], [ 7.872852774648541, 62.613277749439597 ], [ 7.871971928599762, 62.612872049112781 ], [ 7.871391905204953, 62.612842379542158 ], [ 7.870296281669487, 62.612515842465562 ], [ 7.868942916961942, 62.612446593773633 ], [ 7.86784733600098, 62.612120038039038 ], [ 7.865140664262096, 62.611981480789254 ], [ 7.864968820001575, 62.611882519286617 ], [ 7.864195493341786, 62.61184292101219 ], [ 7.863980670851473, 62.611922083152592 ], [ 7.860500722177362, 62.611743832794218 ], [ 7.85962009450877, 62.611338057437202 ], [ 7.859040116700235, 62.611308337127376 ], [ 7.85732197156471, 62.61031864145825 ], [ 7.854659241404156, 62.608378845221068 ], [ 7.852254308825085, 62.606993196192875 ], [ 7.851889242476168, 62.60688430327648 ], [ 7.845918741531518, 62.606487700514279 ], [ 7.845403501343862, 62.606190748312891 ], [ 7.844651899687952, 62.606061985359553 ], [ 7.8395432731922, 62.602914224472144 ], [ 7.837632213416352, 62.602725820478263 ], [ 7.837117121191391, 62.602428839677309 ], [ 7.837181809558635, 62.602161667892766 ], [ 7.836688295159538, 62.60177562844386 ], [ 7.837356699215109, 62.599014853352493 ], [ 7.835961753244256, 62.598311957351285 ], [ 7.836069564816336, 62.597866671882464 ], [ 7.835640821616673, 62.597213458547564 ], [ 7.835705508850219, 62.596946287428317 ], [ 7.833817314476847, 62.595857328915002 ], [ 7.833989844529516, 62.595144875202479 ], [ 7.833303276081398, 62.594748885447288 ], [ 7.834035607379828, 62.592532408765457 ], [ 7.834315049637911, 62.592186121345101 ], [ 7.834744553276847, 62.592027886180752 ], [ 7.835024827972327, 62.590870145730769 ], [ 7.835454308453665, 62.590711908063561 ], [ 7.835540536118507, 62.590355679706946 ], [ 7.836614203094061, 62.589960078619249 ], [ 7.836678861573291, 62.589692906650932 ], [ 7.836421830107371, 62.589138690252639 ], [ 7.834534087504341, 62.588049747577465 ], [ 7.834835034698648, 62.587614401458929 ], [ 7.833633825423385, 62.586921428331848 ], [ 7.833720060939425, 62.586565201204564 ], [ 7.833376871909902, 62.586367207379176 ], [ 7.833419990479356, 62.586189093912523 ] ] } }
]
}
