{
"type": "FeatureCollection",
"name": "sore_klauva_07_wgs84",
"crs": { "type": "name", "properties": { "name": "urn:ogc:def:crs:OGC:1.3:CRS84" } },
"features": [
{ "type": "Feature", "properties": { "cat": 1 }, "geometry": { "type": "LineString", "coordinates": [ [ 7.877644363904238, 62.616137403443325 ], [ 7.87682773648553, 62.61546453689806 ], [ 7.876548300211, 62.614999446584029 ], [ 7.874485574027679, 62.613812055185967 ], [ 7.871606715449468, 62.612763205823448 ], [ 7.870833354663451, 62.612723643885971 ], [ 7.870296281669487, 62.612515842465562 ], [ 7.868771057104734, 62.612347636744062 ], [ 7.86767548171351, 62.612021079735065 ], [ 7.86670881353057, 62.611971599844949 ], [ 7.866493996553638, 62.612050765930441 ], [ 7.865140664262096, 62.611981480789254 ], [ 7.864968820001575, 62.611882519286617 ], [ 7.861080710335187, 62.611773547171431 ], [ 7.86056522609827, 62.611476647682451 ], [ 7.859040116700235, 62.611308337127376 ], [ 7.855432143597613, 62.60922995356264 ], [ 7.855475172111755, 62.609051832070797 ], [ 7.852554814609255, 62.607369268825138 ], [ 7.850256784896174, 62.607161200659419 ], [ 7.848581734253225, 62.606804741279333 ], [ 7.846068950509218, 62.606675743139228 ], [ 7.839564829308691, 62.602825166748225 ], [ 7.838620078349527, 62.602686439394923 ], [ 7.837568323850722, 62.602181540416723 ], [ 7.836108532974012, 62.601745815723604 ], [ 7.83570130429348, 62.601003544822014 ], [ 7.834714364000257, 62.600231454902101 ], [ 7.834585826257793, 62.599954344659878 ], [ 7.834779935129287, 62.59915283332893 ], [ 7.835510598482407, 62.598559252069215 ], [ 7.835403623813547, 62.598193085572532 ], [ 7.835812483751409, 62.59731245369791 ], [ 7.835683946585527, 62.597035344473419 ], [ 7.833624099936112, 62.595847388169283 ], [ 7.833710368411696, 62.595491161506452 ], [ 7.83285215582162, 62.594996172036737 ], [ 7.832745224147073, 62.594630004083257 ], [ 7.832939338518644, 62.593828495377522 ], [ 7.833626770023622, 62.593413035749727 ], [ 7.833691464856681, 62.593145865665619 ], [ 7.834120985930376, 62.59298763266046 ], [ 7.834486679214685, 62.592285117685172 ], [ 7.834916183439447, 62.592126882000152 ], [ 7.835368913693855, 62.590256684761151 ], [ 7.836399471975226, 62.590039199529336 ], [ 7.83646413260081, 62.589772027689961 ], [ 7.836292510272876, 62.589673033882278 ], [ 7.836378724081434, 62.589316804817258 ], [ 7.834447856272346, 62.588405975265268 ], [ 7.833461347363124, 62.58763388232947 ], [ 7.833419990479356, 62.586189093912523 ] ] } }
]
}
