{
"type": "FeatureCollection",
"name": "kjovskarstinden_29_wgs84",
"crs": { "type": "name", "properties": { "name": "urn:ogc:def:crs:OGC:1.3:CRS84" } },
"features": [
{ "type": "Feature", "properties": { "cat": 1 }, "geometry": { "type": "LineString", "coordinates": [ [ 7.946860962063801, 62.61316614563907 ], [ 7.946752564764138, 62.612800045918547 ], [ 7.947481375062056, 62.612205853838049 ], [ 7.947545098380887, 62.611938618231449 ], [ 7.946512362196467, 62.611345433071463 ], [ 7.946295589123451, 62.610613233282329 ], [ 7.943992344023901, 62.608783714699719 ], [ 7.943926491959296, 62.608239457606864 ], [ 7.943431467492755, 62.607853776041026 ], [ 7.943495215377745, 62.607586542605624 ], [ 7.943172291646625, 62.607299728273617 ], [ 7.94317020405975, 62.606488237721472 ], [ 7.942868544507609, 62.606112345113914 ], [ 7.942180243443968, 62.605716868639654 ], [ 7.942562743845972, 62.604113471164865 ], [ 7.942433177103569, 62.603836446811407 ], [ 7.940368499270829, 62.602650003757567 ], [ 7.939916120554948, 62.602086156982551 ], [ 7.940086154426688, 62.601373539208261 ], [ 7.938881891571483, 62.600681432644066 ], [ 7.938945660827746, 62.600414201561655 ], [ 7.937246655378597, 62.599336385394231 ], [ 7.935505243155472, 62.598436702971945 ], [ 7.932198328227685, 62.598359131794972 ], [ 7.931274522989419, 62.598131952016608 ], [ 7.930501442360205, 62.598092724634029 ], [ 7.930157463673954, 62.59789495861056 ], [ 7.925519062789986, 62.597659493993469 ], [ 7.924444663758127, 62.597244306832124 ], [ 7.923671617636145, 62.597205042052828 ], [ 7.923327695497252, 62.597007259944199 ], [ 7.922554657407309, 62.596967989081215 ], [ 7.920964477652616, 62.596256098871578 ], [ 7.919998209753957, 62.596206993648153 ], [ 7.918752004532631, 62.595692869233289 ], [ 7.917227331197667, 62.595525200745605 ], [ 7.91310131952487, 62.593151582941324 ], [ 7.912220487162183, 62.592746136954119 ], [ 7.911297015530152, 62.592518829337223 ], [ 7.908248105869849, 62.592183318566256 ], [ 7.90736736972626, 62.591777843218608 ], [ 7.902730151873643, 62.591541636574725 ], [ 7.900927130950242, 62.591720229047255 ], [ 7.89880176293577, 62.5916118889605 ], [ 7.897599734760024, 62.591730919140709 ], [ 7.893928680844112, 62.591543678798352 ], [ 7.893714085358686, 62.591622889795374 ], [ 7.892748025132676, 62.59157359855881 ], [ 7.892318826503858, 62.591732016484592 ], [ 7.889420654897987, 62.591584093815285 ], [ 7.8886692133284, 62.59145557024258 ], [ 7.887981980025973, 62.591059840827214 ], [ 7.885255697170871, 62.591010765344222 ], [ 7.885041083318331, 62.591089962743538 ], [ 7.858401626261831, 62.589636379082741 ], [ 7.858186953533758, 62.589715534340904 ], [ 7.853164191673847, 62.589457877043806 ], [ 7.852541638776445, 62.589606256664844 ], [ 7.847325779375052, 62.58933847581774 ], [ 7.847154122353309, 62.589239494909556 ], [ 7.844836005402298, 62.589120416291372 ], [ 7.844299537908135, 62.58891252301143 ], [ 7.842775684479196, 62.588744051705461 ], [ 7.842239238574094, 62.588536150791292 ], [ 7.840307539460563, 62.588436854069855 ], [ 7.837132215256263, 62.587011249196202 ], [ 7.836745898388244, 62.586991378153357 ], [ 7.83567316347075, 62.58657552999555 ], [ 7.834707389631666, 62.586525840522924 ], [ 7.833419990479356, 62.586189093912523 ] ] } }
]
}
