{
"type": "FeatureCollection",
"name": "kjovskarstinden_44_wgs84",
"crs": { "type": "name", "properties": { "name": "urn:ogc:def:crs:OGC:1.3:CRS84" } },
"features": [
{ "type": "Feature", "properties": { "cat": 1 }, "geometry": { "type": "LineString", "coordinates": [ [ 7.946860962063801, 62.61316614563907 ], [ 7.945658221161357, 62.613285580527013 ], [ 7.944799721030871, 62.613602739292958 ], [ 7.942071202855256, 62.61355474478065 ], [ 7.940675053943196, 62.613664343379128 ], [ 7.936484657017083, 62.613181566576756 ], [ 7.93562419472627, 62.612687179948558 ], [ 7.933475883972847, 62.612668422299052 ], [ 7.93160786126215, 62.613114623474296 ], [ 7.929094089536181, 62.612987107891911 ], [ 7.928535290615034, 62.612868599966838 ], [ 7.92750291268991, 62.612275278918119 ], [ 7.927652017916386, 62.611651756046626 ], [ 7.927479961902028, 62.611552868739381 ], [ 7.928161509062594, 62.608702476216166 ], [ 7.928376142381101, 62.608623212726705 ], [ 7.928546500286626, 62.60791061341682 ], [ 7.92876112674388, 62.607831349242396 ], [ 7.929314707372645, 62.605515398063069 ], [ 7.929142680008024, 62.605416513187464 ], [ 7.929419439169206, 62.604258536682757 ], [ 7.928795232370158, 62.603595771780931 ], [ 7.929029408044027, 62.602615946046392 ], [ 7.928878686122792, 62.602427985981791 ], [ 7.923546949308788, 62.599362454389649 ], [ 7.919699867815556, 62.597454021214908 ], [ 7.918948137554093, 62.597325656952492 ], [ 7.912221750582249, 62.593557616864935 ], [ 7.906660754616384, 62.593094229208525 ], [ 7.906488874009725, 62.592995318369987 ], [ 7.885621238168273, 62.591931040352286 ], [ 7.884590441571058, 62.591337423148239 ], [ 7.882336223398271, 62.590951763628006 ], [ 7.849880131529256, 62.589289311698849 ], [ 7.849536801719501, 62.589091355746753 ], [ 7.846274331292349, 62.588833646648524 ], [ 7.845373038878316, 62.588516852209331 ], [ 7.84421401044379, 62.588457303319899 ], [ 7.843870728623027, 62.588259334067828 ], [ 7.838462038933764, 62.587981300020168 ], [ 7.838118801721188, 62.587783317213038 ], [ 7.837732473993696, 62.587763448756171 ], [ 7.837046018946419, 62.587367478968197 ], [ 7.836123320632296, 62.587139684117275 ], [ 7.83515752752982, 62.587089997500534 ], [ 7.833419990479356, 62.586189093912523 ] ] } }
]
}
