{
"type": "FeatureCollection",
"name": "kjovskarstinden_38_wgs84",
"crs": { "type": "name", "properties": { "name": "urn:ogc:def:crs:OGC:1.3:CRS84" } },
"features": [
{ "type": "Feature", "properties": { "cat": 1 }, "geometry": { "type": "LineString", "coordinates": [ [ 7.946860962063801, 62.61316614563907 ], [ 7.945658221161357, 62.613285580527013 ], [ 7.943769078303217, 62.613821024401453 ], [ 7.941835308742034, 62.613723106745397 ], [ 7.941663192698114, 62.613624236129176 ], [ 7.939708178919711, 62.61361536658967 ], [ 7.93859047201244, 62.613378432069723 ], [ 7.937430238808671, 62.613319642007674 ], [ 7.936312562276655, 62.613082689645189 ], [ 7.93562419472627, 62.612687179948558 ], [ 7.933475883972847, 62.612668422299052 ], [ 7.93160786126215, 62.613114623474296 ], [ 7.930447655886991, 62.613055775716099 ], [ 7.929910144564865, 62.612848197986324 ], [ 7.928556589241919, 62.612779525095085 ], [ 7.927524213870986, 62.612186204237936 ], [ 7.927630717604172, 62.611740830758308 ], [ 7.928060030881723, 62.611582305712211 ], [ 7.927801116047363, 62.611028232917953 ], [ 7.928248367872136, 62.609157661988739 ], [ 7.928805405596086, 62.608464684710967 ], [ 7.92903962959649, 62.607484859640053 ], [ 7.929554034819458, 62.606970028786264 ], [ 7.929703063275789, 62.606346502669929 ], [ 7.930174861302201, 62.606009819487518 ], [ 7.93098192221455, 62.601813468950596 ], [ 7.928057867233386, 62.600132437635217 ], [ 7.926919469140637, 62.599984492559081 ], [ 7.925199637823342, 62.598995610629011 ], [ 7.924619817927702, 62.598966165110248 ], [ 7.924275869629977, 62.598768384990194 ], [ 7.923309513178176, 62.598719301520319 ], [ 7.922105755050252, 62.598027056896534 ], [ 7.921160734474411, 62.597888885139824 ], [ 7.919377281939168, 62.597167156339843 ], [ 7.918797505003772, 62.597137687192429 ], [ 7.917186091579269, 62.596514828164295 ], [ 7.9156400639024, 62.596436214716462 ], [ 7.914158025670204, 62.596090367354797 ], [ 7.910354648362953, 62.594003545894005 ], [ 7.902067043853942, 62.593491332618093 ], [ 7.901723310709682, 62.593293499783918 ], [ 7.89727913673777, 62.593066955927426 ], [ 7.89693544102543, 62.592869111796311 ], [ 7.883410267082954, 62.592178733357386 ], [ 7.882293836152801, 62.591941365101412 ], [ 7.88197167424199, 62.591654419466167 ], [ 7.881069902075022, 62.591337849343255 ], [ 7.846874858342671, 62.589585810487847 ], [ 7.844278596541754, 62.588190126841084 ], [ 7.843892258314177, 62.588170275311384 ], [ 7.842476113641752, 62.587556507719057 ], [ 7.838419693839218, 62.587347962605158 ], [ 7.837711691655905, 62.587041053768118 ], [ 7.836745898388244, 62.586991378153357 ], [ 7.83567316347075, 62.58657552999555 ], [ 7.834321081120757, 62.586505962874391 ], [ 7.833419990479356, 62.586189093912523 ] ] } }
]
}
