{
"type": "FeatureCollection",
"name": "kjovskarstinden_46_wgs84",
"crs": { "type": "name", "properties": { "name": "urn:ogc:def:crs:OGC:1.3:CRS84" } },
"features": [
{ "type": "Feature", "properties": { "cat": 1 }, "geometry": { "type": "LineString", "coordinates": [ [ 7.946860962063801, 62.61316614563907 ], [ 7.946474212932532, 62.613146572887246 ], [ 7.946044971419535, 62.61330515555597 ], [ 7.943016824867319, 62.613692782885387 ], [ 7.939708178919711, 62.61361536658967 ], [ 7.93859047201244, 62.613378432069723 ], [ 7.937430238808671, 62.613319642007674 ], [ 7.936505932106757, 62.613092490176307 ], [ 7.93581756169552, 62.612696981395452 ], [ 7.935881391207609, 62.612429752545481 ], [ 7.936761221900993, 62.612023572962471 ], [ 7.936867586501792, 62.611578190567378 ], [ 7.930135746769136, 62.60781094189467 ], [ 7.930923352092098, 62.604515154329675 ], [ 7.930407273724947, 62.604218505066278 ], [ 7.930511951183651, 62.602961642124747 ], [ 7.923460182044195, 62.598907266893313 ], [ 7.920238507391192, 62.598473116296645 ], [ 7.91849767382246, 62.597573229312644 ], [ 7.917552685943179, 62.597435033546148 ], [ 7.916177181556349, 62.596643842145141 ], [ 7.915404164898349, 62.596604531933068 ], [ 7.913385026782406, 62.596051046189437 ], [ 7.9118390359633, 62.595972391097661 ], [ 7.911323296302618, 62.59567567578133 ], [ 7.909991915486518, 62.595517762311566 ], [ 7.909476202361993, 62.595221040521061 ], [ 7.908896475813841, 62.595191530889323 ], [ 7.908036987445625, 62.594696987211165 ], [ 7.907457272922328, 62.594667471758221 ], [ 7.905910284927256, 62.593777274581917 ], [ 7.895862441811173, 62.593265186319194 ], [ 7.895518753559434, 62.593067338797141 ], [ 7.880834259651031, 62.592317574553235 ], [ 7.880490684609526, 62.592119691525582 ], [ 7.879911055058564, 62.592090062703882 ], [ 7.878837513966044, 62.591674535849599 ], [ 7.87729186677486, 62.59159550240544 ], [ 7.876561916503944, 62.591377849153702 ], [ 7.869606681450244, 62.591021952608507 ], [ 7.869392027265309, 62.591101125370443 ], [ 7.868039639413666, 62.591031881148155 ], [ 7.867824981125592, 62.591111051441771 ], [ 7.860869941218539, 62.590754721707363 ], [ 7.860655266549618, 62.590833880739467 ], [ 7.854859531712604, 62.590536667132341 ], [ 7.854644843208519, 62.590615816721474 ], [ 7.842860561994638, 62.590010726419976 ], [ 7.841487429754608, 62.589218830944858 ], [ 7.840328383850351, 62.589159249513301 ], [ 7.83979194838124, 62.588951339324673 ], [ 7.838439745856106, 62.588881810513726 ], [ 7.837173751626882, 62.588456038954519 ], [ 7.836315675911378, 62.587961072659091 ], [ 7.835586127945467, 62.587743210394081 ], [ 7.835006640575227, 62.587713396836982 ], [ 7.833483788170892, 62.5867333746464 ], [ 7.833419990479356, 62.586189093912523 ] ] } }
]
}
