{
"type": "FeatureCollection",
"name": "kjovskarstinden_24_wgs84",
"crs": { "type": "name", "properties": { "name": "urn:ogc:def:crs:OGC:1.3:CRS84" } },
"features": [
{ "type": "Feature", "properties": { "cat": 1 }, "geometry": { "type": "LineString", "coordinates": [ [ 7.946860962063801, 62.61316614563907 ], [ 7.945250222502068, 62.613355082519966 ], [ 7.943769078303217, 62.613821024401453 ], [ 7.939514804348757, 62.613605570433492 ], [ 7.93859047201244, 62.613378432069723 ], [ 7.936678027562406, 62.613191366878922 ], [ 7.93581756169552, 62.612696981395452 ], [ 7.935860114848233, 62.612518828834034 ], [ 7.936761221900993, 62.612023572962471 ], [ 7.937060946777327, 62.611587990201123 ], [ 7.932716528770334, 62.6092941793368 ], [ 7.930479836207101, 62.608008709447276 ], [ 7.928974053948363, 62.606940599208535 ], [ 7.929398150871146, 62.604347611829958 ], [ 7.92877394280439, 62.603684846816229 ], [ 7.929008120069831, 62.6027050211394 ], [ 7.928878686122792, 62.602427985981791 ], [ 7.9261266851631, 62.600845799747184 ], [ 7.925740113597398, 62.600826171903009 ], [ 7.924708197054665, 62.600232836328892 ], [ 7.923548511560704, 62.600173938179459 ], [ 7.923204557075572, 62.599976155335497 ], [ 7.921293082370987, 62.599788892269416 ], [ 7.918327150302916, 62.598285814161045 ], [ 7.91721019535332, 62.598048718455743 ], [ 7.915985287012322, 62.597445496147607 ], [ 7.915040315956865, 62.597307283583028 ], [ 7.913450304383043, 62.596595309959284 ], [ 7.910379613138278, 62.596348911868702 ], [ 7.90967063422501, 62.59604235545617 ], [ 7.901382476502901, 62.59553009404685 ], [ 7.900157999807969, 62.594926738550051 ], [ 7.898805347336545, 62.594857789179805 ], [ 7.897495452371655, 62.594610688591573 ], [ 7.897151737944122, 62.594412844742273 ], [ 7.881500424813703, 62.593613873008415 ], [ 7.881071138081222, 62.593772255113912 ], [ 7.878752496011365, 62.593653733342954 ], [ 7.877936754547962, 62.593792348226245 ], [ 7.866923459438044, 62.593228782306802 ], [ 7.866708782001515, 62.593307950621217 ], [ 7.861878528248647, 62.593060492599321 ], [ 7.861706800757624, 62.592961528655252 ], [ 7.860933971480041, 62.592921919045139 ], [ 7.860504589214054, 62.593080236527179 ], [ 7.858379311427695, 62.592971281503893 ], [ 7.858164613929977, 62.593050436390016 ], [ 7.855459734552142, 62.592911715609759 ], [ 7.855094825959771, 62.59280283322127 ], [ 7.85404279494903, 62.593109517739869 ], [ 7.848246700709269, 62.592812024356085 ], [ 7.848075021175986, 62.592713044276529 ], [ 7.846529423985764, 62.592633670491352 ], [ 7.846357751314509, 62.592534688390636 ], [ 7.844232578328794, 62.592425519158517 ], [ 7.843524396235627, 62.592118637398087 ], [ 7.842944813552683, 62.592088855540801 ], [ 7.842408307415636, 62.591880954458944 ], [ 7.841055963983308, 62.591811449105194 ], [ 7.840626495987923, 62.591969704197716 ], [ 7.837943369574242, 62.591741588389958 ], [ 7.83603385479285, 62.590741720563614 ], [ 7.835647490420309, 62.590721845829258 ], [ 7.835132619342422, 62.590424860701425 ], [ 7.836421025663483, 62.589950142254892 ], [ 7.83567069798965, 62.589009885290359 ], [ 7.834104641757722, 62.588207982884917 ], [ 7.83423399279786, 62.587673641708406 ], [ 7.833569147248966, 62.587188598621104 ], [ 7.833419990479356, 62.586189093912523 ] ] } }
]
}
