{
"type": "FeatureCollection",
"name": "kjovskarstinden_01_wgs84",
"crs": { "type": "name", "properties": { "name": "urn:ogc:def:crs:OGC:1.3:CRS84" } },
"features": [
{ "type": "Feature", "properties": { "cat": 1 }, "geometry": { "type": "LineString", "coordinates": [ [ 7.946860962063801, 62.61316614563907 ], [ 7.946752564764138, 62.612800045918547 ], [ 7.947266764446349, 62.612285147023243 ], [ 7.94793183269065, 62.611958187816292 ], [ 7.948144222955764, 62.6110674013797 ], [ 7.94401359262621, 62.608694636797068 ], [ 7.944119833471118, 62.608249247205414 ], [ 7.943431467492755, 62.607853776041026 ], [ 7.943516464383854, 62.607497464783336 ], [ 7.943172291646625, 62.607299728273617 ], [ 7.943278538769637, 62.606854339402474 ], [ 7.942934374854183, 62.606656602423122 ], [ 7.942847294816462, 62.606201422829166 ], [ 7.942201494694054, 62.605627791046629 ], [ 7.942605241001989, 62.603935315785279 ], [ 7.941400817661108, 62.603243228830678 ], [ 7.941549574019618, 62.602619686398661 ], [ 7.940517273508714, 62.602026462664 ], [ 7.940644788650737, 62.601491998665438 ], [ 7.9394617628089, 62.600710819555566 ], [ 7.939525526934788, 62.600443588139186 ], [ 7.939009428783884, 62.600146970432156 ], [ 7.938429569107194, 62.600117581795132 ], [ 7.936063803320392, 62.598555179784753 ], [ 7.934581408814253, 62.598209544708453 ], [ 7.933421777411821, 62.598150729384365 ], [ 7.932217799914194, 62.597458569100198 ], [ 7.931466011084589, 62.597330271530033 ], [ 7.929918151623787, 62.596440329043055 ], [ 7.927599055382573, 62.596322613440854 ], [ 7.927255116295857, 62.596124840789216 ], [ 7.925709075136999, 62.596046338791439 ], [ 7.924140161317751, 62.595245409900819 ], [ 7.923560415851001, 62.595215960978578 ], [ 7.923023269930531, 62.59500836160629 ], [ 7.922443530486971, 62.594978908121682 ], [ 7.921154723556015, 62.594642953009632 ], [ 7.92038175054684, 62.594603670977278 ], [ 7.919844638476266, 62.594396059816262 ], [ 7.917912231824664, 62.594297828894746 ], [ 7.91563464750987, 62.593190290342172 ], [ 7.91468981258113, 62.593052077233608 ], [ 7.913808960733157, 62.592646641018014 ], [ 7.911125122310557, 62.592419924043369 ], [ 7.910953230230052, 62.592321018552958 ], [ 7.907281996913063, 62.592134127373811 ], [ 7.906745023392633, 62.591926467625221 ], [ 7.904619613763414, 62.591818215659892 ], [ 7.903997253578095, 62.591966827614833 ], [ 7.90129220231005, 62.591828993664961 ], [ 7.899832859857909, 62.592205405146643 ], [ 7.899038617755256, 62.592255075694951 ], [ 7.898394851524994, 62.592492731561222 ], [ 7.894702315936599, 62.592394579387523 ], [ 7.894273115203923, 62.592553003299933 ], [ 7.88538520949677, 62.592099305022352 ], [ 7.884762752420144, 62.592247829805565 ], [ 7.883410267082954, 62.592178733357386 ], [ 7.883195639831365, 62.592257927734103 ], [ 7.879331426817545, 62.592060431490282 ], [ 7.878708941973414, 62.59220892887064 ], [ 7.877742894306265, 62.592159533838938 ], [ 7.875617865210186, 62.592862307965937 ], [ 7.875038227352574, 62.592832658774554 ], [ 7.874608918950574, 62.592991020690469 ], [ 7.873406750776441, 62.593109840395599 ], [ 7.870315353221192, 62.59295163456509 ], [ 7.870100686561186, 62.593030808248137 ], [ 7.868361788020015, 62.592941784841472 ], [ 7.868147116408993, 62.59302095544961 ], [ 7.865613920476264, 62.592981387073507 ], [ 7.865399241505494, 62.593060553350931 ], [ 7.856297044858164, 62.592684172094714 ], [ 7.853119783047371, 62.592881831130292 ], [ 7.848461421935549, 62.592732885065573 ], [ 7.846658046702188, 62.592910770883371 ], [ 7.845155504239835, 62.592653263429895 ], [ 7.844575909069505, 62.592623488183165 ], [ 7.843760049386598, 62.592761901493873 ], [ 7.842600859675299, 62.592702336997625 ], [ 7.840347128826998, 62.592316005290236 ], [ 7.839875273235754, 62.591840920655635 ], [ 7.837643196802207, 62.591365488799923 ], [ 7.836227037198741, 62.590751657532245 ], [ 7.83584067253337, 62.590731783329275 ], [ 7.835325799308966, 62.590434798885603 ], [ 7.835368913693855, 62.590256684761151 ], [ 7.836399471975226, 62.590039199529336 ], [ 7.836357170848885, 62.589405862091539 ], [ 7.833461347363124, 62.58763388232947 ], [ 7.833419990479356, 62.586189093912523 ] ] } }
]
}
