{
"type": "FeatureCollection",
"name": "kjovskarstinden_30_wgs84",
"crs": { "type": "name", "properties": { "name": "urn:ogc:def:crs:OGC:1.3:CRS84" } },
"features": [
{ "type": "Feature", "properties": { "cat": 1 }, "geometry": { "type": "LineString", "coordinates": [ [ 7.946860962063801, 62.61316614563907 ], [ 7.945658221161357, 62.613285580527013 ], [ 7.943554446141293, 62.613900311586178 ], [ 7.939514804348757, 62.613605570433492 ], [ 7.93859047201244, 62.613378432069723 ], [ 7.937430238808671, 62.613319642007674 ], [ 7.936312562276655, 62.613082689645189 ], [ 7.93596837621922, 62.612884935190941 ], [ 7.935860114848233, 62.612518828834034 ], [ 7.936761221900993, 62.612023572962471 ], [ 7.937060946777327, 62.611587990201123 ], [ 7.930006282937343, 62.607533907391186 ], [ 7.930751324829385, 62.60441627143878 ], [ 7.930428558882881, 62.604129429722747 ], [ 7.930939359275903, 62.601991619905093 ], [ 7.930637898645513, 62.601615703513616 ], [ 7.927885874259101, 62.600033551668496 ], [ 7.926726188551008, 62.599974679939464 ], [ 7.925006364380072, 62.598985795721987 ], [ 7.923846726759733, 62.598926900695901 ], [ 7.922922971610693, 62.598699666271074 ], [ 7.921376811131462, 62.598621114638149 ], [ 7.919657245221762, 62.597632167926051 ], [ 7.919270720842702, 62.597612522785099 ], [ 7.918410987770962, 62.597118039764773 ], [ 7.917659271956292, 62.596989668749039 ], [ 7.91714345563845, 62.596692973928235 ], [ 7.915983927174529, 62.596634014990919 ], [ 7.9156400639024, 62.596436214716462 ], [ 7.915253558431916, 62.596416558695879 ], [ 7.914565851278402, 62.596020953957826 ], [ 7.912246864929849, 62.595902984527982 ], [ 7.911516542503758, 62.595685509284117 ], [ 7.909197597658208, 62.595567489704841 ], [ 7.909025694578014, 62.595468581691584 ], [ 7.903421684809996, 62.595183203036967 ], [ 7.902111734419107, 62.594936145066285 ], [ 7.900371666217409, 62.594036042152034 ], [ 7.898439364679372, 62.593937542794855 ], [ 7.898267507431725, 62.593838622138669 ], [ 7.876433590786319, 62.592723706433183 ], [ 7.875574987012201, 62.593040437712574 ], [ 7.874780690676547, 62.593089969342081 ], [ 7.867588948014307, 62.592902211973254 ], [ 7.86696638978114, 62.593050655929872 ], [ 7.856704947616508, 62.59261492898834 ], [ 7.856082344134946, 62.592763323730665 ], [ 7.855502732950558, 62.59273359368963 ], [ 7.854665415434593, 62.592961132336455 ], [ 7.854279006461328, 62.592941308629321 ], [ 7.853634879594993, 62.593178752886445 ], [ 7.846486372046443, 62.592811788914105 ], [ 7.846271645158923, 62.592890925085861 ], [ 7.845498843827202, 62.592851230302095 ], [ 7.84498383615383, 62.592554279699947 ], [ 7.844017848511983, 62.592504651819418 ], [ 7.843309666873542, 62.592197768974557 ], [ 7.840411760282715, 62.592048831224602 ], [ 7.839510437411572, 62.591731998472881 ], [ 7.837042083227344, 62.591424740178567 ], [ 7.835497422578929, 62.590533793895943 ], [ 7.835540536118507, 62.590355679706946 ], [ 7.836421025663483, 62.589950142254892 ], [ 7.836249402490221, 62.589851148382692 ], [ 7.836357170848885, 62.589405862091539 ], [ 7.834684137612531, 62.588237800307148 ], [ 7.834577202241856, 62.587871633701418 ], [ 7.833612266178332, 62.587010485100294 ], [ 7.833419990479356, 62.586189093912523 ] ] } }
]
}
