{
"type": "FeatureCollection",
"name": "kjovskarstinden_19_wgs84",
"crs": { "type": "name", "properties": { "name": "urn:ogc:def:crs:OGC:1.3:CRS84" } },
"features": [
{ "type": "Feature", "properties": { "cat": 1 }, "geometry": { "type": "LineString", "coordinates": [ [ 7.946860962063801, 62.61316614563907 ], [ 7.946752564764138, 62.612800045918547 ], [ 7.94769598453659, 62.61212656030736 ], [ 7.947759705710447, 62.611859324573821 ], [ 7.947415455173481, 62.611661597497488 ], [ 7.947479177604652, 62.61139436190804 ], [ 7.9445957494409, 62.609535495543504 ], [ 7.944529885478044, 62.608991238578945 ], [ 7.94401359262621, 62.608694636797068 ], [ 7.94407733756648, 62.608427403057789 ], [ 7.943431467492755, 62.607853776041026 ], [ 7.943495215377745, 62.607586542605624 ], [ 7.943021457128478, 62.60711178199125 ], [ 7.942696467530817, 62.606013476290933 ], [ 7.94222274579969, 62.605538713448375 ], [ 7.94262648936336, 62.603846238087648 ], [ 7.942110302366609, 62.603549630670521 ], [ 7.942216548393651, 62.603104242581793 ], [ 7.941054670240753, 62.602233998002205 ], [ 7.941224677903095, 62.601521378488904 ], [ 7.939676307793308, 62.600631537490194 ], [ 7.939718815926033, 62.60045338313315 ], [ 7.939202715631694, 62.600156766112619 ], [ 7.938622855521632, 62.600127378273413 ], [ 7.93554777229064, 62.598258550166008 ], [ 7.93419486443532, 62.598189940664064 ], [ 7.932432339479549, 62.597379298104059 ], [ 7.931659276474449, 62.597340077376629 ], [ 7.930627355623632, 62.596746785529334 ], [ 7.930047572747499, 62.596717363074447 ], [ 7.928758600900063, 62.596381476027808 ], [ 7.927405798302543, 62.596312802079119 ], [ 7.926675349776345, 62.596095404534104 ], [ 7.922810272922104, 62.595899101682768 ], [ 7.922058567128532, 62.59577075451552 ], [ 7.921542726191624, 62.595474075633952 ], [ 7.92115622827418, 62.595454436075144 ], [ 7.920447155281213, 62.595147933186816 ], [ 7.918342765269637, 62.594950813006335 ], [ 7.91765504869007, 62.594555223372858 ], [ 7.91692471737332, 62.59433777633209 ], [ 7.915765281260173, 62.594278816820278 ], [ 7.915421445795697, 62.594081016378766 ], [ 7.914648497000044, 62.594041702891857 ], [ 7.91310131952487, 62.593151582941324 ], [ 7.91219915782467, 62.592835208927127 ], [ 7.911061124915445, 62.592687139323729 ], [ 7.910717339345828, 62.592489327954432 ], [ 7.909557990890568, 62.592430318011985 ], [ 7.909020995644987, 62.592222666735744 ], [ 7.907411188990585, 62.592411179316791 ], [ 7.906982053430035, 62.592569643227066 ], [ 7.905801362973956, 62.592599673050337 ], [ 7.904749839681464, 62.592906746947293 ], [ 7.904170164182998, 62.592877218355156 ], [ 7.903139971598323, 62.593095209385432 ], [ 7.902173843753404, 62.593045982544744 ], [ 7.901744671828643, 62.593204429843844 ], [ 7.898073402982089, 62.593017295728096 ], [ 7.897644210375468, 62.593175730126553 ], [ 7.882165324779747, 62.592475762129695 ], [ 7.881091737376064, 62.592060252005744 ], [ 7.879911055058564, 62.592090062703882 ], [ 7.879567488861612, 62.591892177520968 ], [ 7.879181072748408, 62.591872422730901 ], [ 7.878150410065685, 62.591278759731985 ], [ 7.862308202868523, 62.590467785777967 ], [ 7.860655409473, 62.590022419652037 ], [ 7.857950790628341, 62.589883750734607 ], [ 7.857779094270797, 62.589784782375062 ], [ 7.852756325205709, 62.589527110285886 ], [ 7.851747404746426, 62.589655657925441 ], [ 7.850201953941158, 62.589576326842234 ], [ 7.850030285767768, 62.589477349323786 ], [ 7.844428125746774, 62.589189624988812 ], [ 7.844084834299773, 62.58899165613331 ], [ 7.842925790643702, 62.588932096326687 ], [ 7.841016278333437, 62.587932296768209 ], [ 7.840479859512793, 62.587724389452667 ], [ 7.839342417140874, 62.587575742597132 ], [ 7.838462784028827, 62.587169847192584 ], [ 7.837540080283389, 62.586942061644855 ], [ 7.836531189609021, 62.587070499571652 ], [ 7.834814322830166, 62.586892007000543 ], [ 7.833419990479356, 62.586189093912523 ] ] } }
]
}
