{
"type": "FeatureCollection",
"name": "kjovskarstinden_13_wgs84",
"crs": { "type": "name", "properties": { "name": "urn:ogc:def:crs:OGC:1.3:CRS84" } },
"features": [
{ "type": "Feature", "properties": { "cat": 1 }, "geometry": { "type": "LineString", "coordinates": [ [ 7.946860962063801, 62.61316614563907 ], [ 7.946752564764138, 62.612800045918547 ], [ 7.94769598453659, 62.61212656030736 ], [ 7.947887144159262, 62.611324852965687 ], [ 7.947542898736177, 62.611127126271533 ], [ 7.947606618568085, 62.610859890588017 ], [ 7.945024942551389, 62.609376916680695 ], [ 7.945067434499608, 62.609198760487871 ], [ 7.94455113265796, 62.608902160575475 ], [ 7.94461487333109, 62.608634926533725 ], [ 7.944270680363553, 62.608437192464471 ], [ 7.944334422292641, 62.608169958566812 ], [ 7.943172291646625, 62.607299728273617 ], [ 7.94317020405975, 62.606488237721472 ], [ 7.942352316999014, 62.605815738053771 ], [ 7.942819801767575, 62.603856029097898 ], [ 7.942303612626973, 62.603559422367447 ], [ 7.941914932791284, 62.602728348492583 ], [ 7.940903873040414, 62.602046049924162 ], [ 7.941031381341214, 62.601511585480367 ], [ 7.939483017661976, 62.600621742422021 ], [ 7.939525526934788, 62.600443588139186 ], [ 7.939009428783884, 62.600146970432156 ], [ 7.938622855521632, 62.600127378273413 ], [ 7.93554777229064, 62.598258550166008 ], [ 7.933808320634498, 62.598170335556027 ], [ 7.932583060532675, 62.597567254322797 ], [ 7.931638001167608, 62.597429153044359 ], [ 7.929187680762251, 62.596222944357621 ], [ 7.9268686051382, 62.596105216885007 ], [ 7.926138165746232, 62.595887816648819 ], [ 7.923840428785239, 62.595680964840184 ], [ 7.921821187265449, 62.595127599855452 ], [ 7.919888724809986, 62.595029395573398 ], [ 7.916107753036721, 62.593665135191841 ], [ 7.915420095700676, 62.593269535331508 ], [ 7.91406747372948, 62.593200734422496 ], [ 7.912348460144219, 62.592211705005433 ], [ 7.911575565069298, 62.592172375208804 ], [ 7.910480228425243, 62.591846157611407 ], [ 7.90912768567095, 62.59177730985202 ], [ 7.908762584897916, 62.59166856535338 ], [ 7.907043837947699, 62.590679474130503 ], [ 7.897769834702678, 62.590206890950796 ], [ 7.895945493803465, 62.590474488893356 ], [ 7.892253221315531, 62.590376275415409 ], [ 7.891824037875645, 62.590534692024555 ], [ 7.891029830188418, 62.590584317418319 ], [ 7.888904589094413, 62.590475828183202 ], [ 7.888303582160949, 62.590535302003389 ], [ 7.887015950140585, 62.591010510285471 ], [ 7.8854703098847, 62.590931567599121 ], [ 7.884676083202573, 62.590981156542419 ], [ 7.884246851815286, 62.59113954917644 ], [ 7.867245350285324, 62.590269906918294 ], [ 7.865978867907045, 62.589844390344595 ], [ 7.86303824990553, 62.588251125863259 ], [ 7.860720129347289, 62.588132311313025 ], [ 7.859861660474397, 62.587637484625617 ], [ 7.859110456126902, 62.587508804977062 ], [ 7.857565091914268, 62.587429556692371 ], [ 7.856749432432568, 62.587568048733303 ], [ 7.855590412077174, 62.587508594534782 ], [ 7.854195232047671, 62.587617340777612 ], [ 7.853444054744054, 62.58748863096401 ], [ 7.851855700536798, 62.587587440793115 ], [ 7.851211674005778, 62.58782487522496 ], [ 7.850031146815983, 62.587854435005468 ], [ 7.848571387270333, 62.58823030419822 ], [ 7.847627050848927, 62.588091643494664 ], [ 7.846961973259007, 62.58760666112849 ], [ 7.846575640334707, 62.587586817107308 ], [ 7.846232352081246, 62.587388853582418 ], [ 7.846619203071556, 62.586597242594891 ], [ 7.844816762851638, 62.58596365431459 ], [ 7.842520444530479, 62.585755481951701 ], [ 7.841897920334561, 62.585903814434914 ], [ 7.839515468275958, 62.586051826144178 ], [ 7.837368470048754, 62.586843069325809 ], [ 7.836424234628526, 62.58670433411416 ], [ 7.835716268679435, 62.58639741563654 ], [ 7.834557347338552, 62.586337787923945 ], [ 7.834385750661166, 62.586238792117953 ], [ 7.833784736039116, 62.586298030802865 ], [ 7.833419990479356, 62.586189093912523 ] ] } }
]
}
