{
"type": "FeatureCollection",
"name": "kjovskarstinden_02_wgs84",
"crs": { "type": "name", "properties": { "name": "urn:ogc:def:crs:OGC:1.3:CRS84" } },
"features": [
{ "type": "Feature", "properties": { "cat": 1 }, "geometry": { "type": "LineString", "coordinates": [ [ 7.946860962063801, 62.61316614563907 ], [ 7.946752564764138, 62.612800045918547 ], [ 7.947266764446349, 62.612285147023243 ], [ 7.94793183269065, 62.611958187816292 ], [ 7.948080507392373, 62.61133463736553 ], [ 7.947564138824545, 62.611038047715589 ], [ 7.947606618568085, 62.610859890588017 ], [ 7.94401359262621, 62.608694636797068 ], [ 7.944098585591016, 62.60833832513422 ], [ 7.943431467492755, 62.607853776041026 ], [ 7.943516464383854, 62.607497464783336 ], [ 7.943172291646625, 62.607299728273617 ], [ 7.943278538769637, 62.606854339402474 ], [ 7.942934374854183, 62.606656602423122 ], [ 7.942998123949998, 62.606389369228857 ], [ 7.942201494694054, 62.605627791046629 ], [ 7.942541495051328, 62.604202548846821 ], [ 7.941358314544466, 62.603421383764143 ], [ 7.94107795916288, 62.602956410516796 ], [ 7.94056180295534, 62.602659797780319 ], [ 7.94083808492376, 62.601501792205887 ], [ 7.939483017661976, 62.600621742422021 ], [ 7.939525526934788, 62.600443588139186 ], [ 7.939009428783884, 62.600146970432156 ], [ 7.938429569107194, 62.600117581795132 ], [ 7.93722539499338, 62.599425462113416 ], [ 7.93726791561933, 62.599247308669803 ], [ 7.935870528192805, 62.598545379911442 ], [ 7.931403963250346, 62.598408985043406 ], [ 7.931189413410161, 62.598488254318752 ], [ 7.925198028396098, 62.598184126216999 ], [ 7.925026056074596, 62.598085237000163 ], [ 7.921568569989416, 62.597819451397449 ], [ 7.921396612095378, 62.597720557899081 ], [ 7.918540303253955, 62.597395083047992 ], [ 7.917809896520016, 62.597177639631127 ], [ 7.915877317694483, 62.597079378192113 ], [ 7.914953683638923, 62.59685209261 ], [ 7.910508850205573, 62.596625961541562 ], [ 7.910336936736103, 62.596527055005282 ], [ 7.903036213809576, 62.595974990035934 ], [ 7.902520564266469, 62.595678243381627 ], [ 7.901575717584828, 62.595539941256561 ], [ 7.900372603180653, 62.594847517743418 ], [ 7.892063582944108, 62.594423778904108 ], [ 7.89171990769857, 62.594225922195747 ], [ 7.885923118849886, 62.593929985680475 ], [ 7.885579491054349, 62.593732114480183 ], [ 7.883454050331956, 62.593623539462762 ], [ 7.883282246006957, 62.593524601055655 ], [ 7.873041770907244, 62.593001004014063 ], [ 7.872827110893401, 62.593080181984767 ], [ 7.868361788020015, 62.592941784841472 ], [ 7.868147116408993, 62.59302095544961 ], [ 7.865613920476264, 62.592981387073507 ], [ 7.865399241505494, 62.593060553350931 ], [ 7.856297044858164, 62.592684172094714 ], [ 7.853119783047371, 62.592881831130292 ], [ 7.850221747524069, 62.592733095529667 ], [ 7.850007030820924, 62.592812237592675 ], [ 7.847667098520064, 62.592782261864059 ], [ 7.846658046702188, 62.592910770883371 ], [ 7.845885244200583, 62.592871078225429 ], [ 7.845155504239835, 62.592653263429895 ], [ 7.84356685073566, 62.592751974742136 ], [ 7.842600859675299, 62.592702336997625 ], [ 7.842429200044841, 62.592603350237489 ], [ 7.840518779740954, 62.592414994495144 ], [ 7.839875273235754, 62.591840920655635 ], [ 7.837643196802207, 62.591365488799923 ], [ 7.836227037198741, 62.590751657532245 ], [ 7.83584067253337, 62.590731783329275 ], [ 7.835325799308966, 62.590434798885603 ], [ 7.835368913693855, 62.590256684761151 ], [ 7.835970006323153, 62.590197440310703 ], [ 7.836421025663483, 62.589950142254892 ], [ 7.836357170848885, 62.589405862091539 ], [ 7.833461347363124, 62.58763388232947 ], [ 7.833419990479356, 62.586189093912523 ] ] } }
]
}
