{
"type": "FeatureCollection",
"name": "kjovskarstinden_20_wgs84",
"crs": { "type": "name", "properties": { "name": "urn:ogc:def:crs:OGC:1.3:CRS84" } },
"features": [
{ "type": "Feature", "properties": { "cat": 1 }, "geometry": { "type": "LineString", "coordinates": [ [ 7.946860962063801, 62.61316614563907 ], [ 7.946752564764138, 62.612800045918547 ], [ 7.947266764446349, 62.612285147023243 ], [ 7.947910592869946, 62.612047266431212 ], [ 7.948144222955764, 62.6110674013797 ], [ 7.944895332744847, 62.609099894047496 ], [ 7.944572379693443, 62.608813082566769 ], [ 7.944506516928078, 62.608268825604412 ], [ 7.943646055158753, 62.607774488445642 ], [ 7.943709800899293, 62.607507254883252 ], [ 7.943365626732461, 62.6073095188314 ], [ 7.943471871003741, 62.606864129774777 ], [ 7.941727786771421, 62.605153026707058 ], [ 7.941982802368021, 62.604084096204375 ], [ 7.94082089461145, 62.603213849286199 ], [ 7.940863400571318, 62.603035694554393 ], [ 7.940175195730773, 62.602640209468817 ], [ 7.940258196537998, 62.601472410786684 ], [ 7.938881891571483, 62.600681432644066 ], [ 7.938945660827746, 62.600414201561655 ], [ 7.935505243155472, 62.598436702971945 ], [ 7.933164691580652, 62.598408153764083 ], [ 7.932950146283043, 62.59848742580926 ], [ 7.931017418937966, 62.598389372192848 ], [ 7.930802868247148, 62.598468640862109 ], [ 7.924811492201632, 62.598164496274457 ], [ 7.924467551556648, 62.597966716729111 ], [ 7.922169667803646, 62.597759835418515 ], [ 7.9214605303838, 62.597453336820095 ], [ 7.920129010229949, 62.597295518262506 ], [ 7.918216307863641, 62.596296733685044 ], [ 7.916863540034204, 62.596227957935504 ], [ 7.915445464271452, 62.595614905847647 ], [ 7.902906044584455, 62.594886457932631 ], [ 7.902734166787742, 62.59478754250479 ], [ 7.900995041883209, 62.594698923030478 ], [ 7.900651302572683, 62.594501087471663 ], [ 7.899491901078541, 62.594441993117862 ], [ 7.899320037420534, 62.594343073672611 ], [ 7.875167118894331, 62.593109736491549 ], [ 7.874158162398916, 62.593238445815402 ], [ 7.86718106464861, 62.59297148718386 ], [ 7.866751713774967, 62.593129824329871 ], [ 7.864046776382685, 62.592991269350016 ], [ 7.86370330849801, 62.592793346416094 ], [ 7.862157654268089, 62.59271414510355 ], [ 7.861942968390472, 62.592793305965543 ], [ 7.858830192163534, 62.592723909082174 ], [ 7.858400802014496, 62.592882219978343 ], [ 7.855502732950558, 62.59273359368963 ], [ 7.853914102044901, 62.592832423207433 ], [ 7.851402469161084, 62.592703536780903 ], [ 7.850007030820924, 62.592812237592675 ], [ 7.848461421935549, 62.592732885065573 ], [ 7.846658046702188, 62.592910770883371 ], [ 7.845692043940772, 62.592861154396623 ], [ 7.845155504239835, 62.592653263429895 ], [ 7.844575909069505, 62.592623488183165 ], [ 7.843738515082099, 62.592850960165769 ], [ 7.841033739313158, 62.592711960934693 ], [ 7.838909319575417, 62.591791257844065 ], [ 7.838522939135823, 62.591771390859527 ], [ 7.837493113172243, 62.591177438799967 ], [ 7.836741924959898, 62.591048638845471 ], [ 7.835883784382281, 62.590553669011165 ], [ 7.835755271789902, 62.590276560181955 ], [ 7.836614203094061, 62.589960078619249 ], [ 7.836571897382275, 62.589326741183925 ], [ 7.834534087504341, 62.588049747577465 ], [ 7.834835034698648, 62.587614401458929 ], [ 7.833805423334837, 62.587020425080077 ], [ 7.833891657160892, 62.586664197823644 ], [ 7.833376871909902, 62.586367207379176 ], [ 7.833419990479356, 62.586189093912523 ] ] } }
]
}
