{
"type": "FeatureCollection",
"name": "kjovskarstinden_15_wgs84",
"crs": { "type": "name", "properties": { "name": "urn:ogc:def:crs:OGC:1.3:CRS84" } },
"features": [
{ "type": "Feature", "properties": { "cat": 1 }, "geometry": { "type": "LineString", "coordinates": [ [ 7.946860962063801, 62.61316614563907 ], [ 7.946752564764138, 62.612800045918547 ], [ 7.947266764446349, 62.612285147023243 ], [ 7.947910592869946, 62.612047266431212 ], [ 7.948080507392373, 62.61133463736553 ], [ 7.948724308386484, 62.611096752649111 ], [ 7.948788017515514, 62.610829516282607 ], [ 7.950740569231093, 62.610026763158132 ], [ 7.950783028105599, 62.609848604782684 ], [ 7.951448002230433, 62.609521627547444 ], [ 7.952735461232086, 62.609045822142548 ], [ 7.953013699092109, 62.608699281146713 ], [ 7.954301097308803, 62.608223460475486 ], [ 7.954921157732922, 62.607263130839272 ], [ 7.956208462596916, 62.606787291310177 ], [ 7.956293302502744, 62.606430970168148 ], [ 7.956936930959271, 62.606193045235038 ], [ 7.95712779302118, 62.605391321219948 ], [ 7.955062408952192, 62.604205086261764 ], [ 7.953751603907371, 62.603958502018472 ], [ 7.949305334805934, 62.603733588346643 ], [ 7.947348756259464, 62.602913342396029 ], [ 7.945608987945013, 62.602825270731522 ], [ 7.945264853202828, 62.602627539887749 ], [ 7.944878242467681, 62.602607964565408 ], [ 7.942813546946877, 62.601421557458622 ], [ 7.942426953937343, 62.601401975579265 ], [ 7.940878552906658, 62.600512147512141 ], [ 7.940169152037402, 62.600205740525872 ], [ 7.938622855521632, 62.600127378273413 ], [ 7.936923877834327, 62.599049558544415 ], [ 7.935505243155472, 62.598436702971945 ], [ 7.931467793508197, 62.598141758197499 ], [ 7.931295800022763, 62.598042876427954 ], [ 7.930329452447191, 62.597993841720722 ], [ 7.929985476040474, 62.597796075303549 ], [ 7.926120150474223, 62.597599860850387 ], [ 7.923540687082194, 62.596116519010607 ], [ 7.922230516386476, 62.595869647082594 ], [ 7.919243605240704, 62.594455666644841 ], [ 7.918663881318976, 62.594426197655551 ], [ 7.918320024419938, 62.594228404072844 ], [ 7.916001158913473, 62.594110498702669 ], [ 7.915464087297362, 62.593902871213537 ], [ 7.91449790736131, 62.593853729062552 ], [ 7.912091248610533, 62.59246908884132 ], [ 7.910995895284711, 62.592142875070344 ], [ 7.909450115569557, 62.592064196338939 ], [ 7.908248105869849, 62.592183318566256 ], [ 7.906745023392633, 62.591926467625221 ], [ 7.901528140180648, 62.59166070084418 ], [ 7.901098985450596, 62.591819146389398 ], [ 7.898587179485166, 62.591691107620179 ], [ 7.897191932239346, 62.591800283230725 ], [ 7.891395546918402, 62.591504579665056 ], [ 7.889807075889456, 62.591603820292889 ], [ 7.888755430648527, 62.591910771914868 ], [ 7.887961181939652, 62.591960379273083 ], [ 7.885642646250675, 62.591841973516303 ], [ 7.885127244099484, 62.591545165893933 ], [ 7.884161204465285, 62.591495815440872 ], [ 7.883989409599853, 62.591396878032192 ], [ 7.865055837546124, 62.590428245533964 ], [ 7.864326009360723, 62.590210529881723 ], [ 7.858530349401278, 62.589913469886838 ], [ 7.856662970565226, 62.589547213073452 ], [ 7.854731144771165, 62.589448114488178 ], [ 7.853335870444478, 62.589556850847423 ], [ 7.850824517237907, 62.589427957810557 ], [ 7.85060982657829, 62.589507101157132 ], [ 7.848291671226992, 62.589388079476471 ], [ 7.847776692847486, 62.589091139586039 ], [ 7.847003987656617, 62.589051454452985 ], [ 7.846832333334109, 62.58895247318523 ], [ 7.842239238574094, 62.588536150791292 ], [ 7.841209444611316, 62.587942226613279 ], [ 7.839943448251445, 62.587516480175971 ], [ 7.839363959756658, 62.587486684716168 ], [ 7.8388491046688, 62.587189713529014 ], [ 7.838076463974148, 62.58714997979358 ], [ 7.837153763967847, 62.586922191739831 ], [ 7.835716268679435, 62.58639741563654 ], [ 7.834364194294094, 62.586327849042128 ], [ 7.833956330993115, 62.586397027325113 ], [ 7.833419990479356, 62.586189093912523 ] ] } }
]
}
