{
"type": "FeatureCollection",
"name": "kjovskarstinden_17_wgs84",
"crs": { "type": "name", "properties": { "name": "urn:ogc:def:crs:OGC:1.3:CRS84" } },
"features": [
{ "type": "Feature", "properties": { "cat": 1 }, "geometry": { "type": "LineString", "coordinates": [ [ 7.946860962063801, 62.61316614563907 ], [ 7.945250222502068, 62.613355082519966 ], [ 7.943554446141293, 62.613900311586178 ], [ 7.939514804348757, 62.613605570433492 ], [ 7.93859047201244, 62.613378432069723 ], [ 7.937430238808671, 62.613319642007674 ], [ 7.936312562276655, 62.613082689645189 ], [ 7.93562419472627, 62.612687179948558 ], [ 7.933475883972847, 62.612668422299052 ], [ 7.931801229331296, 62.613124430502744 ], [ 7.929094089536181, 62.612987107891911 ], [ 7.928922021124407, 62.61288822219759 ], [ 7.928148560684866, 62.61284897667182 ], [ 7.927804433007046, 62.61265120286118 ], [ 7.926837617869189, 62.612602137678614 ], [ 7.925654538426014, 62.611820840802935 ], [ 7.925803679529882, 62.611197320387397 ], [ 7.926232994167412, 62.611038800981639 ], [ 7.926296905319196, 62.610771577613008 ], [ 7.926962163563768, 62.610444720935909 ], [ 7.927153868584904, 62.609643049353593 ], [ 7.927647047995193, 62.60921730117817 ], [ 7.928349804545226, 62.606277831752422 ], [ 7.928993645714923, 62.606040038630461 ], [ 7.929291707210416, 62.604792987487414 ], [ 7.928775640893893, 62.60449633234947 ], [ 7.928857397867886, 62.602517061048104 ], [ 7.922837759923321, 62.599055962098255 ], [ 7.921892703128748, 62.598917794815137 ], [ 7.919442670875886, 62.597711418799008 ], [ 7.91849767382246, 62.597573229312644 ], [ 7.917637955043366, 62.597078741718988 ], [ 7.916907562872542, 62.596861293771795 ], [ 7.915941283817147, 62.5968121602872 ], [ 7.914716451487581, 62.59620892785383 ], [ 7.905247325716218, 62.595726987732661 ], [ 7.904559770613875, 62.595331335702376 ], [ 7.902262249746907, 62.595124131264782 ], [ 7.900157068853054, 62.594115263038752 ], [ 7.89841799299609, 62.594026612085386 ], [ 7.898246135324098, 62.593927691397177 ], [ 7.875059667941255, 62.59274359400554 ], [ 7.874265378914941, 62.592793122798632 ], [ 7.873836067123221, 62.592951482288996 ], [ 7.871324314783215, 62.59282295311737 ], [ 7.870508564475427, 62.592961524422684 ], [ 7.869542509661804, 62.592912072477006 ], [ 7.86696638978114, 62.593050655929872 ], [ 7.861921488489115, 62.592882368182124 ], [ 7.861706800757624, 62.592961528655252 ], [ 7.860933971480041, 62.592921919045139 ], [ 7.860504589214054, 62.593080236527179 ], [ 7.856254051306102, 62.592862294325698 ], [ 7.855889140260781, 62.59275341398272 ], [ 7.855674437975745, 62.592832564969306 ], [ 7.854128808854271, 62.592753274993129 ], [ 7.852711868877136, 62.592951063592636 ], [ 7.851552649060256, 62.592891573113072 ], [ 7.851337934603553, 62.592970717256186 ], [ 7.846872772743675, 62.592831634105032 ], [ 7.846336224994952, 62.592623747572461 ], [ 7.844597440658307, 62.592534429344887 ], [ 7.843696056906074, 62.592217622824116 ], [ 7.842923277426143, 62.592177914062148 ], [ 7.842751619617606, 62.592078927723598 ], [ 7.840240111775629, 62.591949841920631 ], [ 7.840068464406878, 62.591850852420826 ], [ 7.837771731214531, 62.591642596185309 ], [ 7.837085189158438, 62.591246625408637 ], [ 7.836698817337925, 62.591226753486303 ], [ 7.835647490420309, 62.590721845829258 ], [ 7.835154177177153, 62.590335803679494 ], [ 7.835583649072417, 62.590177565496489 ], [ 7.835970006323153, 62.590197440310703 ], [ 7.836421025663483, 62.589950142254892 ], [ 7.83567069798965, 62.589009885290359 ], [ 7.833611388660743, 62.587821936093789 ], [ 7.833526027733903, 62.58736671212052 ], [ 7.833182831099522, 62.587168717714107 ], [ 7.833247512687469, 62.586901547650648 ], [ 7.832925884220815, 62.586614496021063 ], [ 7.832990566586508, 62.586347326087051 ], [ 7.833419990479356, 62.586189093912523 ] ] } }
]
}
