{
"type": "FeatureCollection",
"name": "kjovskarstinden_14_wgs84",
"crs": { "type": "name", "properties": { "name": "urn:ogc:def:crs:OGC:1.3:CRS84" } },
"features": [
{ "type": "Feature", "properties": { "cat": 1 }, "geometry": { "type": "LineString", "coordinates": [ [ 7.946860962063801, 62.61316614563907 ], [ 7.945250222502068, 62.613355082519966 ], [ 7.943769078303217, 62.613821024401453 ], [ 7.939514804348757, 62.613605570433492 ], [ 7.93859047201244, 62.613378432069723 ], [ 7.937430238808671, 62.613319642007674 ], [ 7.936312562276655, 62.613082689645189 ], [ 7.93562419472627, 62.612687179948558 ], [ 7.933475883972847, 62.612668422299052 ], [ 7.931801229331296, 62.613124430502744 ], [ 7.928492692926858, 62.613046749694618 ], [ 7.927439008277785, 62.612542502927141 ], [ 7.926686863215985, 62.612414174817779 ], [ 7.925482488287658, 62.611721951111214 ], [ 7.925589020499805, 62.611276579571786 ], [ 7.926447649774877, 62.610959540760248 ], [ 7.926726211101799, 62.610613056569946 ], [ 7.927492991777427, 62.607406369405901 ], [ 7.927707617212692, 62.607327106838468 ], [ 7.927814096113939, 62.606881732871074 ], [ 7.928887188306916, 62.606485413789471 ], [ 7.929291707210416, 62.604792987487414 ], [ 7.928775640893893, 62.60449633234947 ], [ 7.928945959225709, 62.60378373200065 ], [ 7.928665797062808, 62.603318736409058 ], [ 7.928814820924012, 62.602695211165049 ], [ 7.924686898303058, 62.600321910618561 ], [ 7.924300334752822, 62.600302278891412 ], [ 7.922688633896892, 62.599679479593618 ], [ 7.920970456871405, 62.599502030550461 ], [ 7.920626527499677, 62.599304241685751 ], [ 7.92023998057845, 62.59928459892798 ], [ 7.919036273685963, 62.598592328502079 ], [ 7.917490131817948, 62.598513734028543 ], [ 7.916609083029225, 62.59810831286191 ], [ 7.91602929123006, 62.59807883200552 ], [ 7.915685411502634, 62.597881031622876 ], [ 7.914332579048623, 62.597812230450941 ], [ 7.913988713885572, 62.597614426080455 ], [ 7.909737032429264, 62.597398098952183 ], [ 7.908813438254471, 62.597170773240059 ], [ 7.907932550335691, 62.596765299426281 ], [ 7.907546047056693, 62.596745622072795 ], [ 7.907030338407383, 62.596448891299318 ], [ 7.906064093469757, 62.596399689834385 ], [ 7.905527053425359, 62.596192024502351 ], [ 7.902649724911394, 62.595955299305686 ], [ 7.90194083757, 62.595648704830587 ], [ 7.900824120014856, 62.59541148108908 ], [ 7.89996476330507, 62.594916889437457 ], [ 7.897066233185084, 62.594769120850415 ], [ 7.89672251991941, 62.594571275958977 ], [ 7.885923118849886, 62.593929985680475 ], [ 7.885708485089555, 62.594009183836441 ], [ 7.883776246984652, 62.593910482140608 ], [ 7.883561607845281, 62.59398967691903 ], [ 7.873707398286119, 62.593485869380295 ], [ 7.873535628016912, 62.593386919426393 ], [ 7.871410267797714, 62.593278161914235 ], [ 7.871238506533431, 62.593179209252547 ], [ 7.868726749214792, 62.593050633219988 ], [ 7.868512077735764, 62.593129804391772 ], [ 7.865613920476264, 62.592981387073507 ], [ 7.865399241505494, 62.593060553350931 ], [ 7.863660359089, 62.59297147152941 ], [ 7.863445675168316, 62.593050634731696 ], [ 7.856297044858164, 62.592684172094714 ], [ 7.853119783047371, 62.592881831130292 ], [ 7.849062542521513, 62.592673584548415 ], [ 7.848031978344499, 62.592891163300408 ], [ 7.846486372046443, 62.592811788914105 ], [ 7.846271645158923, 62.592890925085861 ], [ 7.845906772097301, 62.592782019134773 ], [ 7.845112444038803, 62.592831381315882 ], [ 7.841828069460433, 62.592662622019127 ], [ 7.841098365694636, 62.592444786481998 ], [ 7.840068464406878, 62.591850852420826 ], [ 7.838372847977091, 62.591583341704229 ], [ 7.83637711073106, 62.590939708757688 ], [ 7.835690603407397, 62.590543731586401 ], [ 7.835755271789902, 62.590276560181955 ], [ 7.836399471975226, 62.590039199529336 ], [ 7.836378724081434, 62.589316804817258 ], [ 7.833997713653928, 62.5878418159338 ], [ 7.833719187166126, 62.587376652250846 ], [ 7.833720060939425, 62.586565201204564 ], [ 7.833376871909902, 62.586367207379176 ], [ 7.833419990479356, 62.586189093912523 ] ] } }
]
}
