{
"type": "FeatureCollection",
"name": "kjovskarstinden_33_wgs84",
"crs": { "type": "name", "properties": { "name": "urn:ogc:def:crs:OGC:1.3:CRS84" } },
"features": [
{ "type": "Feature", "properties": { "cat": 1 }, "geometry": { "type": "LineString", "coordinates": [ [ 7.946860962063801, 62.61316614563907 ], [ 7.946688831977153, 62.613067281034624 ], [ 7.94709463790644, 62.612186282966398 ], [ 7.945738912469537, 62.611306285212855 ], [ 7.945758006169509, 62.6104057156533 ], [ 7.944897463240288, 62.609911385133749 ], [ 7.944961203545803, 62.609644150930755 ], [ 7.944444895313988, 62.609347550540456 ], [ 7.944508638153692, 62.609080316577156 ], [ 7.943992344023901, 62.608783714699719 ], [ 7.943926491959296, 62.608239457606864 ], [ 7.943431467492755, 62.607853776041026 ], [ 7.943495215377745, 62.607586542605624 ], [ 7.943021457128478, 62.60711178199125 ], [ 7.942696467530817, 62.606013476290933 ], [ 7.942180243443968, 62.605716868639654 ], [ 7.94222274579969, 62.605538713448375 ], [ 7.941727786771421, 62.605153026707058 ], [ 7.941940301213014, 62.604262251340479 ], [ 7.941273306577862, 62.60377769356834 ], [ 7.941315810850049, 62.603599538676725 ], [ 7.940670094317319, 62.603025900915142 ], [ 7.940625562499299, 62.602392565803179 ], [ 7.940281466616426, 62.602194823185101 ], [ 7.940451492522151, 62.601482204859039 ], [ 7.938903148134696, 62.600592355621835 ], [ 7.938945660827746, 62.600414201561655 ], [ 7.937246655378597, 62.599336385394231 ], [ 7.935526507795308, 62.598347626571588 ], [ 7.933400506647402, 62.598239805381539 ], [ 7.932648692701019, 62.598111513850171 ], [ 7.932304699146973, 62.597913752923183 ], [ 7.931531622464806, 62.597874531304385 ], [ 7.929769190659157, 62.597063856337165 ], [ 7.926097222109891, 62.596877450677169 ], [ 7.925065430676482, 62.596284119414356 ], [ 7.923326133963474, 62.596195776145329 ], [ 7.922037264497409, 62.595859828350797 ], [ 7.919331753250627, 62.595722338190065 ], [ 7.91692471737332, 62.59433777633209 ], [ 7.916366316929683, 62.594219225016907 ], [ 7.913078705012898, 62.592429174850906 ], [ 7.908849111848391, 62.592123758763094 ], [ 7.907153933343192, 62.592668553448554 ], [ 7.899038617755256, 62.592255075694951 ], [ 7.898416221879061, 62.592403662255549 ], [ 7.894358645327209, 62.592196729243625 ], [ 7.893736228574832, 62.592345294631187 ], [ 7.892190496350501, 62.592266425200243 ], [ 7.891160242852607, 62.592484326894258 ], [ 7.887875576069096, 62.592316648378805 ], [ 7.887660959283752, 62.592395849770568 ], [ 7.883217055473817, 62.592168861373132 ], [ 7.88248704589571, 62.591951238339718 ], [ 7.881714207797087, 62.591911743791897 ], [ 7.880704914199344, 62.591229032912217 ], [ 7.846703201482728, 62.589486829026733 ], [ 7.846016585424729, 62.58909090122345 ], [ 7.844492711939819, 62.588922448412724 ], [ 7.844149423029811, 62.588724479750638 ], [ 7.843763077973801, 62.588704627769957 ], [ 7.842561612652041, 62.588011728090208 ], [ 7.8415957776059, 62.587962085506447 ], [ 7.840673024213832, 62.587734320019521 ], [ 7.839621747704529, 62.587229443014024 ], [ 7.838076463974148, 62.58714997979358 ], [ 7.836424234628526, 62.58670433411416 ], [ 7.834878989007161, 62.586624835969701 ], [ 7.834535791393979, 62.586426844880386 ], [ 7.833956330993115, 62.586397027325113 ], [ 7.833419990479356, 62.586189093912523 ] ] } }
]
}
