{
"type": "FeatureCollection",
"name": "kjovskarstinden_43_wgs84",
"crs": { "type": "name", "properties": { "name": "urn:ogc:def:crs:OGC:1.3:CRS84" } },
"features": [
{ "type": "Feature", "properties": { "cat": 1 }, "geometry": { "type": "LineString", "coordinates": [ [ 7.946860962063801, 62.61316614563907 ], [ 7.946752564764138, 62.612800045918547 ], [ 7.947266764446349, 62.612285147023243 ], [ 7.94793183269065, 62.611958187816292 ], [ 7.948295108864848, 62.611255342805514 ], [ 7.949153503343734, 62.610938161110965 ], [ 7.949667627514882, 62.610423252348575 ], [ 7.950740569231093, 62.610026763158132 ], [ 7.951233421736736, 62.609600927239406 ], [ 7.954536876178001, 62.608055075886575 ], [ 7.954621740707479, 62.607698756094443 ], [ 7.955072069233296, 62.607451065282419 ], [ 7.955135711395619, 62.607183825114383 ], [ 7.955779365538816, 62.606945905867804 ], [ 7.956139943502144, 62.605431541874104 ], [ 7.954784240289839, 62.604551632282046 ], [ 7.954225489105368, 62.604433227896074 ], [ 7.951325690472365, 62.604286570218292 ], [ 7.95007859351592, 62.603772713875678 ], [ 7.949305334805934, 62.603733588346643 ], [ 7.947928681628772, 62.602942694829885 ], [ 7.948119760070963, 62.602140986027806 ], [ 7.947452708102597, 62.601656457031247 ], [ 7.948301866588285, 62.598093306565197 ], [ 7.946581411240824, 62.597104679970755 ], [ 7.944990630268563, 62.596393055703281 ], [ 7.943465754776138, 62.59622567139391 ], [ 7.943293731056904, 62.596126804015455 ], [ 7.941747636133749, 62.596048479111374 ], [ 7.94054354200598, 62.595356389134324 ], [ 7.939813015937585, 62.595139059365167 ], [ 7.928411247647863, 62.59456073482658 ], [ 7.928067322708934, 62.594362964366262 ], [ 7.923236252467198, 62.594117621004592 ], [ 7.922892367803626, 62.593919838323096 ], [ 7.920766741261799, 62.593811829575458 ], [ 7.918510393944408, 62.592615263465312 ], [ 7.917565562528909, 62.59247706988986 ], [ 7.916512777682692, 62.591972752651472 ], [ 7.912820216418115, 62.591875079939967 ], [ 7.909876825352544, 62.590282766313415 ], [ 7.89500004717492, 62.589524671126327 ], [ 7.892703785581032, 62.590128789195724 ], [ 7.889612567678139, 62.589971013643712 ], [ 7.889183376653176, 62.590129422021832 ], [ 7.888217374447864, 62.590080100178682 ], [ 7.88800277510747, 62.590159302333582 ], [ 7.885877578384862, 62.590050767558282 ], [ 7.884611340337442, 62.590436886566955 ], [ 7.855439668201149, 62.588943480939896 ], [ 7.854044419878115, 62.589052224744108 ], [ 7.848635465452281, 62.588774581802809 ], [ 7.84846380709959, 62.588675602488912 ], [ 7.846725245370695, 62.588586313825466 ], [ 7.845695357776458, 62.58799242151045 ], [ 7.843205710020341, 62.587774334586058 ], [ 7.842497646861291, 62.587467449225876 ], [ 7.841360203093219, 62.587318818814701 ], [ 7.840845330351708, 62.58702185475935 ], [ 7.838913735442096, 62.586922540144386 ], [ 7.838012581464283, 62.586605700006494 ], [ 7.835115253112403, 62.586456660044909 ], [ 7.834943653866645, 62.586357664890691 ], [ 7.833419990479356, 62.586189093912523 ] ] } }
]
}
