{
"type": "FeatureCollection",
"name": "kjovskarstinden_31_wgs84",
"crs": { "type": "name", "properties": { "name": "urn:ogc:def:crs:OGC:1.3:CRS84" } },
"features": [
{ "type": "Feature", "properties": { "cat": 1 }, "geometry": { "type": "LineString", "coordinates": [ [ 7.946860962063801, 62.61316614563907 ], [ 7.946752564764138, 62.612800045918547 ], [ 7.947224280081691, 62.612463303983596 ], [ 7.947288006412039, 62.612196068535262 ], [ 7.946146881559549, 62.611236781393615 ], [ 7.946359318770212, 62.610345998299067 ], [ 7.94534790584901, 62.60966372724986 ], [ 7.945067434499608, 62.609198760487871 ], [ 7.944206937134526, 62.608704426315064 ], [ 7.944291927817684, 62.608348114503819 ], [ 7.943624806289687, 62.607863566289311 ], [ 7.94364395538724, 62.606962997739934 ], [ 7.943127705658743, 62.606666393253271 ], [ 7.942868544507609, 62.606112345113914 ], [ 7.942352316999014, 62.605815738053771 ], [ 7.942798553976407, 62.603945106832633 ], [ 7.941938242315119, 62.603450761137424 ], [ 7.941829934007966, 62.603084658760984 ], [ 7.941335019137838, 62.60269897121173 ], [ 7.941396724727202, 62.601620248726057 ], [ 7.939676307793308, 62.600631537490194 ], [ 7.939718815926033, 62.60045338313315 ], [ 7.939202715631694, 62.600156766112619 ], [ 7.938816142080532, 62.600137174485745 ], [ 7.935741045419435, 62.598268350459797 ], [ 7.933421777411821, 62.598150729384365 ], [ 7.932733783431656, 62.5977552104032 ], [ 7.932153978255116, 62.597725796406195 ], [ 7.931809992390361, 62.597528034361829 ], [ 7.931058203722161, 62.597399734595456 ], [ 7.925474855726186, 62.597026158403501 ], [ 7.925130923276451, 62.596828380603085 ], [ 7.924357886814192, 62.596789119757936 ], [ 7.921026895509891, 62.595177394981775 ], [ 7.92025390882786, 62.595138112056752 ], [ 7.918835811477501, 62.594525094151876 ], [ 7.917311197236399, 62.594357427375982 ], [ 7.913293256627781, 62.59234993346125 ], [ 7.911618226127049, 62.591994231481692 ], [ 7.909106347955684, 62.591866381239313 ], [ 7.906506891844026, 62.59047181383329 ], [ 7.897039760883324, 62.589989343244348 ], [ 7.896181450174115, 62.590306205369387 ], [ 7.894829019463026, 62.590237220422601 ], [ 7.894013442173601, 62.590375931578848 ], [ 7.89227460812532, 62.590287207273001 ], [ 7.890858016957192, 62.590485388224216 ], [ 7.889119188458976, 62.590396624640697 ], [ 7.888689988591153, 62.590555031379942 ], [ 7.879201772821347, 62.59016042125328 ], [ 7.879030002342186, 62.590061478063994 ], [ 7.8720750375187, 62.589705708309687 ], [ 7.870958794947704, 62.589468251846874 ], [ 7.865184662328474, 62.589082405505962 ], [ 7.864841230272924, 62.588884485858657 ], [ 7.864261683544614, 62.588854793104346 ], [ 7.86288801801363, 62.588063101195111 ], [ 7.861342612246921, 62.587983894220315 ], [ 7.860441177919908, 62.587667195272928 ], [ 7.859088972589688, 62.587597866709636 ], [ 7.858917285089581, 62.587498899871377 ], [ 7.857565091914268, 62.587429556692371 ], [ 7.856749432432568, 62.587568048733303 ], [ 7.852456710325111, 62.58752812413362 ], [ 7.851855700536798, 62.587587440793115 ], [ 7.851211674005778, 62.58782487522496 ], [ 7.84962329591131, 62.58792365929385 ], [ 7.848356699694651, 62.588309444117392 ], [ 7.847627050848927, 62.588091643494664 ], [ 7.846253873905079, 62.587299794353868 ], [ 7.846511601182292, 62.58704253908558 ], [ 7.846619203071556, 62.586597242594891 ], [ 7.84644756374205, 62.586498261056803 ], [ 7.846061245642747, 62.586478415811946 ], [ 7.844623607889197, 62.58595372962202 ], [ 7.843850989501346, 62.585914028195262 ], [ 7.843142962630598, 62.585607146605348 ], [ 7.841897920334561, 62.585903814434914 ], [ 7.840094929022649, 62.586081620596062 ], [ 7.839322314986306, 62.58604189412894 ], [ 7.838056426172574, 62.585616132018735 ], [ 7.837112225925597, 62.585477401946228 ], [ 7.83560932569319, 62.586031249716768 ], [ 7.833419990479356, 62.586189093912523 ] ] } }
]
}
