{
"type": "FeatureCollection",
"name": "kjovskarstinden_06_wgs84",
"crs": { "type": "name", "properties": { "name": "urn:ogc:def:crs:OGC:1.3:CRS84" } },
"features": [
{ "type": "Feature", "properties": { "cat": 1 }, "geometry": { "type": "LineString", "coordinates": [ [ 7.946860962063801, 62.61316614563907 ], [ 7.946752564764138, 62.612800045918547 ], [ 7.947266764446349, 62.612285147023243 ], [ 7.94793183269065, 62.611958187816292 ], [ 7.948080507392373, 62.61133463736553 ], [ 7.949153503343734, 62.610938161110965 ], [ 7.949217208183312, 62.61067092449067 ], [ 7.950740569231093, 62.610026763158132 ], [ 7.950783028105599, 62.609848604782684 ], [ 7.952070511933665, 62.609372805848444 ], [ 7.952992477451999, 62.608788360780679 ], [ 7.954730220920437, 62.608064850822295 ], [ 7.955371476968587, 62.607015438935463 ], [ 7.956229672789638, 62.606698211032509 ], [ 7.956272092742556, 62.606520050461462 ], [ 7.956701180950102, 62.606361434269168 ], [ 7.956892050740074, 62.605559710681163 ], [ 7.956547808379802, 62.605362006241386 ], [ 7.956590224007702, 62.605183845513906 ], [ 7.95504119751922, 62.60429416634706 ], [ 7.954074597188293, 62.604245292795063 ], [ 7.953730388770873, 62.604047581854921 ], [ 7.951023947029406, 62.603910694119968 ], [ 7.950099819342914, 62.603683634737848 ], [ 7.949583558552087, 62.603387053989934 ], [ 7.948810310697044, 62.603347925861939 ], [ 7.94771414079831, 62.603021989643864 ], [ 7.945781057026619, 62.602924135857847 ], [ 7.945264853202828, 62.602627539887749 ], [ 7.944706178236109, 62.602509098390179 ], [ 7.942813546946877, 62.601421557458622 ], [ 7.942426953937343, 62.601401975579265 ], [ 7.940362439751851, 62.600215534610705 ], [ 7.938622855521632, 62.600127378273413 ], [ 7.936063803320392, 62.598555179784753 ], [ 7.935677253209716, 62.598535579772211 ], [ 7.935333234241087, 62.598337825974788 ], [ 7.933808320634498, 62.598170335556027 ], [ 7.933292319153018, 62.597873697988092 ], [ 7.932712510965831, 62.597844286272796 ], [ 7.929767452922183, 62.596252370243512 ], [ 7.928822449401033, 62.59611425063467 ], [ 7.928113279352009, 62.595807785425002 ], [ 7.923496522527351, 62.595483183359804 ], [ 7.922980671686632, 62.595186509663606 ], [ 7.922014434307146, 62.595137418821452 ], [ 7.921112114786325, 62.5948211003547 ], [ 7.920145893189824, 62.594771996777681 ], [ 7.919608779853921, 62.594564384691367 ], [ 7.91864256974538, 62.594515270852398 ], [ 7.918126784831222, 62.594218580087464 ], [ 7.916451588540213, 62.593862933942063 ], [ 7.914861721498977, 62.59315097834417 ], [ 7.913315876430762, 62.593072341588567 ], [ 7.912413714710512, 62.592755968962145 ], [ 7.91011632915315, 62.592548895753254 ], [ 7.909020995644987, 62.592222666735744 ], [ 7.907689782342568, 62.592064733542784 ], [ 7.907346026740456, 62.591866914265324 ], [ 7.90174271583727, 62.591581477553113 ], [ 7.901141708594494, 62.591641006707995 ], [ 7.900283391183886, 62.591957893991136 ], [ 7.898265743907471, 62.592215672407953 ], [ 7.894380027494874, 62.592107660716344 ], [ 7.894165428993764, 62.592186872367023 ], [ 7.889485487336084, 62.592128362765649 ], [ 7.888025987930516, 62.592504648542992 ], [ 7.879331426817545, 62.592060431490282 ], [ 7.878708941973414, 62.59220892887064 ], [ 7.877936103548524, 62.592169413376794 ], [ 7.875596426184016, 62.59295137284191 ], [ 7.873449642083608, 62.592931711493669 ], [ 7.87302032404205, 62.593090068387461 ], [ 7.868361788020015, 62.592941784841472 ], [ 7.868147116408993, 62.59302095544961 ], [ 7.865613920476264, 62.592981387073507 ], [ 7.865399241505494, 62.593060553350931 ], [ 7.856297044858164, 62.592684172094714 ], [ 7.853119783047371, 62.592881831130292 ], [ 7.850221747524069, 62.592733095529667 ], [ 7.850007030820924, 62.592812237592675 ], [ 7.847667098520064, 62.592782261864059 ], [ 7.846658046702188, 62.592910770883371 ], [ 7.845885244200583, 62.592871078225429 ], [ 7.845155504239835, 62.592653263429895 ], [ 7.844382710971916, 62.592613562569468 ], [ 7.84356685073566, 62.592751974742136 ], [ 7.842600859675299, 62.592702336997625 ], [ 7.842429200044841, 62.592603350237489 ], [ 7.840518779740954, 62.592414994495144 ], [ 7.84017547905141, 62.592217015889489 ], [ 7.840068464406878, 62.591850852420826 ], [ 7.838179659261522, 62.591573407622924 ], [ 7.835690603407397, 62.590543731586401 ], [ 7.835755271789902, 62.590276560181955 ], [ 7.836421025663483, 62.589950142254892 ], [ 7.83646413260081, 62.589772027689961 ], [ 7.836120889083032, 62.589574039878848 ], [ 7.836207104582181, 62.589217810942891 ], [ 7.835177411485524, 62.58862384358553 ], [ 7.834447856272346, 62.588405975265268 ], [ 7.833782991512723, 62.587920932936782 ], [ 7.833763177818966, 62.586387087608777 ], [ 7.833419990479356, 62.586189093912523 ] ] } }
]
}
