{
"type": "FeatureCollection",
"name": "kjovskarstinden_49_wgs84",
"crs": { "type": "name", "properties": { "name": "urn:ogc:def:crs:OGC:1.3:CRS84" } },
"features": [
{ "type": "Feature", "properties": { "cat": 1 }, "geometry": { "type": "LineString", "coordinates": [ [ 7.946860962063801, 62.61316614563907 ], [ 7.944842221993684, 62.613424583294929 ], [ 7.944198339203217, 62.613662448995406 ], [ 7.938762576187342, 62.613477306317613 ], [ 7.93859047201244, 62.613378432069723 ], [ 7.937430238808671, 62.613319642007674 ], [ 7.937086042464914, 62.613121890173197 ], [ 7.935152346333776, 62.613023880870792 ], [ 7.933949570440272, 62.61314321434746 ], [ 7.933090953763509, 62.613460299495699 ], [ 7.928664760759441, 62.613145635910577 ], [ 7.928148560684866, 62.61284897667182 ], [ 7.926644255276102, 62.612592323843906 ], [ 7.925439874388855, 62.611900099690232 ], [ 7.925610326507698, 62.611187505248154 ], [ 7.926254298029496, 62.610949726530684 ], [ 7.926339512029595, 62.610593428674349 ], [ 7.926554164060844, 62.610514168240776 ], [ 7.92744874114693, 62.606773033895742 ], [ 7.927663362002544, 62.606693771334513 ], [ 7.927812428350032, 62.606070247746487 ], [ 7.928241656630092, 62.60591172099339 ], [ 7.928326828496141, 62.605555421345436 ], [ 7.928756046494981, 62.605396892870679 ], [ 7.928926371841885, 62.604684292644258 ], [ 7.928559347106841, 62.603764111425946 ], [ 7.928814820924012, 62.602695211165049 ], [ 7.91929203335163, 62.597523449506575 ], [ 7.91856161775245, 62.597306009907768 ], [ 7.913575682341986, 62.594437916197819 ], [ 7.911964525547607, 62.593815000282923 ], [ 7.910246758677123, 62.593637424646836 ], [ 7.909709737117622, 62.593429775669513 ], [ 7.908163894854558, 62.59335108183565 ], [ 7.907992007682219, 62.593252172761559 ], [ 7.885793041586862, 62.592029975865849 ], [ 7.885127244099484, 62.591545165893933 ], [ 7.884569030799561, 62.591426489786464 ], [ 7.865077305816652, 62.59033918267577 ], [ 7.864905582577443, 62.590240222728234 ], [ 7.84713260144316, 62.58932855428894 ], [ 7.846960945136683, 62.589229573152622 ], [ 7.844642829940044, 62.589110491346261 ], [ 7.843355201796092, 62.588773833375825 ], [ 7.839899659590456, 62.588506049515431 ], [ 7.839556406706006, 62.588308070034579 ], [ 7.838397401185845, 62.588248473099426 ], [ 7.837539310349463, 62.587753514129268 ], [ 7.836187168937851, 62.587683964302549 ], [ 7.834942813939501, 62.587169116406749 ], [ 7.833419990479356, 62.586189093912523 ] ] } }
]
}
