{
"type": "FeatureCollection",
"name": "kjovskarstinden_04_wgs84",
"crs": { "type": "name", "properties": { "name": "urn:ogc:def:crs:OGC:1.3:CRS84" } },
"features": [
{ "type": "Feature", "properties": { "cat": 1 }, "geometry": { "type": "LineString", "coordinates": [ [ 7.946860962063801, 62.61316614563907 ], [ 7.946752564764138, 62.612800045918547 ], [ 7.947266764446349, 62.612285147023243 ], [ 7.94769598453659, 62.61212656030736 ], [ 7.947759705710447, 62.611859324573821 ], [ 7.947415455173481, 62.611661597497488 ], [ 7.947479177604652, 62.61139436190804 ], [ 7.94560714051044, 62.61021777175376 ], [ 7.944466143071663, 62.609258472557926 ], [ 7.944529885478044, 62.608991238578945 ], [ 7.94401359262621, 62.608694636797068 ], [ 7.944119833471118, 62.608249247205414 ], [ 7.943452716932196, 62.607764698234462 ], [ 7.943516464383854, 62.607497464783336 ], [ 7.943172291646625, 62.607299728273617 ], [ 7.943299787760906, 62.606765261612573 ], [ 7.942050674236857, 62.605439843900932 ], [ 7.942348180510701, 62.604192757422197 ], [ 7.941337062769477, 62.60351046122306 ], [ 7.941464571252791, 62.602975996391201 ], [ 7.940776359539927, 62.60258051417955 ], [ 7.940840116940153, 62.602313282075379 ], [ 7.940323973959528, 62.602016668634988 ], [ 7.940451492522151, 62.601482204859039 ], [ 7.939247216684396, 62.600790101275557 ], [ 7.939332238087988, 62.600433792879301 ], [ 7.938816142080532, 62.600137174485745 ], [ 7.938429569107194, 62.600117581795132 ], [ 7.937569439040208, 62.599623211578596 ], [ 7.937611957964126, 62.599445058007511 ], [ 7.935870528192805, 62.598545379911442 ], [ 7.935505243155472, 62.598436702971945 ], [ 7.933572508417324, 62.598338684666537 ], [ 7.932712510965831, 62.597844286272796 ], [ 7.931788717364249, 62.597617110056227 ], [ 7.930756784571853, 62.597023819007227 ], [ 7.929854312077973, 62.596707555057712 ], [ 7.929467791172726, 62.596687938226573 ], [ 7.927382837610518, 62.59559039167641 ], [ 7.921778581605953, 62.595305747445522 ], [ 7.920876259689391, 62.594989427420657 ], [ 7.919910033119711, 62.594940322142421 ], [ 7.919372918518506, 62.594732709130781 ], [ 7.918599946163789, 62.594693417230282 ], [ 7.917375143051287, 62.594090208535306 ], [ 7.9162157154538, 62.594031252883433 ], [ 7.914819077758122, 62.593329123295788 ], [ 7.914260705005048, 62.593210563921261 ], [ 7.912713581222117, 62.592320440387958 ], [ 7.908655889901639, 62.592113921890885 ], [ 7.908441328096168, 62.592193156007319 ], [ 7.900540699095893, 62.591700533241742 ], [ 7.898523071471695, 62.59195831564805 ], [ 7.897363774434799, 62.591899205010151 ], [ 7.897149185155759, 62.591978421377796 ], [ 7.892512039106763, 62.591741875869687 ], [ 7.892297438508217, 62.591821084617081 ], [ 7.888755430648527, 62.591910771914868 ], [ 7.888326206479342, 62.592069177204159 ], [ 7.886587295007663, 62.591980380922102 ], [ 7.88594343876437, 62.592217978077926 ], [ 7.884977375565385, 62.592168632960963 ], [ 7.884140289237903, 62.592396351727146 ], [ 7.881435315859342, 62.592258133598968 ], [ 7.881091737376064, 62.592060252005744 ], [ 7.879331426817545, 62.592060431490282 ], [ 7.878515732148821, 62.592199050395834 ], [ 7.877742894306265, 62.592159533838938 ], [ 7.875639304090719, 62.59277324308465 ], [ 7.875059667941255, 62.59274359400554 ], [ 7.874415705775229, 62.592981136488753 ], [ 7.873256429782333, 62.59292182569736 ], [ 7.872827110893401, 62.593080181984767 ], [ 7.868361788020015, 62.592941784841472 ], [ 7.868147116408993, 62.59302095544961 ], [ 7.865613920476264, 62.592981387073507 ], [ 7.865399241505494, 62.593060553350931 ], [ 7.856297044858164, 62.592684172094714 ], [ 7.853119783047371, 62.592881831130292 ], [ 7.850221747524069, 62.592733095529667 ], [ 7.850007030820924, 62.592812237592675 ], [ 7.847667098520064, 62.592782261864059 ], [ 7.846658046702188, 62.592910770883371 ], [ 7.845885244200583, 62.592871078225429 ], [ 7.845155504239835, 62.592653263429895 ], [ 7.844382710971916, 62.592613562569468 ], [ 7.84356685073566, 62.592751974742136 ], [ 7.842600859675299, 62.592702336997625 ], [ 7.842429200044841, 62.592603350237489 ], [ 7.840518779740954, 62.592414994495144 ], [ 7.84017547905141, 62.592217015889489 ], [ 7.840068464406878, 62.591850852420826 ], [ 7.837814833178135, 62.59146448113583 ], [ 7.837299927465118, 62.591167503540653 ], [ 7.836741924959898, 62.591048638845471 ], [ 7.835712159681317, 62.590454674456936 ], [ 7.835755271789902, 62.590276560181955 ], [ 7.836421025663483, 62.589950142254892 ], [ 7.836357170848885, 62.589405862091539 ], [ 7.833461347363124, 62.58763388232947 ], [ 7.833419990479356, 62.586189093912523 ] ] } }
]
}
