{
"type": "FeatureCollection",
"name": "kjovskarstinden_09_wgs84",
"crs": { "type": "name", "properties": { "name": "urn:ogc:def:crs:OGC:1.3:CRS84" } },
"features": [
{ "type": "Feature", "properties": { "cat": 1 }, "geometry": { "type": "LineString", "coordinates": [ [ 7.946860962063801, 62.61316614563907 ], [ 7.946752564764138, 62.612800045918547 ], [ 7.947481375062056, 62.612205853838049 ], [ 7.947910592869946, 62.612047266431212 ], [ 7.948080507392373, 62.61133463736553 ], [ 7.948938906435653, 62.611017457052768 ], [ 7.949667627514882, 62.610423252348575 ], [ 7.950740569231093, 62.610026763158132 ], [ 7.951662581583145, 62.609442327510095 ], [ 7.954730220920437, 62.608064850822295 ], [ 7.955072069233296, 62.607451065282419 ], [ 7.955972703586778, 62.606955678991866 ], [ 7.956121177919353, 62.606332117270753 ], [ 7.956592681203206, 62.605995340807965 ], [ 7.956719928989596, 62.605460858559859 ], [ 7.954675769527825, 62.604185537713043 ], [ 7.953902492409314, 62.604146437423559 ], [ 7.953558286272964, 62.603948726089143 ], [ 7.949691963872371, 62.60375315164314 ], [ 7.947971144514911, 62.602764537354894 ], [ 7.948119760070963, 62.602140986027806 ], [ 7.947259408061295, 62.601646672607615 ], [ 7.947386799971313, 62.601112200793004 ], [ 7.947214735545079, 62.601013337708828 ], [ 7.947641568207709, 62.600043256599456 ], [ 7.946953337781461, 62.5996478046088 ], [ 7.947592442918481, 62.597786937027891 ], [ 7.945527959786292, 62.596600572911562 ], [ 7.943230012527343, 62.596394037774445 ], [ 7.94305798867121, 62.596295170103488 ], [ 7.937432152921194, 62.596100228300877 ], [ 7.9372176357084, 62.596179507289619 ], [ 7.928907578711078, 62.595757950037083 ], [ 7.927404123990058, 62.595501316805922 ], [ 7.923539118221159, 62.595305035110918 ], [ 7.923001970880943, 62.595097435637562 ], [ 7.922228982966779, 62.595058163644296 ], [ 7.921326663427425, 62.594741846565448 ], [ 7.9203604439556, 62.594692744503668 ], [ 7.919286224535477, 62.594277520012199 ], [ 7.918320024419938, 62.594228404072844 ], [ 7.917439087562786, 62.593822989647308 ], [ 7.917052614535496, 62.593803339049977 ], [ 7.916708775594814, 62.593605541735371 ], [ 7.916129071426842, 62.593576062473886 ], [ 7.91561332799028, 62.593279362969504 ], [ 7.914131445524002, 62.592933517418061 ], [ 7.912563012028842, 62.592132464742974 ], [ 7.911790118652458, 62.592093136158525 ], [ 7.909750017560278, 62.591628674615585 ], [ 7.908225608870874, 62.591460911272399 ], [ 7.907667298856238, 62.591342326340786 ], [ 7.906614726141961, 62.590837937232521 ], [ 7.905455452365699, 62.59077889418657 ], [ 7.905283588801566, 62.590679982091139 ], [ 7.904124324533003, 62.590620928105878 ], [ 7.903909762118798, 62.590700155241393 ], [ 7.898113506389107, 62.590404732703234 ], [ 7.896911525064025, 62.590523757584343 ], [ 7.896482363412003, 62.590682188827074 ], [ 7.89279006242644, 62.590583989180828 ], [ 7.890987048428785, 62.590762453207461 ], [ 7.888475386949183, 62.590634234230954 ], [ 7.887273362882376, 62.590753175442103 ], [ 7.885920938088147, 62.590684104166698 ], [ 7.88549171750614, 62.59084250077963 ], [ 7.88413929390242, 62.590773412238384 ], [ 7.883924678936027, 62.590852607904246 ], [ 7.875617072126627, 62.590427908149003 ], [ 7.874715406874969, 62.590111298375973 ], [ 7.868189791613228, 62.589596973117565 ], [ 7.867846333291445, 62.589399060516939 ], [ 7.866901861580822, 62.589260528544855 ], [ 7.866558415809042, 62.589062612941568 ], [ 7.864648047884333, 62.588874588539596 ], [ 7.862244160992128, 62.587489125854404 ], [ 7.858166088636152, 62.587370215241386 ], [ 7.856942603002695, 62.587577956836491 ], [ 7.855590412077174, 62.587508594534782 ], [ 7.854195232047671, 62.587617340777612 ], [ 7.853444054744054, 62.58748863096401 ], [ 7.851855700536798, 62.587587440793115 ], [ 7.851211674005778, 62.58782487522496 ], [ 7.850031146815983, 62.587854435005468 ], [ 7.848571387270333, 62.58823030419822 ], [ 7.847627050848927, 62.588091643494664 ], [ 7.846253873905079, 62.587299794353868 ], [ 7.846619203071556, 62.586597242594891 ], [ 7.844816762851638, 62.58596365431459 ], [ 7.842520444530479, 62.585755481951701 ], [ 7.841897920334561, 62.585903814434914 ], [ 7.839515468275958, 62.586051826144178 ], [ 7.837368470048754, 62.586843069325809 ], [ 7.836982155163772, 62.586823198964709 ], [ 7.835716268679435, 62.58639741563654 ], [ 7.834364194294094, 62.586327849042128 ], [ 7.833956330993115, 62.586397027325113 ], [ 7.833419990479356, 62.586189093912523 ] ] } }
]
}
