{
"type": "FeatureCollection",
"name": "kjovskarstinden_22_wgs84",
"crs": { "type": "name", "properties": { "name": "urn:ogc:def:crs:OGC:1.3:CRS84" } },
"features": [
{ "type": "Feature", "properties": { "cat": 1 }, "geometry": { "type": "LineString", "coordinates": [ [ 7.946860962063801, 62.61316614563907 ], [ 7.945250222502068, 62.613355082519966 ], [ 7.943983709323859, 62.61374173687117 ], [ 7.941083066793716, 62.613594854956531 ], [ 7.940868429381607, 62.61367413793873 ], [ 7.939514804348757, 62.613605570433492 ], [ 7.93859047201244, 62.613378432069723 ], [ 7.936678027562406, 62.613191366878922 ], [ 7.93562419472627, 62.612687179948558 ], [ 7.933475883972847, 62.612668422299052 ], [ 7.93119983462914, 62.613184084000849 ], [ 7.928492692926858, 62.613046749694618 ], [ 7.927632370879675, 62.612552315660409 ], [ 7.92666555931846, 62.612503249333464 ], [ 7.925461181410686, 62.611811025403327 ], [ 7.925589020499805, 62.611276579571786 ], [ 7.92646895292171, 62.610870466266867 ], [ 7.92742744466043, 62.606862108630608 ], [ 7.928092600292278, 62.606535245175287 ], [ 7.928284242852578, 62.605733571179897 ], [ 7.92892807242978, 62.605495778203917 ], [ 7.929226129752634, 62.604248727140472 ], [ 7.928601927523322, 62.603585961434938 ], [ 7.928664100006906, 62.602507250882127 ], [ 7.919162710316429, 62.597246406818932 ], [ 7.917593916560692, 62.596445405903317 ], [ 7.917014155935528, 62.596415929561196 ], [ 7.91630510473304, 62.596109405906788 ], [ 7.914929693667561, 62.595318203452102 ], [ 7.91321182021217, 62.595140662908015 ], [ 7.91213768856473, 62.594725384533213 ], [ 7.910012054065655, 62.594617211736356 ], [ 7.909840153512848, 62.594518304760712 ], [ 7.90307691275681, 62.594173896595237 ], [ 7.902905038355938, 62.594074981423482 ], [ 7.899620111980826, 62.593907576079282 ], [ 7.899448250869117, 62.593808656826191 ], [ 7.896936285946631, 62.593680586170883 ], [ 7.896764435265633, 62.593581663750811 ], [ 7.891933820350529, 62.593335242060498 ], [ 7.891761988678107, 62.593236313732262 ], [ 7.881907852406894, 62.59273308673172 ], [ 7.881220682939037, 62.592337324858732 ], [ 7.879181072748408, 62.591872422730901 ], [ 7.877785434103423, 62.591169935819885 ], [ 7.846681678995854, 62.589575888314975 ], [ 7.846510022851192, 62.589476906625727 ], [ 7.844578244576859, 62.589377668003038 ], [ 7.843698485829451, 62.58897180392713 ], [ 7.842732617212895, 62.588922168762366 ], [ 7.841638190622385, 62.588595422880637 ], [ 7.84095166365432, 62.588199471346044 ], [ 7.840372160577376, 62.588169679878497 ], [ 7.840028908213275, 62.58797170156793 ], [ 7.839642576421335, 62.587951838348999 ], [ 7.837904850748465, 62.587050988094134 ], [ 7.837153763967847, 62.586922191739831 ], [ 7.835716268679435, 62.58639741563654 ], [ 7.833419990479356, 62.586189093912523 ] ] } }
]
}
