{
"type": "FeatureCollection",
"name": "kjovskarstinden_08_wgs84",
"crs": { "type": "name", "properties": { "name": "urn:ogc:def:crs:OGC:1.3:CRS84" } },
"features": [
{ "type": "Feature", "properties": { "cat": 1 }, "geometry": { "type": "LineString", "coordinates": [ [ 7.946860962063801, 62.61316614563907 ], [ 7.946752564764138, 62.612800045918547 ], [ 7.947266764446349, 62.612285147023243 ], [ 7.94769598453659, 62.61212656030736 ], [ 7.947887144159262, 62.611324852965687 ], [ 7.947542898736177, 62.611127126271533 ], [ 7.947585378768514, 62.610948969154407 ], [ 7.944487390684897, 62.609169394570159 ], [ 7.944529885478044, 62.608991238578945 ], [ 7.94401359262621, 62.608694636797068 ], [ 7.944098585591016, 62.60833832513422 ], [ 7.943431467492755, 62.607853776041026 ], [ 7.943516464383854, 62.607497464783336 ], [ 7.943042707123424, 62.607022704254106 ], [ 7.942847294816462, 62.606201422829166 ], [ 7.942352316999014, 62.605815738053771 ], [ 7.942777306040818, 62.604034184562124 ], [ 7.941744932913799, 62.603440968945655 ], [ 7.941851183920435, 62.602995581201725 ], [ 7.940668068139705, 62.602214411125573 ], [ 7.94083808492376, 62.601501792205887 ], [ 7.938903148134696, 62.600592355621835 ], [ 7.938945660827746, 62.600414201561655 ], [ 7.935526507795308, 62.598347626571588 ], [ 7.934560141469316, 62.598298620928389 ], [ 7.934345600578284, 62.598377895179638 ], [ 7.92990035223941, 62.598152376628484 ], [ 7.929685800425847, 62.598231643564212 ], [ 7.926013688374302, 62.598045233777313 ], [ 7.925584565169401, 62.598203755095966 ], [ 7.92483278861958, 62.598075421933103 ], [ 7.915942642186617, 62.59762364142361 ], [ 7.915770704592354, 62.597524741261807 ], [ 7.913838111766368, 62.597426451374361 ], [ 7.913300997234269, 62.597218814979499 ], [ 7.907911204500392, 62.596854370518514 ], [ 7.90720224015107, 62.596547801753736 ], [ 7.903358626940532, 62.596261890374834 ], [ 7.902628363995289, 62.596044369385837 ], [ 7.901662141441506, 62.59599513772158 ], [ 7.901318383098282, 62.595797303551578 ], [ 7.900352171321543, 62.595748062956005 ], [ 7.900008424683556, 62.595550225714575 ], [ 7.8976895483845, 62.595432015685709 ], [ 7.896980726102292, 62.595125396874025 ], [ 7.895628073947011, 62.595056416687044 ], [ 7.895069750743793, 62.594937781137709 ], [ 7.894554200180057, 62.594641006362728 ], [ 7.892235422275485, 62.594522706963687 ], [ 7.891526679295676, 62.594216061499353 ], [ 7.884935588101936, 62.5939697063476 ], [ 7.884591966607766, 62.593771832799021 ], [ 7.872998877031155, 62.593179132755601 ], [ 7.872827110893401, 62.593080181984767 ], [ 7.870315353221192, 62.59295163456509 ], [ 7.870100686561186, 62.593030808248137 ], [ 7.868361788020015, 62.592941784841472 ], [ 7.86696638978114, 62.593050655929872 ], [ 7.864454666759991, 62.592922003403665 ], [ 7.864239985248344, 62.593001167861679 ], [ 7.861921488489115, 62.592882368182124 ], [ 7.861706800757624, 62.592961528655252 ], [ 7.856297044858164, 62.592684172094714 ], [ 7.853119783047371, 62.592881831130292 ], [ 7.850221747524069, 62.592733095529667 ], [ 7.850007030820924, 62.592812237592675 ], [ 7.847667098520064, 62.592782261864059 ], [ 7.846658046702188, 62.592910770883371 ], [ 7.845885244200583, 62.592871078225429 ], [ 7.845155504239835, 62.592653263429895 ], [ 7.844382710971916, 62.592613562569468 ], [ 7.84356685073566, 62.592751974742136 ], [ 7.841828069460433, 62.592662622019127 ], [ 7.840325584715738, 62.592405063301428 ], [ 7.838759225847347, 62.591603209069717 ], [ 7.837793282269527, 62.591553538663241 ], [ 7.836935109658718, 62.591058574864242 ], [ 7.836355556001458, 62.591028766010886 ], [ 7.835325799308966, 62.590434798885603 ], [ 7.835368913693855, 62.590256684761151 ], [ 7.836184739718257, 62.590118320093168 ], [ 7.83646413260081, 62.589772027689961 ], [ 7.836120889083032, 62.589574039878848 ], [ 7.836207104582181, 62.589217810942891 ], [ 7.833782991512723, 62.587920932936782 ], [ 7.833890787905484, 62.587475648932418 ], [ 7.833612266178332, 62.587010485100294 ], [ 7.833784736039116, 62.586298030802865 ], [ 7.833419990479356, 62.586189093912523 ] ] } }
]
}
