{
"type": "FeatureCollection",
"name": "kjovskarstinden_16_wgs84",
"crs": { "type": "name", "properties": { "name": "urn:ogc:def:crs:OGC:1.3:CRS84" } },
"features": [
{ "type": "Feature", "properties": { "cat": 1 }, "geometry": { "type": "LineString", "coordinates": [ [ 7.946860962063801, 62.61316614563907 ], [ 7.946752564764138, 62.612800045918547 ], [ 7.947502616312748, 62.612116775307726 ], [ 7.946297755458791, 62.611424724818498 ], [ 7.946146881559549, 62.611236781393615 ], [ 7.946338075699043, 62.610435076632044 ], [ 7.944789099660949, 62.609545284331084 ], [ 7.944723232130965, 62.609001027410038 ], [ 7.944206937134526, 62.608704426315064 ], [ 7.944313175127382, 62.608259036537916 ], [ 7.943796896787942, 62.607962434147083 ], [ 7.943709800899293, 62.607507254883252 ], [ 7.943365626732461, 62.6073095188314 ], [ 7.943471871003741, 62.606864129774777 ], [ 7.942955624697229, 62.606567524696942 ], [ 7.942696467530817, 62.606013476290933 ], [ 7.942180243443968, 62.605716868639654 ], [ 7.942050674236857, 62.605439843900932 ], [ 7.942369429875557, 62.60410367977736 ], [ 7.941509121102859, 62.603609331474658 ], [ 7.941657877514398, 62.602985788929445 ], [ 7.940302720360202, 62.602105745912652 ], [ 7.940451492522151, 62.601482204859039 ], [ 7.939075181839502, 62.600691228547163 ], [ 7.93913894938564, 62.600423997353431 ], [ 7.935870528192805, 62.598545379911442 ], [ 7.932542326035157, 62.598556893040914 ], [ 7.93170540366573, 62.598784899515287 ], [ 7.927839935195234, 62.598588730811002 ], [ 7.926916158139796, 62.598361522541552 ], [ 7.921504651673142, 62.598086672524978 ], [ 7.920988777584551, 62.597789991152133 ], [ 7.920237032876445, 62.597661633643348 ], [ 7.919033389541453, 62.596969364041378 ], [ 7.917487332044133, 62.596890770672132 ], [ 7.914887046390673, 62.595496348374553 ], [ 7.911429967578242, 62.595230316892156 ], [ 7.911086151081864, 62.595032506017944 ], [ 7.910506426181123, 62.595003003101603 ], [ 7.909818815435506, 62.594607376250721 ], [ 7.908272911613837, 62.594528682795669 ], [ 7.907929124510614, 62.594330864533383 ], [ 7.900049305257865, 62.59374913560859 ], [ 7.899512355633505, 62.593541448331706 ], [ 7.881736058331714, 62.592634146557906 ], [ 7.881177839247653, 62.592515456795773 ], [ 7.880490684609526, 62.592119691525582 ], [ 7.879911055058564, 62.592090062703882 ], [ 7.879567488861612, 62.591892177520968 ], [ 7.879181072748408, 62.591872422730901 ], [ 7.877635094096412, 62.590981925583307 ], [ 7.86548515710663, 62.590269913183263 ], [ 7.865313432860733, 62.590170953724332 ], [ 7.864540669973654, 62.590131365006542 ], [ 7.86142840238538, 62.588439106962461 ], [ 7.860462513564844, 62.588389594359356 ], [ 7.859260661227951, 62.587696833351863 ], [ 7.858294801080222, 62.587647306119912 ], [ 7.85795143209183, 62.587449370357646 ], [ 7.856749432432568, 62.587568048733303 ], [ 7.855590412077174, 62.587508594534782 ], [ 7.854195232047671, 62.587617340777612 ], [ 7.853444054744054, 62.58748863096401 ], [ 7.85243520685603, 62.587617184569183 ], [ 7.85166253205584, 62.587577525669751 ], [ 7.851018504255907, 62.587814959191945 ], [ 7.849837977373614, 62.587844517340855 ], [ 7.848571387270333, 62.58823030419822 ], [ 7.847433880883938, 62.588081722491765 ], [ 7.847133620523121, 62.587705642140918 ], [ 7.846253873905079, 62.587299794353868 ], [ 7.846511601182292, 62.58704253908558 ], [ 7.846619203071556, 62.586597242594891 ], [ 7.84644756374205, 62.586498261056803 ], [ 7.846061245642747, 62.586478415811946 ], [ 7.844623607889197, 62.58595372962202 ], [ 7.843850989501346, 62.585914028195262 ], [ 7.843679363435292, 62.585815043429434 ], [ 7.842520444530479, 62.585755481951701 ], [ 7.840094929022649, 62.586081620596062 ], [ 7.839322314986306, 62.58604189412894 ], [ 7.837368470048754, 62.586843069325809 ], [ 7.836982155163772, 62.586823198964709 ], [ 7.835716268679435, 62.58639741563654 ], [ 7.833419990479356, 62.586189093912523 ] ] } }
]
}
