{
"type": "FeatureCollection",
"name": "kjovskarstinden_12_wgs84",
"crs": { "type": "name", "properties": { "name": "urn:ogc:def:crs:OGC:1.3:CRS84" } },
"features": [
{ "type": "Feature", "properties": { "cat": 1 }, "geometry": { "type": "LineString", "coordinates": [ [ 7.946860962063801, 62.61316614563907 ], [ 7.946752564764138, 62.612800045918547 ], [ 7.947266764446349, 62.612285147023243 ], [ 7.947910592869946, 62.612047266431212 ], [ 7.948080507392373, 62.61133463736553 ], [ 7.949153503343734, 62.610938161110965 ], [ 7.94945303574852, 62.610502549150397 ], [ 7.952070511933665, 62.609372805848444 ], [ 7.952563334156238, 62.608946964823645 ], [ 7.95470900499795, 62.608153930794323 ], [ 7.954793867822565, 62.607797610874904 ], [ 7.955479964510652, 62.607381533180273 ], [ 7.955774497542864, 62.605322915879029 ], [ 7.955666012279748, 62.604956821888095 ], [ 7.954461236888105, 62.604264843013873 ], [ 7.954074597188293, 62.604245292795063 ], [ 7.953730388770873, 62.604047581854921 ], [ 7.951023947029406, 62.603910694119968 ], [ 7.950486448423074, 62.60370319583231 ], [ 7.949713190839828, 62.603664072579427 ], [ 7.94799237574153, 62.602675458609554 ], [ 7.948119760070963, 62.602140986027806 ], [ 7.947452708102597, 62.601656457031247 ], [ 7.947601327501761, 62.601032906303097 ], [ 7.947257199212314, 62.600835180459157 ], [ 7.947641568207709, 62.600043256599456 ], [ 7.946953337781461, 62.5996478046088 ], [ 7.947399167966273, 62.597777153134231 ], [ 7.946022833354106, 62.59698624504464 ], [ 7.944283416700218, 62.596898161558293 ], [ 7.944111386430958, 62.596799295101022 ], [ 7.942758519892197, 62.596730769230106 ], [ 7.942586495762311, 62.596631900974096 ], [ 7.920232601367997, 62.595227185551607 ], [ 7.918922499011289, 62.594980283462874 ], [ 7.91752575223197, 62.594278179520323 ], [ 7.915400124827571, 62.594170088953497 ], [ 7.913165299863188, 62.592884366495319 ], [ 7.912435043333549, 62.592666896946639 ], [ 7.911468909888852, 62.592617734434469 ], [ 7.910953230230052, 62.592321018552958 ], [ 7.908827772983741, 62.592212830092066 ], [ 7.908613210888321, 62.592292064469035 ], [ 7.903203023360113, 62.592016522045107 ], [ 7.902988448240241, 62.592095747590534 ], [ 7.900068808983886, 62.592037114947779 ], [ 7.898437592087948, 62.592314592944618 ], [ 7.89669862799199, 62.592225922056471 ], [ 7.896076221676736, 62.592374498030665 ], [ 7.894530480062445, 62.592295654413782 ], [ 7.893264251972326, 62.592681852135584 ], [ 7.889399899105636, 62.592484633045657 ], [ 7.888391019291197, 62.59261344639642 ], [ 7.885879215752116, 62.592485178730705 ], [ 7.885664592582152, 62.592564376963026 ], [ 7.881800318962479, 62.592366948323743 ], [ 7.881263526048316, 62.592159192900517 ], [ 7.879331426817545, 62.592060431490282 ], [ 7.878515732148821, 62.592199050395834 ], [ 7.8775496852096, 62.592149654035296 ], [ 7.876068603965176, 62.59261487788045 ], [ 7.875682181414843, 62.59259511330621 ], [ 7.874458590805854, 62.592803007191272 ], [ 7.873814622681243, 62.593040546817484 ], [ 7.87302032404205, 62.593090068387461 ], [ 7.870315353221192, 62.59295163456509 ], [ 7.870100686561186, 62.593030808248137 ], [ 7.868361788020015, 62.592941784841472 ], [ 7.86696638978114, 62.593050655929872 ], [ 7.861921488489115, 62.592882368182124 ], [ 7.861706800757624, 62.592961528655252 ], [ 7.856297044858164, 62.592684172094714 ], [ 7.853119783047371, 62.592881831130292 ], [ 7.850221747524069, 62.592733095529667 ], [ 7.850007030820924, 62.592812237592675 ], [ 7.847667098520064, 62.592782261864059 ], [ 7.846658046702188, 62.592910770883371 ], [ 7.845885244200583, 62.592871078225429 ], [ 7.845155504239835, 62.592653263429895 ], [ 7.840862084984029, 62.592612972317355 ], [ 7.84017547905141, 62.592217015889489 ], [ 7.840068464406878, 62.591850852420826 ], [ 7.838716129282433, 62.591781324484657 ], [ 7.838372847977091, 62.591583341704229 ], [ 7.837793282269527, 62.591553538663241 ], [ 7.836741924959898, 62.591048638845471 ], [ 7.836355556001458, 62.591028766010886 ], [ 7.835497422578929, 62.590533793895943 ], [ 7.835540536118507, 62.590355679706946 ], [ 7.836184739718257, 62.590118320093168 ], [ 7.83646413260081, 62.589772027689961 ], [ 7.83567069798965, 62.589009885290359 ], [ 7.833611388660743, 62.587821936093789 ], [ 7.833311307902007, 62.587445828428592 ], [ 7.833548465855765, 62.58646620438973 ], [ 7.833419990479356, 62.586189093912523 ] ] } }
]
}
