{
"type": "FeatureCollection",
"name": "kjovskarstinden_40_wgs84",
"crs": { "type": "name", "properties": { "name": "urn:ogc:def:crs:OGC:1.3:CRS84" } },
"features": [
{ "type": "Feature", "properties": { "cat": 1 }, "geometry": { "type": "LineString", "coordinates": [ [ 7.946860962063801, 62.61316614563907 ], [ 7.946752564764138, 62.612800045918547 ], [ 7.947481375062056, 62.612205853838049 ], [ 7.947545098380887, 62.611938618231449 ], [ 7.946512362196467, 62.611345433071463 ], [ 7.946231858176901, 62.610880468218532 ], [ 7.946338075699043, 62.610435076632044 ], [ 7.944961203545803, 62.609644150930755 ], [ 7.944916578928323, 62.609010815975097 ], [ 7.944572379693443, 62.608813082566769 ], [ 7.944506516928078, 62.608268825604412 ], [ 7.943646055158753, 62.607774488445642 ], [ 7.943709800899293, 62.607507254883252 ], [ 7.943365626732461, 62.6073095188314 ], [ 7.943471871003741, 62.606864129774777 ], [ 7.942050674236857, 62.605439843900932 ], [ 7.941921107295757, 62.605162819071708 ], [ 7.942176116049573, 62.604093888123863 ], [ 7.941487869609177, 62.603698408960177 ], [ 7.941507072925066, 62.602797841405398 ], [ 7.941205469288286, 62.602421945941764 ], [ 7.941396724727202, 62.601620248726057 ], [ 7.940213673763765, 62.600839075657746 ], [ 7.939827090498682, 62.600819486702719 ], [ 7.938278798645842, 62.599929631235284 ], [ 7.937461195892506, 62.599257106675601 ], [ 7.935741045419435, 62.598268350459797 ], [ 7.933615048950893, 62.598160532603146 ], [ 7.933099049612739, 62.597863894348905 ], [ 7.931939435406689, 62.597805066929773 ], [ 7.929467791172726, 62.596687938226573 ], [ 7.924636328671627, 62.596442638102282 ], [ 7.924464368000067, 62.596343748348502 ], [ 7.923691345248992, 62.596304483992895 ], [ 7.923175478645533, 62.59600781080669 ], [ 7.921436205213595, 62.595919444278678 ], [ 7.920404541356139, 62.595326080245641 ], [ 7.919459614723517, 62.595187898224097 ], [ 7.918364078136936, 62.594861739872989 ], [ 7.917676363256834, 62.594466150367303 ], [ 7.917289881675122, 62.594446500312365 ], [ 7.914517904802468, 62.592953175926397 ], [ 7.913358528705583, 62.592894197211521 ], [ 7.912670926129461, 62.592498584530318 ], [ 7.912284474305273, 62.592478921003448 ], [ 7.911940682709773, 62.592281112568863 ], [ 7.908891789142773, 62.591945616089404 ], [ 7.906979808649802, 62.590946687109174 ], [ 7.905820529716705, 62.590887647029078 ], [ 7.904703956014617, 62.59065045629454 ], [ 7.902385437921171, 62.590532329187823 ], [ 7.902170871687724, 62.590611553595792 ], [ 7.900431993008713, 62.590522930422203 ], [ 7.898779495686501, 62.590889483251495 ], [ 7.895688157868153, 62.590731840784862 ], [ 7.894271565878686, 62.590930056406847 ], [ 7.893305526976301, 62.590880769321238 ], [ 7.892103509579008, 62.590999752264224 ], [ 7.887273362882376, 62.590753175442103 ], [ 7.887058756128355, 62.590832376043338 ], [ 7.884933515701693, 62.590723826286691 ], [ 7.884718903145676, 62.590803023207741 ], [ 7.881048066715944, 62.590615446674121 ], [ 7.880876287393416, 62.590516505639904 ], [ 7.863682080121242, 62.589636560205889 ], [ 7.863467420966753, 62.589715723779079 ], [ 7.856319591539346, 62.589349273156849 ], [ 7.856104915586587, 62.58942842516533 ], [ 7.854752643047733, 62.589359053628463 ], [ 7.852176781281517, 62.589497367333081 ], [ 7.848313188722586, 62.589299019871703 ], [ 7.848141528547511, 62.589200040136355 ], [ 7.845630234030063, 62.589071054330859 ], [ 7.844900587742296, 62.588853239473778 ], [ 7.843548374527554, 62.58878376006794 ], [ 7.842668647386416, 62.588377889923073 ], [ 7.841917505041569, 62.588249118478686 ], [ 7.839213158373619, 62.588110089770488 ], [ 7.838526675364677, 62.587714126892806 ], [ 7.838140348189781, 62.587694259573787 ], [ 7.837089117394047, 62.587189364092893 ], [ 7.836144872481285, 62.5870506268597 ], [ 7.834385750661166, 62.586238792117953 ], [ 7.833419990479356, 62.586189093912523 ] ] } }
]
}
