{
"type": "FeatureCollection",
"name": "kjovskarstinden_23_wgs84",
"crs": { "type": "name", "properties": { "name": "urn:ogc:def:crs:OGC:1.3:CRS84" } },
"features": [
{ "type": "Feature", "properties": { "cat": 1 }, "geometry": { "type": "LineString", "coordinates": [ [ 7.946860962063801, 62.61316614563907 ], [ 7.946752564764138, 62.612800045918547 ], [ 7.947266764446349, 62.612285147023243 ], [ 7.947910592869946, 62.612047266431212 ], [ 7.948080507392373, 62.61133463736553 ], [ 7.949153503343734, 62.610938161110965 ], [ 7.949217208183312, 62.61067092449067 ], [ 7.950740569231093, 62.610026763158132 ], [ 7.950783028105599, 62.609848604782684 ], [ 7.95470900499795, 62.608153930794323 ], [ 7.954793867822565, 62.607797610874904 ], [ 7.955222982582714, 62.607638999586818 ], [ 7.956187252260015, 62.606876371582651 ], [ 7.956743597468107, 62.60618327350835 ], [ 7.956913257773735, 62.605470630256384 ], [ 7.954675769527825, 62.604185537713043 ], [ 7.953751603907371, 62.603958502018472 ], [ 7.950851854534239, 62.603811835148804 ], [ 7.949948957380867, 62.603495695574452 ], [ 7.948056068555577, 62.602408222342198 ], [ 7.948119760070963, 62.602140986027806 ], [ 7.947259408061295, 62.601646672607615 ], [ 7.947408031451272, 62.601023122138933 ], [ 7.947235967450846, 62.600924259086597 ], [ 7.947641568207709, 62.600043256599456 ], [ 7.946953337781461, 62.5996478046088 ], [ 7.947142205317324, 62.598034604929474 ], [ 7.945593828942908, 62.597144829522811 ], [ 7.943661135981167, 62.597046951593192 ], [ 7.942284936073302, 62.596256008418372 ], [ 7.931075933058318, 62.595687685911905 ], [ 7.93073197733556, 62.595489921611161 ], [ 7.929958966277195, 62.595450692156277 ], [ 7.929056549436306, 62.595134423789325 ], [ 7.928670049639129, 62.595114805030875 ], [ 7.92798218840143, 62.594719264386889 ], [ 7.927015955726317, 62.594670208263999 ], [ 7.926478794415353, 62.59446262199473 ], [ 7.924932842243418, 62.594384112587647 ], [ 7.923257549924969, 62.594028546915546 ], [ 7.9205521980653, 62.593891082577009 ], [ 7.920036404058331, 62.593594398752046 ], [ 7.918511829713908, 62.593426745639846 ], [ 7.918167985019285, 62.593228951845482 ], [ 7.916320930420279, 62.592774407775686 ], [ 7.915805198452246, 62.592477709134144 ], [ 7.914473933553855, 62.592319840016735 ], [ 7.913571781386622, 62.592003475010493 ], [ 7.913185335237896, 62.591983814056903 ], [ 7.912132643957689, 62.591479465008156 ], [ 7.908847938285524, 62.591312280028546 ], [ 7.907752664171811, 62.590986041846833 ], [ 7.907065180757013, 62.590590403127081 ], [ 7.893927146904931, 62.589920732101099 ], [ 7.893712563434844, 62.589999943258952 ], [ 7.891952365130834, 62.590000283602272 ], [ 7.890922189778968, 62.590218184596971 ], [ 7.889161980733784, 62.590218489566752 ], [ 7.888518183512199, 62.590456099412862 ], [ 7.887509369844008, 62.590584907280785 ], [ 7.883065737979995, 62.590357917737066 ], [ 7.882228689701113, 62.590585625543937 ], [ 7.856920629557774, 62.589289937637268 ], [ 7.856491280483143, 62.589448243213141 ], [ 7.854366280779353, 62.589339230798053 ], [ 7.853550554466271, 62.58947770321268 ], [ 7.848699545348259, 62.589318859400265 ], [ 7.8485278837427, 62.589219880121163 ], [ 7.845823409654297, 62.589080977909994 ], [ 7.845136814667724, 62.588685046060228 ], [ 7.842818751160473, 62.588565934627177 ], [ 7.841402611035471, 62.587952156192685 ], [ 7.840629946216529, 62.587912436281087 ], [ 7.83977182660507, 62.587417490660201 ], [ 7.839192340256109, 62.587387694516238 ], [ 7.8388491046688, 62.587189713529014 ], [ 7.837883304166305, 62.587140045695612 ], [ 7.837540080283389, 62.586942061644855 ], [ 7.835930161719045, 62.587129747325221 ], [ 7.834707389631666, 62.586525840522924 ], [ 7.834127927084899, 62.586496023651669 ], [ 7.833419990479356, 62.586189093912523 ] ] } }
]
}
