{
"type": "FeatureCollection",
"name": "kjovskarstinden_03_wgs84",
"crs": { "type": "name", "properties": { "name": "urn:ogc:def:crs:OGC:1.3:CRS84" } },
"features": [
{ "type": "Feature", "properties": { "cat": 1 }, "geometry": { "type": "LineString", "coordinates": [ [ 7.946860962063801, 62.61316614563907 ], [ 7.946752564764138, 62.612800045918547 ], [ 7.947266764446349, 62.612285147023243 ], [ 7.947910592869946, 62.612047266431212 ], [ 7.948144222955764, 62.6110674013797 ], [ 7.94401359262621, 62.608694636797068 ], [ 7.944119833471118, 62.608249247205414 ], [ 7.943452716932196, 62.607764698234462 ], [ 7.943516464383854, 62.607497464783336 ], [ 7.943042707123424, 62.607022704254106 ], [ 7.942847294816462, 62.606201422829166 ], [ 7.942352316999014, 62.605815738053771 ], [ 7.942756057960808, 62.604123262286407 ], [ 7.941551623656911, 62.603431176487888 ], [ 7.941721628095705, 62.602718556331602 ], [ 7.940538526393484, 62.601937385344009 ], [ 7.940644788650737, 62.601491998665438 ], [ 7.939096437832666, 62.600602151487848 ], [ 7.93913894938564, 62.600423997353431 ], [ 7.935333234241087, 62.598337825974788 ], [ 7.934560141469316, 62.598298620928389 ], [ 7.933551237933728, 62.598427760690363 ], [ 7.931425240147547, 62.598319909433336 ], [ 7.931210691021862, 62.598399178751073 ], [ 7.92579912734172, 62.598124494609365 ], [ 7.925584565169401, 62.598203755095966 ], [ 7.924231688995313, 62.598135049366412 ], [ 7.923887752637823, 62.59793726844881 ], [ 7.923501220748925, 62.597917634932486 ], [ 7.922792065464323, 62.597611142864885 ], [ 7.922212275582079, 62.597581687740245 ], [ 7.921868359196396, 62.597383902110543 ], [ 7.919957060177894, 62.597196623094369 ], [ 7.919076014666216, 62.596791217554248 ], [ 7.91714345563845, 62.596692973928235 ], [ 7.916971519144904, 62.596594075261216 ], [ 7.903830550700451, 62.595925297997219 ], [ 7.90275652731491, 62.595509948825914 ], [ 7.901983562653131, 62.595470564921179 ], [ 7.900608571278816, 62.594679226889909 ], [ 7.892106364940355, 62.594245642791151 ], [ 7.891934527596454, 62.594146714599283 ], [ 7.882638329935932, 62.59376218213697 ], [ 7.881328627214452, 62.59351493228526 ], [ 7.870315353221192, 62.59295163456509 ], [ 7.870100686561186, 62.593030808248137 ], [ 7.868361788020015, 62.592941784841472 ], [ 7.868147116408993, 62.59302095544961 ], [ 7.865613920476264, 62.592981387073507 ], [ 7.865399241505494, 62.593060553350931 ], [ 7.856297044858164, 62.592684172094714 ], [ 7.853119783047371, 62.592881831130292 ], [ 7.848461421935549, 62.592732885065573 ], [ 7.846658046702188, 62.592910770883371 ], [ 7.845155504239835, 62.592653263429895 ], [ 7.84356685073566, 62.592751974742136 ], [ 7.842600859675299, 62.592702336997625 ], [ 7.840347128826998, 62.592316005290236 ], [ 7.839875273235754, 62.591840920655635 ], [ 7.837643196802207, 62.591365488799923 ], [ 7.836741924959898, 62.591048638845471 ], [ 7.835712159681317, 62.590454674456936 ], [ 7.835755271789902, 62.590276560181955 ], [ 7.836399471975226, 62.590039199529336 ], [ 7.836357170848885, 62.589405862091539 ], [ 7.833461347363124, 62.58763388232947 ], [ 7.833419990479356, 62.586189093912523 ] ] } }
]
}
