{
"type": "FeatureCollection",
"name": "kjovskarstinden_50_wgs84",
"crs": { "type": "name", "properties": { "name": "urn:ogc:def:crs:OGC:1.3:CRS84" } },
"features": [
{ "type": "Feature", "properties": { "cat": 1 }, "geometry": { "type": "LineString", "coordinates": [ [ 7.946860962063801, 62.61316614563907 ], [ 7.945658221161357, 62.613285580527013 ], [ 7.943339812838081, 62.613979598425352 ], [ 7.94237292198973, 62.613930639891528 ], [ 7.941835308742034, 62.613723106745397 ], [ 7.939514804348757, 62.613605570433492 ], [ 7.93859047201244, 62.613378432069723 ], [ 7.936484657017083, 62.613181566576756 ], [ 7.93562419472627, 62.612687179948558 ], [ 7.933883898513053, 62.612598954953278 ], [ 7.933195574968011, 62.612203433862781 ], [ 7.932636773186304, 62.612084942327151 ], [ 7.931088135102124, 62.611195002455915 ], [ 7.929154589414865, 62.611096912039415 ], [ 7.928789178316124, 62.610988215823951 ], [ 7.927584808977048, 62.610296010335965 ], [ 7.927670004653486, 62.609939711419273 ], [ 7.927347212208662, 62.6096528622273 ], [ 7.927538900368235, 62.608851189885165 ], [ 7.927194821589542, 62.608653415222548 ], [ 7.92723741906797, 62.608475265883136 ], [ 7.92654927860276, 62.60807971445049 ], [ 7.926804871737027, 62.607010819505852 ], [ 7.926460818559994, 62.606813043374451 ], [ 7.926524716138942, 62.606545819711762 ], [ 7.925664609536656, 62.606051376416836 ], [ 7.925577796593146, 62.605596189643158 ], [ 7.922889615132156, 62.603746715256165 ], [ 7.922996149924456, 62.603301345709106 ], [ 7.922350799430118, 62.602727628077446 ], [ 7.922327966914457, 62.602005218599245 ], [ 7.921984000289472, 62.601807432584003 ], [ 7.922133154630097, 62.60118391623157 ], [ 7.918672482855992, 62.599295090402279 ], [ 7.914976340388812, 62.597574500946557 ], [ 7.914417888092594, 62.59745594113226 ], [ 7.912505373079301, 62.596457080752401 ], [ 7.910830123738639, 62.596101366363314 ], [ 7.909777331912342, 62.595596998188569 ], [ 7.908252720461241, 62.59542923241046 ], [ 7.906985410479714, 62.595004077239203 ], [ 7.896743897175689, 62.594482207003921 ], [ 7.896572042675887, 62.594383284295539 ], [ 7.881500424813703, 62.593613873008415 ], [ 7.881285782016912, 62.593693064234095 ], [ 7.876455311959371, 62.593446108268488 ], [ 7.875811344947256, 62.593683657131017 ], [ 7.867116671060759, 62.593238676869625 ], [ 7.866901994047771, 62.59331784548727 ], [ 7.865549512786489, 62.593248575843987 ], [ 7.865334831670126, 62.593327741993001 ], [ 7.856254051306102, 62.592862294325698 ], [ 7.855502732950558, 62.59273359368963 ], [ 7.855159326315856, 62.592535650542253 ], [ 7.854772922451112, 62.592515828273392 ], [ 7.853871426341402, 62.592199086012116 ], [ 7.851939440163374, 62.592099946563614 ], [ 7.850887816413182, 62.591595149805215 ], [ 7.847410345127766, 62.591416606518379 ], [ 7.846208686763834, 62.590723735649021 ], [ 7.843117721063306, 62.590564932682142 ], [ 7.842602776033907, 62.590267974135948 ], [ 7.841443686426225, 62.590208401381709 ], [ 7.841100404015704, 62.590010425301216 ], [ 7.8403276862597, 62.589970702993249 ], [ 7.839469514459124, 62.589475754803367 ], [ 7.838696813352185, 62.589436023683014 ], [ 7.83760241465892, 62.589109246500151 ], [ 7.83519980288558, 62.587723334954994 ], [ 7.834641873250054, 62.587604462847231 ], [ 7.833440668982217, 62.58691148812408 ], [ 7.833419990479356, 62.586189093912523 ] ] } }
]
}
