{
"type": "FeatureCollection",
"name": "kjovskarstinden_26_wgs84",
"crs": { "type": "name", "properties": { "name": "urn:ogc:def:crs:OGC:1.3:CRS84" } },
"features": [
{ "type": "Feature", "properties": { "cat": 1 }, "geometry": { "type": "LineString", "coordinates": [ [ 7.946860962063801, 62.61316614563907 ], [ 7.946752564764138, 62.612800045918547 ], [ 7.94769598453659, 62.61212656030736 ], [ 7.947887144159262, 62.611324852965687 ], [ 7.947542898736177, 62.611127126271533 ], [ 7.947585378768514, 62.610948969154407 ], [ 7.944852839944593, 62.609278050176627 ], [ 7.944916578928323, 62.609010815975097 ], [ 7.944572379693443, 62.608813082566769 ], [ 7.944506516928078, 62.608268825604412 ], [ 7.943646055158753, 62.607774488445642 ], [ 7.943688552463552, 62.607596332742617 ], [ 7.943021457128478, 62.60711178199125 ], [ 7.943085206679972, 62.606844548764165 ], [ 7.942524391694627, 62.605914607270861 ], [ 7.942991867095241, 62.603954897613974 ], [ 7.941980742010714, 62.603272605981374 ], [ 7.941872433688477, 62.602906503637236 ], [ 7.941528323544556, 62.602708763904651 ], [ 7.941592074536451, 62.602441531370992 ], [ 7.941075921704053, 62.602144920581367 ], [ 7.941203427450802, 62.601610455946386 ], [ 7.935870528192805, 62.598545379911442 ], [ 7.934904154722422, 62.598496376556142 ], [ 7.934045982006733, 62.598813473573941 ], [ 7.93344488334756, 62.598873140730902 ], [ 7.931512128868398, 62.598775093606221 ], [ 7.931297576595507, 62.598854363015072 ], [ 7.918928263264035, 62.598226212357943 ], [ 7.916134539338485, 62.596821987515852 ], [ 7.915576096099764, 62.596703432461219 ], [ 7.913858138537195, 62.596525898747501 ], [ 7.913514290987163, 62.596328093443105 ], [ 7.911581785371859, 62.596229773461232 ], [ 7.910894132531496, 62.595834151348058 ], [ 7.902047649189251, 62.59520335501746 ], [ 7.899749238693693, 62.594184634233933 ], [ 7.898396621167617, 62.59411568137061 ], [ 7.898224763071267, 62.594016760650376 ], [ 7.889916013716073, 62.593592897493735 ], [ 7.889207317083232, 62.593286240866135 ], [ 7.879546433128289, 62.592792711210649 ], [ 7.878515732148821, 62.592199050395834 ], [ 7.87679828500197, 62.59202106704705 ], [ 7.875574462657682, 62.591417504564546 ], [ 7.875016292399927, 62.591298790795975 ], [ 7.871731872129442, 62.591130735314728 ], [ 7.871560121747029, 62.591031783195945 ], [ 7.853378534509399, 62.590190188054365 ], [ 7.853206852061974, 62.590091214253491 ], [ 7.850695454463007, 62.589962318288336 ], [ 7.850523782451872, 62.58986334132544 ], [ 7.845307901044852, 62.589595484685432 ], [ 7.844964599062036, 62.589397517853051 ], [ 7.844385067553612, 62.589367742679507 ], [ 7.843355201796092, 62.588773833375825 ], [ 7.842604046315542, 62.588645065451765 ], [ 7.841917505041569, 62.588249118478686 ], [ 7.84039370065705, 62.588080621804018 ], [ 7.839342417140874, 62.587575742597132 ], [ 7.83859131047863, 62.587446953717276 ], [ 7.837368470048754, 62.586843069325809 ], [ 7.836424234628526, 62.58670433411416 ], [ 7.835716268679435, 62.58639741563654 ], [ 7.833419990479356, 62.586189093912523 ] ] } }
]
}
