{
"type": "FeatureCollection",
"name": "kjovskarstinden_07_wgs84",
"crs": { "type": "name", "properties": { "name": "urn:ogc:def:crs:OGC:1.3:CRS84" } },
"features": [
{ "type": "Feature", "properties": { "cat": 1 }, "geometry": { "type": "LineString", "coordinates": [ [ 7.946860962063801, 62.61316614563907 ], [ 7.946752564764138, 62.612800045918547 ], [ 7.947738465463567, 62.611948403156909 ], [ 7.947394214074274, 62.611750676016847 ], [ 7.94728581423419, 62.611384576672869 ], [ 7.946253101970176, 62.610791389911689 ], [ 7.946338075699043, 62.610435076632044 ], [ 7.944961203545803, 62.609644150930755 ], [ 7.944659491435909, 62.60926826150029 ], [ 7.944723232130965, 62.609001027410038 ], [ 7.944206937134526, 62.608704426315064 ], [ 7.944313175127382, 62.608259036537916 ], [ 7.943624806289687, 62.607863566289311 ], [ 7.943688552463552, 62.607596332742617 ], [ 7.943172291646625, 62.607299728273617 ], [ 7.943278538769637, 62.606854339402474 ], [ 7.942934374854183, 62.606656602423122 ], [ 7.942847294816462, 62.606201422829166 ], [ 7.942050674236857, 62.605439843900932 ], [ 7.9422398649882, 62.603826655269188 ], [ 7.940863400571318, 62.603035694554393 ], [ 7.940905905953405, 62.602857539801626 ], [ 7.940389753166734, 62.602560926474176 ], [ 7.940472745110376, 62.601393127544732 ], [ 7.939096437832666, 62.600602151487848 ], [ 7.93913894938564, 62.600423997353431 ], [ 7.938300056333456, 62.599840554319606 ], [ 7.936063803320392, 62.598555179784753 ], [ 7.933916515376687, 62.598536442645845 ], [ 7.933272879025371, 62.598774261254555 ], [ 7.922449680245333, 62.598224842058606 ], [ 7.920364888663594, 62.597127192777172 ], [ 7.919226647380344, 62.596979187016103 ], [ 7.917679181566776, 62.596089113993614 ], [ 7.917099427778544, 62.596059638098083 ], [ 7.916755563308625, 62.595861840557497 ], [ 7.915252216881057, 62.59560507777357 ], [ 7.914908370101562, 62.59540727591596 ], [ 7.913748897376863, 62.595348299145165 ], [ 7.913576979983723, 62.595249396549669 ], [ 7.902175818342745, 62.594668935067602 ], [ 7.901080499333611, 62.594342643874526 ], [ 7.89837524919394, 62.594204750650555 ], [ 7.898203390673239, 62.594105829898304 ], [ 7.888928497773257, 62.593632646640174 ], [ 7.888713873948492, 62.593711849556819 ], [ 7.886201975903121, 62.593583586427805 ], [ 7.886030162417074, 62.593484651282573 ], [ 7.875209999661185, 62.592931606905225 ], [ 7.874179605993473, 62.593149381222666 ], [ 7.870315353221192, 62.59295163456509 ], [ 7.870100686561186, 62.593030808248137 ], [ 7.868361788020015, 62.592941784841472 ], [ 7.868147116408993, 62.59302095544961 ], [ 7.865613920476264, 62.592981387073507 ], [ 7.865399241505494, 62.593060553350931 ], [ 7.856297044858164, 62.592684172094714 ], [ 7.853119783047371, 62.592881831130292 ], [ 7.848461421935549, 62.592732885065573 ], [ 7.846658046702188, 62.592910770883371 ], [ 7.845155504239835, 62.592653263429895 ], [ 7.84356685073566, 62.592751974742136 ], [ 7.842600859675299, 62.592702336997625 ], [ 7.842429200044841, 62.592603350237489 ], [ 7.840325584715738, 62.592405063301428 ], [ 7.839295700600478, 62.591811123765801 ], [ 7.83637711073106, 62.590939708757688 ], [ 7.835690603407397, 62.590543731586401 ], [ 7.835755271789902, 62.590276560181955 ], [ 7.836399471975226, 62.590039199529336 ], [ 7.836378724081434, 62.589316804817258 ], [ 7.833461347363124, 62.58763388232947 ], [ 7.833419990479356, 62.586189093912523 ] ] } }
]
}
