{
"type": "FeatureCollection",
"name": "kjovskarstinden_39_wgs84",
"crs": { "type": "name", "properties": { "name": "urn:ogc:def:crs:OGC:1.3:CRS84" } },
"features": [
{ "type": "Feature", "properties": { "cat": 1 }, "geometry": { "type": "LineString", "coordinates": [ [ 7.946860962063801, 62.61316614563907 ], [ 7.946752564764138, 62.612800045918547 ], [ 7.94793183269065, 62.611958187816292 ], [ 7.948101746057897, 62.611245558708816 ], [ 7.948745544907199, 62.611007673865515 ], [ 7.949045084020969, 62.610572062870951 ], [ 7.952950033738986, 62.608966520032908 ], [ 7.952992477451999, 62.608788360780679 ], [ 7.95470900499795, 62.608153930794323 ], [ 7.954751436698705, 62.607975770845037 ], [ 7.955180554317456, 62.607817159725975 ], [ 7.956187252260015, 62.606876371582651 ], [ 7.956698721385593, 62.605549938947583 ], [ 7.956010244085734, 62.605154528363308 ], [ 7.95605266255895, 62.604976367837132 ], [ 7.954503663031532, 62.604086683060295 ], [ 7.953944921685981, 62.60396827768178 ], [ 7.950851854534239, 62.603811835148804 ], [ 7.948077299204997, 62.602319143575961 ], [ 7.948119760070963, 62.602140986027806 ], [ 7.947646008288201, 62.601666241188887 ], [ 7.94775216287275, 62.601220847652442 ], [ 7.947257199212314, 62.600835180459157 ], [ 7.947641568207709, 62.600043256599456 ], [ 7.946953337781461, 62.5996478046088 ], [ 7.947401385759838, 62.59858864541841 ], [ 7.94761589456637, 62.598509350653465 ], [ 7.947806945296865, 62.597707641882401 ], [ 7.944022178585215, 62.595532625067904 ], [ 7.943635661100503, 62.595513047551741 ], [ 7.943119603574772, 62.595216445589948 ], [ 7.940993791295216, 62.595108742689398 ], [ 7.940263267764123, 62.594891415312631 ], [ 7.939231252862046, 62.594298185862506 ], [ 7.923192094691671, 62.593484285340701 ], [ 7.922461746815284, 62.593266867076238 ], [ 7.921882042014144, 62.593237411723493 ], [ 7.920077538366527, 62.592604769054681 ], [ 7.918724932952139, 62.592536013548212 ], [ 7.91799464222444, 62.592318572655493 ], [ 7.913936904637786, 62.592112207219074 ], [ 7.913593105857893, 62.591914402761446 ], [ 7.913013438560736, 62.591884911044041 ], [ 7.90822213194568, 62.589026475623264 ], [ 7.905710522835027, 62.588898567833901 ], [ 7.905366816098802, 62.588700744333366 ], [ 7.9009232928761, 62.588474325401208 ], [ 7.89942046477912, 62.588217398934276 ], [ 7.896908972018027, 62.588089334161999 ], [ 7.896737152640245, 62.587990412128669 ], [ 7.888258325385438, 62.587467551445812 ], [ 7.887464195481595, 62.587517157582376 ], [ 7.886820445171827, 62.587754760227398 ], [ 7.886240892649518, 62.587725158762346 ], [ 7.884030241881398, 62.587972865939648 ], [ 7.872289137688134, 62.587192134792382 ], [ 7.872074518770344, 62.58727131216402 ], [ 7.870335949300334, 62.587182317839535 ], [ 7.869692074284373, 62.587419839694462 ], [ 7.869091096446587, 62.587479231089965 ], [ 7.866601292932306, 62.587261559872388 ], [ 7.866172023682476, 62.587419896345331 ], [ 7.865828603424193, 62.587221979289204 ], [ 7.865613967675081, 62.587301146486034 ], [ 7.865055916248522, 62.587182394455027 ], [ 7.863016851383958, 62.587528726316606 ], [ 7.858166088636152, 62.587370215241386 ], [ 7.855762088268241, 62.587607565316269 ], [ 7.85402356115397, 62.587518368138717 ], [ 7.853808892864904, 62.587597516716443 ], [ 7.85166253205584, 62.587577525669751 ], [ 7.851018504255907, 62.587814959191945 ], [ 7.849837977373614, 62.587844517340855 ], [ 7.848549871528459, 62.588319363867036 ], [ 7.847627050848927, 62.588091643494664 ], [ 7.846253873905079, 62.587299794353868 ], [ 7.846318438499549, 62.587032616636243 ], [ 7.84582504223569, 62.586646611113487 ], [ 7.845868086812342, 62.586468492791035 ], [ 7.845353182087422, 62.586171544948876 ], [ 7.844816762851638, 62.58596365431459 ], [ 7.843486209918955, 62.585805117180584 ], [ 7.842778189468394, 62.585498233825348 ], [ 7.842306395868217, 62.585023158253371 ], [ 7.839216048691004, 62.584864277205668 ], [ 7.83756316168344, 62.585230099052183 ], [ 7.836404281103317, 62.585170487249819 ], [ 7.834923775999213, 62.584823818845521 ], [ 7.834279680390153, 62.585061174109761 ], [ 7.834150344584002, 62.585595515540447 ], [ 7.833269958003782, 62.586001040061724 ], [ 7.833419990479356, 62.586189093912523 ] ] } }
]
}
