{
"type": "FeatureCollection",
"name": "kjovskarstinden_34_wgs84",
"crs": { "type": "name", "properties": { "name": "urn:ogc:def:crs:OGC:1.3:CRS84" } },
"features": [
{ "type": "Feature", "properties": { "cat": 1 }, "geometry": { "type": "LineString", "coordinates": [ [ 7.946860962063801, 62.61316614563907 ], [ 7.946752564764138, 62.612800045918547 ], [ 7.94769598453659, 62.61212656030736 ], [ 7.948101746057897, 62.611245558708816 ], [ 7.948745544907199, 62.611007673865515 ], [ 7.949045084020969, 62.610572062870951 ], [ 7.95076179874051, 62.609937683973008 ], [ 7.95279912872943, 62.60877858338317 ], [ 7.954730220920437, 62.608064850822295 ], [ 7.954772652332744, 62.607886690862578 ], [ 7.955201768522193, 62.607728079658997 ], [ 7.955543602817884, 62.607114292774369 ], [ 7.956187252260015, 62.606876371582651 ], [ 7.956314512118762, 62.606341889869604 ], [ 7.957172678254465, 62.606024655765914 ], [ 7.957321121523272, 62.605401092347414 ], [ 7.955083620240981, 62.604116006171296 ], [ 7.950099819342914, 62.603683634737848 ], [ 7.948164452119592, 62.602774320893424 ], [ 7.948119760070963, 62.602140986027806 ], [ 7.947646008288201, 62.601666241188887 ], [ 7.94775216287275, 62.601220847652442 ], [ 7.947257199212314, 62.600835180459157 ], [ 7.947641568207709, 62.600043256599456 ], [ 7.946953337781461, 62.5996478046088 ], [ 7.947250564974008, 62.598400703881786 ], [ 7.947679579441515, 62.598242114443465 ], [ 7.947870626277143, 62.597440405531337 ], [ 7.943376574713212, 62.594959001315736 ], [ 7.923686623280284, 62.593870032082101 ], [ 7.922397848935873, 62.59353408889595 ], [ 7.919885781989205, 62.593406430304398 ], [ 7.919327386258365, 62.593287890909799 ], [ 7.917952018757493, 62.592496718839257 ], [ 7.916512777682692, 62.591972752651472 ], [ 7.913807652336896, 62.591835160510755 ], [ 7.913013438560736, 62.591884911044041 ], [ 7.911251873439161, 62.59107401373241 ], [ 7.906807938945529, 62.590847776809937 ], [ 7.90627099157905, 62.590640115587398 ], [ 7.903566047561052, 62.590502327197882 ], [ 7.902707788836528, 62.590819230199713 ], [ 7.901505806530344, 62.590938294674018 ], [ 7.89257547111882, 62.590663198482325 ], [ 7.891158863646869, 62.59086138226931 ], [ 7.889420012035655, 62.590772622125009 ], [ 7.888604396579662, 62.590911301123228 ], [ 7.887251960675936, 62.590842242608467 ], [ 7.887037353207172, 62.590921443167026 ], [ 7.885684921459826, 62.590852369508191 ], [ 7.8854703098847, 62.590931567599121 ], [ 7.856877645963651, 62.589468060198165 ], [ 7.856662970565226, 62.589547213073452 ], [ 7.848721061559516, 62.589229799715035 ], [ 7.848549400376902, 62.589130820468156 ], [ 7.846445983046213, 62.588932628568379 ], [ 7.846102680676609, 62.588734664532815 ], [ 7.842625580152087, 62.588556006947556 ], [ 7.841381074093383, 62.588041214465846 ], [ 7.836959820294886, 62.587723708654586 ], [ 7.836273376692715, 62.587327735218039 ], [ 7.835007479727262, 62.586901945311219 ], [ 7.833806294112865, 62.586208973991582 ], [ 7.833419990479356, 62.586189093912523 ] ] } }
]
}
