{
"type": "FeatureCollection",
"name": "kjovskarstinden_37_wgs84",
"crs": { "type": "name", "properties": { "name": "urn:ogc:def:crs:OGC:1.3:CRS84" } },
"features": [
{ "type": "Feature", "properties": { "cat": 1 }, "geometry": { "type": "LineString", "coordinates": [ [ 7.946860962063801, 62.61316614563907 ], [ 7.946752564764138, 62.612800045918547 ], [ 7.947224280081691, 62.612463303983596 ], [ 7.947288006412039, 62.612196068535262 ], [ 7.946814117549398, 62.611721319068167 ], [ 7.945953519770573, 62.611226994333002 ], [ 7.946038498670055, 62.610870681306267 ], [ 7.945694270954896, 62.610672950287118 ], [ 7.945758006169509, 62.6104057156533 ], [ 7.944767852610851, 62.609634362372134 ], [ 7.944485270188784, 62.608357903607391 ], [ 7.943452716932196, 62.607764698234462 ], [ 7.943516464383854, 62.607497464783336 ], [ 7.943172291646625, 62.607299728273617 ], [ 7.943278538769637, 62.606854339402474 ], [ 7.942762294607441, 62.606557733637857 ], [ 7.942696467530817, 62.606013476290933 ], [ 7.942180243443968, 62.605716868639654 ], [ 7.942647737580317, 62.603757160384767 ], [ 7.942303612626973, 62.603559422367447 ], [ 7.942237797165796, 62.603015164948324 ], [ 7.94088262115143, 62.602135127313133 ], [ 7.941010130318824, 62.601600662900751 ], [ 7.939977875050948, 62.601007435776765 ], [ 7.939397997382968, 62.600978050924823 ], [ 7.938881891571483, 62.600681432644066 ], [ 7.938945660827746, 62.600414201561655 ], [ 7.935677253209716, 62.598535579772211 ], [ 7.934904154722422, 62.598496376556142 ], [ 7.934689613253305, 62.598575651328694 ], [ 7.931017418937966, 62.598389372192848 ], [ 7.930673433412994, 62.5981916073505 ], [ 7.926228248267151, 62.597965972599745 ], [ 7.923799409222926, 62.596670597172526 ], [ 7.920320791871465, 62.596493857037927 ], [ 7.919289131601282, 62.59590048480333 ], [ 7.91780707473083, 62.595554675971329 ], [ 7.915743961141625, 62.594367889458937 ], [ 7.915357482456743, 62.594348234087178 ], [ 7.913122646449204, 62.593062510797914 ], [ 7.912392385942566, 62.592845040972406 ], [ 7.91183403250026, 62.592726472140569 ], [ 7.909901767886257, 62.592628132124069 ], [ 7.909020995644987, 62.592222666735744 ], [ 7.90801220106808, 62.592351623203442 ], [ 7.906939363564291, 62.592747785145832 ], [ 7.890515739819299, 62.591910473432264 ], [ 7.890301132835457, 62.591989679020593 ], [ 7.886436894813142, 62.591792379363469 ], [ 7.885685461979185, 62.591663839828449 ], [ 7.885191471289632, 62.591277965642909 ], [ 7.844986126524498, 62.589308458897641 ], [ 7.844084834299773, 62.58899165613331 ], [ 7.842732617212895, 62.588922168762366 ], [ 7.842024532460845, 62.588615280706108 ], [ 7.838955358785817, 62.588367330557688 ], [ 7.837925637784269, 62.587773383117437 ], [ 7.836573494323632, 62.587703837009883 ], [ 7.835522290629493, 62.587198930083538 ], [ 7.835135972689774, 62.587179054564672 ], [ 7.833419990479356, 62.586189093912523 ] ] } }
]
}
