{
"type": "FeatureCollection",
"name": "kjovskarstinden_05_wgs84",
"crs": { "type": "name", "properties": { "name": "urn:ogc:def:crs:OGC:1.3:CRS84" } },
"features": [
{ "type": "Feature", "properties": { "cat": 1 }, "geometry": { "type": "LineString", "coordinates": [ [ 7.946860962063801, 62.61316614563907 ], [ 7.946752564764138, 62.612800045918547 ], [ 7.947266764446349, 62.612285147023243 ], [ 7.947910592869946, 62.612047266431212 ], [ 7.948080507392373, 62.61133463736553 ], [ 7.947564138824545, 62.611038047715589 ], [ 7.947606618568085, 62.610859890588017 ], [ 7.944680738478699, 62.609179183475433 ], [ 7.944723232130965, 62.609001027410038 ], [ 7.944034841084078, 62.608605558889224 ], [ 7.944098585591016, 62.60833832513422 ], [ 7.943431467492755, 62.607853776041026 ], [ 7.943471871003741, 62.606864129774777 ], [ 7.942955624697229, 62.606567524696942 ], [ 7.942847294816462, 62.606201422829166 ], [ 7.942201494694054, 62.605627791046629 ], [ 7.94262648936336, 62.603846238087648 ], [ 7.941938242315119, 62.603450761137424 ], [ 7.942023241128595, 62.60309445080437 ], [ 7.940903873040414, 62.602046049924162 ], [ 7.941031381341214, 62.601511585480367 ], [ 7.939483017661976, 62.600621742422021 ], [ 7.939525526934788, 62.600443588139186 ], [ 7.939009428783884, 62.600146970432156 ], [ 7.938429569107194, 62.600117581795132 ], [ 7.935870528192805, 62.598545379911442 ], [ 7.933336693486858, 62.598507033341626 ], [ 7.932327778032499, 62.598636164092206 ], [ 7.917080889913879, 62.597771674075588 ], [ 7.91523357431727, 62.597317112098501 ], [ 7.914267283964298, 62.597267966862383 ], [ 7.913364986881905, 62.596951598573845 ], [ 7.90857633785018, 62.596527599818941 ], [ 7.90840443152794, 62.596428690996618 ], [ 7.903959724592685, 62.59620235288633 ], [ 7.903208099269236, 62.596073905194288 ], [ 7.902327321889174, 62.595668397463783 ], [ 7.90194083757, 62.595648704830587 ], [ 7.90039396976009, 62.594758448084811 ], [ 7.898075153235704, 62.594640245274967 ], [ 7.897559576869993, 62.594343481262818 ], [ 7.8859659367131, 62.593751851937192 ], [ 7.88465620470697, 62.593504632945177 ], [ 7.875188559350588, 62.593020671701034 ], [ 7.874544592020293, 62.593258214709188 ], [ 7.870315353221192, 62.59295163456509 ], [ 7.870100686561186, 62.593030808248137 ], [ 7.868361788020015, 62.592941784841472 ], [ 7.868147116408993, 62.59302095544961 ], [ 7.865613920476264, 62.592981387073507 ], [ 7.865399241505494, 62.593060553350931 ], [ 7.856297044858164, 62.592684172094714 ], [ 7.853119783047371, 62.592881831130292 ], [ 7.848461421935549, 62.592732885065573 ], [ 7.846658046702188, 62.592910770883371 ], [ 7.845155504239835, 62.592653263429895 ], [ 7.84356685073566, 62.592751974742136 ], [ 7.842600859675299, 62.592702336997625 ], [ 7.840347128826998, 62.592316005290236 ], [ 7.840068464406878, 62.591850852420826 ], [ 7.838179659261522, 62.591573407622924 ], [ 7.836227037198741, 62.590751657532245 ], [ 7.83584067253337, 62.590731783329275 ], [ 7.835325799308966, 62.590434798885603 ], [ 7.835368913693855, 62.590256684761151 ], [ 7.836399471975226, 62.590039199529336 ], [ 7.836378724081434, 62.589316804817258 ], [ 7.833611388660743, 62.587821936093789 ], [ 7.833354428847783, 62.587267715015173 ], [ 7.833419990479356, 62.586189093912523 ] ] } }
]
}
