{
"type": "FeatureCollection",
"name": "kjovskarstinden_47_wgs84",
"crs": { "type": "name", "properties": { "name": "urn:ogc:def:crs:OGC:1.3:CRS84" } },
"features": [
{ "type": "Feature", "properties": { "cat": 1 }, "geometry": { "type": "LineString", "coordinates": [ [ 7.946860962063801, 62.61316614563907 ], [ 7.946752564764138, 62.612800045918547 ], [ 7.947224280081691, 62.612463303983596 ], [ 7.947330489910173, 62.612017911543596 ], [ 7.946297755458791, 62.611424724818498 ], [ 7.946295589123451, 62.610613233282329 ], [ 7.945112062373559, 62.609832095438058 ], [ 7.945154554625189, 62.609653939223335 ], [ 7.944164440926301, 62.608882582189295 ], [ 7.944334422292641, 62.608169958566812 ], [ 7.943646055158753, 62.607774488445642 ], [ 7.943709800899293, 62.607507254883252 ], [ 7.943021457128478, 62.60711178199125 ], [ 7.942696467530817, 62.606013476290933 ], [ 7.942050674236857, 62.605439843900932 ], [ 7.942369429875557, 62.60410367977736 ], [ 7.941702431500111, 62.60361912400662 ], [ 7.941936182126051, 62.602639270912398 ], [ 7.941075921704053, 62.602144920581367 ], [ 7.941203427450802, 62.601610455946386 ], [ 7.939483017661976, 62.600621742422021 ], [ 7.939525526934788, 62.600443588139186 ], [ 7.939009428783884, 62.600146970432156 ], [ 7.938064255258272, 62.600008911172687 ], [ 7.935677253209716, 62.598535579772211 ], [ 7.932778145805785, 62.598388545774164 ], [ 7.932434148270757, 62.598190785113339 ], [ 7.930715991043634, 62.598013456401333 ], [ 7.930028037073352, 62.597617924609615 ], [ 7.929276254469594, 62.597489615318636 ], [ 7.924659221760928, 62.597165048042733 ], [ 7.919973957180214, 62.59467310181801 ], [ 7.918256086715534, 62.594495623455906 ], [ 7.917912231824664, 62.594297828894746 ], [ 7.917332512652851, 62.594268354434355 ], [ 7.915420095700676, 62.593269535331508 ], [ 7.912736186920777, 62.593042848419159 ], [ 7.911876693018803, 62.592548328327695 ], [ 7.911297015530152, 62.592518829337223 ], [ 7.910760006119299, 62.592311184567372 ], [ 7.908441328096168, 62.592193156007319 ], [ 7.907003398145383, 62.592480572259781 ], [ 7.888841024500941, 62.591554502105552 ], [ 7.887981980025973, 62.591059840827214 ], [ 7.863832324434958, 62.589824584185919 ], [ 7.86331717949898, 62.589527699444396 ], [ 7.855203496439022, 62.589111692559761 ], [ 7.852799333579521, 62.589348989333104 ], [ 7.845458584291496, 62.588972071434121 ], [ 7.844943641904552, 62.588675121568677 ], [ 7.844170952314026, 62.588635420945749 ], [ 7.841853550857234, 62.587704839477439 ], [ 7.838762928255962, 62.587545944633618 ], [ 7.837883304166305, 62.587140045695612 ], [ 7.837303825620809, 62.587110241807771 ], [ 7.835651610646844, 62.58666458716705 ], [ 7.83449267906565, 62.586604958777208 ], [ 7.83397788864437, 62.586307970481599 ], [ 7.833419990479356, 62.586189093912523 ] ] } }
]
}
