{
"type": "FeatureCollection",
"name": "kjovskarstinden_25_wgs84",
"crs": { "type": "name", "properties": { "name": "urn:ogc:def:crs:OGC:1.3:CRS84" } },
"features": [
{ "type": "Feature", "properties": { "cat": 1 }, "geometry": { "type": "LineString", "coordinates": [ [ 7.946860962063801, 62.61316614563907 ], [ 7.946752564764138, 62.612800045918547 ], [ 7.947224280081691, 62.612463303983596 ], [ 7.947330489910173, 62.612017911543596 ], [ 7.945953519770573, 62.611226994333002 ], [ 7.946038498670055, 62.610870681306267 ], [ 7.945694270954896, 62.610672950287118 ], [ 7.945758006169509, 62.6104057156533 ], [ 7.944444895313988, 62.609347550540456 ], [ 7.944485270188784, 62.608357903607391 ], [ 7.943624806289687, 62.607863566289311 ], [ 7.94364395538724, 62.606962997739934 ], [ 7.943127705658743, 62.606666393253271 ], [ 7.942868544507609, 62.606112345113914 ], [ 7.942180243443968, 62.605716868639654 ], [ 7.941899855627386, 62.605251896616693 ], [ 7.942154866114502, 62.60418296573161 ], [ 7.941466617971047, 62.603787486440481 ], [ 7.941400817661108, 62.603243228830678 ], [ 7.9407551067843, 62.602669591537136 ], [ 7.940861369118008, 62.602224204696888 ], [ 7.940517273508714, 62.602026462664 ], [ 7.940644788650737, 62.601491998665438 ], [ 7.939096437832666, 62.600602151487848 ], [ 7.93913894938564, 62.600423997353431 ], [ 7.938300056333456, 62.599840554319606 ], [ 7.93554777229064, 62.598258550166008 ], [ 7.934388136552524, 62.598199742819212 ], [ 7.932152176354996, 62.596914309483452 ], [ 7.930992601545181, 62.596855474720449 ], [ 7.930132689573446, 62.596361061562483 ], [ 7.929746172937553, 62.596341445560327 ], [ 7.929402218983933, 62.596143678004388 ], [ 7.924398888161733, 62.59579948701689 ], [ 7.924054976767012, 62.595601706844775 ], [ 7.923475224463376, 62.595572257476384 ], [ 7.9229593723476, 62.595275583684383 ], [ 7.922572875822163, 62.595255948070736 ], [ 7.921305359539902, 62.594830920272543 ], [ 7.920339137219595, 62.594781818024785 ], [ 7.91892105462442, 62.594168801184175 ], [ 7.917954858805158, 62.594119682772437 ], [ 7.916129071426842, 62.593576062473886 ], [ 7.914218057556853, 62.593388708639004 ], [ 7.912499028333245, 62.592399680868475 ], [ 7.912112577937971, 62.592380016884476 ], [ 7.911596895670629, 62.592083303347898 ], [ 7.909278231193101, 62.591965288887408 ], [ 7.908248105869849, 62.592183318566256 ], [ 7.904598262514621, 62.591907286174312 ], [ 7.90438369179482, 62.591986513926393 ], [ 7.902644724389322, 62.591897917151826 ], [ 7.901442697868146, 62.592016980484203 ], [ 7.899703739801096, 62.591928347156426 ], [ 7.899489156328125, 62.592007567203808 ], [ 7.891760579125535, 62.591613368708913 ], [ 7.890751738360618, 62.591742199669703 ], [ 7.88920604751403, 62.591663297712763 ], [ 7.888562218529286, 62.591900907330654 ], [ 7.886436894813142, 62.591792379363469 ], [ 7.885685461979185, 62.591663839828449 ], [ 7.885535069041327, 62.591475837394988 ], [ 7.883602996194012, 62.591377135533868 ], [ 7.883431203896968, 62.591278197472121 ], [ 7.844020244253654, 62.589258832467877 ], [ 7.842775684479196, 62.588744051705461 ], [ 7.842196168478597, 62.588714267644022 ], [ 7.841488094277759, 62.588407377006718 ], [ 7.840522248663176, 62.588357726841465 ], [ 7.839835742244152, 62.587961770091297 ], [ 7.838140348189781, 62.587694259573787 ], [ 7.837089117394047, 62.587189364092893 ], [ 7.834814322830166, 62.586892007000543 ], [ 7.833419990479356, 62.586189093912523 ] ] } }
]
}
