{
"type": "FeatureCollection",
"name": "kjovskarstinden_36_wgs84",
"crs": { "type": "name", "properties": { "name": "urn:ogc:def:crs:OGC:1.3:CRS84" } },
"features": [
{ "type": "Feature", "properties": { "cat": 1 }, "geometry": { "type": "LineString", "coordinates": [ [ 7.946860962063801, 62.61316614563907 ], [ 7.946752564764138, 62.612800045918547 ], [ 7.947266764446349, 62.612285147023243 ], [ 7.94769598453659, 62.61212656030736 ], [ 7.947799978659692, 62.610869675334641 ], [ 7.945562501985487, 62.609584436820953 ], [ 7.945432886337242, 62.609307414609319 ], [ 7.944572379693443, 62.608813082566769 ], [ 7.94461487333109, 62.608634926533725 ], [ 7.944270680363553, 62.608437192464471 ], [ 7.944334422292641, 62.608169958566812 ], [ 7.943646055158753, 62.607774488445642 ], [ 7.943709800899293, 62.607507254883252 ], [ 7.943365626732461, 62.6073095188314 ], [ 7.943471871003741, 62.606864129774777 ], [ 7.943127705658743, 62.606666393253271 ], [ 7.942889794054312, 62.606023267393439 ], [ 7.942545642093036, 62.605825529614123 ], [ 7.942991867095241, 62.603954897613974 ], [ 7.941787433749745, 62.603262813863779 ], [ 7.940990914984237, 62.602501230233358 ], [ 7.94090183883463, 62.601234560024643 ], [ 7.940213673763765, 62.600839075657746 ], [ 7.939827090498682, 62.600819486702719 ], [ 7.939181460360792, 62.600245843198138 ], [ 7.938601598540658, 62.600216455247605 ], [ 7.938064255258272, 62.600008911172687 ], [ 7.936537320579221, 62.599029960819863 ], [ 7.935184374738008, 62.59896136040738 ], [ 7.934755285216929, 62.599119910395601 ], [ 7.933166518698473, 62.599219641004616 ], [ 7.922751004173914, 62.598600774314839 ], [ 7.922063145824144, 62.598205204522301 ], [ 7.921290078719059, 62.598165926258979 ], [ 7.918882758111703, 62.596781394388088 ], [ 7.918152363585092, 62.596563952928541 ], [ 7.916047891124031, 62.596366797007072 ], [ 7.912867992551843, 62.594942856276553 ], [ 7.910935579637042, 62.594844528588204 ], [ 7.910012054065655, 62.594617211736356 ], [ 7.909131222918224, 62.594211746254238 ], [ 7.902561292971646, 62.593877150490414 ], [ 7.902389421988206, 62.593778234729122 ], [ 7.879954287419576, 62.592723399433908 ], [ 7.879438928787087, 62.592426571376137 ], [ 7.878515732148821, 62.592199050395834 ], [ 7.87679828500197, 62.59202106704705 ], [ 7.875574462657682, 62.591417504564546 ], [ 7.875016292399927, 62.591298790795975 ], [ 7.860526519985583, 62.590556791580021 ], [ 7.860354811076743, 62.590457826222298 ], [ 7.842173986769385, 62.589614780249171 ], [ 7.841659067301105, 62.589317818564702 ], [ 7.840113668209702, 62.589238376355162 ], [ 7.839577232903129, 62.589030465342589 ], [ 7.838804543177097, 62.588990734974381 ], [ 7.837560087872801, 62.588475909075832 ], [ 7.836980583723471, 62.588446103495365 ], [ 7.836444185127745, 62.58823818092754 ], [ 7.83526446789477, 62.587456163730046 ], [ 7.834878146834185, 62.587436287454132 ], [ 7.834191738087094, 62.587040304242699 ], [ 7.834256410262744, 62.586773133582639 ], [ 7.833419990479356, 62.586189093912523 ] ] } }
]
}
