{
"type": "FeatureCollection",
"name": "kjovskarstinden_41_wgs84",
"crs": { "type": "name", "properties": { "name": "urn:ogc:def:crs:OGC:1.3:CRS84" } },
"features": [
{ "type": "Feature", "properties": { "cat": 1 }, "geometry": { "type": "LineString", "coordinates": [ [ 7.946860962063801, 62.61316614563907 ], [ 7.946474212932532, 62.613146572887246 ], [ 7.945014347775392, 62.613523450119743 ], [ 7.94462759553813, 62.613503872207268 ], [ 7.943554446141293, 62.613900311586178 ], [ 7.939708178919711, 62.61361536658967 ], [ 7.93859047201244, 62.613378432069723 ], [ 7.937430238808671, 62.613319642007674 ], [ 7.936505932106757, 62.613092490176307 ], [ 7.93581756169552, 62.612696981395452 ], [ 7.935860114848233, 62.612518828834034 ], [ 7.936739948546959, 62.612112649425775 ], [ 7.937060946777327, 62.611587990201123 ], [ 7.930371656911543, 62.607642599922421 ], [ 7.930946392253092, 62.605237565174896 ], [ 7.931590190222492, 62.604999759485757 ], [ 7.931973249923705, 62.603396398574041 ], [ 7.931499741422473, 62.602921602175002 ], [ 7.931691262584647, 62.602119921849173 ], [ 7.931175216536175, 62.601823275856731 ], [ 7.930723026190512, 62.601259401796959 ], [ 7.927153670526531, 62.599004670296992 ], [ 7.925822047478801, 62.598846904715096 ], [ 7.925112845836122, 62.598540423827288 ], [ 7.924146495037893, 62.598491346233132 ], [ 7.921910968096008, 62.597205754538983 ], [ 7.920171629386076, 62.597117371360497 ], [ 7.91965578519863, 62.596820685457594 ], [ 7.919076014666216, 62.596791217554248 ], [ 7.918044369921672, 62.596197836321089 ], [ 7.915746674009184, 62.595990851703391 ], [ 7.914693800004629, 62.595486519540145 ], [ 7.913555652429899, 62.595338468752921 ], [ 7.9124815088094, 62.594923192865615 ], [ 7.910742339142767, 62.594834694357253 ], [ 7.910054728936091, 62.594439068676557 ], [ 7.903871201154047, 62.594124203669516 ], [ 7.903699324318925, 62.594025289443898 ], [ 7.901187317880751, 62.59389729481083 ], [ 7.901015451475721, 62.593798377417841 ], [ 7.879374646784751, 62.592693768232159 ], [ 7.878515732148821, 62.592199050395834 ], [ 7.87679828500197, 62.59202106704705 ], [ 7.875574462657682, 62.591417504564546 ], [ 7.865721276858505, 62.590913146473397 ], [ 7.864605043585304, 62.590675639267992 ], [ 7.858229721304925, 62.590348871471498 ], [ 7.85801504285575, 62.590428026386988 ], [ 7.842903630494936, 62.589832609340981 ], [ 7.84185224284585, 62.589327747645342 ], [ 7.840306842584067, 62.58924830756122 ], [ 7.83962031925646, 62.588852349520849 ], [ 7.838654463155068, 62.588802686272501 ], [ 7.837624733765775, 62.588208736496085 ], [ 7.837045234737413, 62.58817893125417 ], [ 7.836530391843827, 62.587881951670504 ], [ 7.835586127945467, 62.587743210394081 ], [ 7.835114417703338, 62.587268111623423 ], [ 7.833419990479356, 62.586189093912523 ] ] } }
]
}
