{
"type": "FeatureCollection",
"name": "kjovskarstinden_18_wgs84",
"crs": { "type": "name", "properties": { "name": "urn:ogc:def:crs:OGC:1.3:CRS84" } },
"features": [
{ "type": "Feature", "properties": { "cat": 1 }, "geometry": { "type": "LineString", "coordinates": [ [ 7.946860962063801, 62.61316614563907 ], [ 7.946710076383916, 62.61297820266784 ], [ 7.947009666894758, 62.61254259673872 ], [ 7.948125200062134, 62.611967972209591 ], [ 7.948080507392373, 62.61133463736553 ], [ 7.948938906435653, 62.611017457052768 ], [ 7.949023848792643, 62.610661141717763 ], [ 7.95249966408181, 62.609214203440565 ], [ 7.952563334156238, 62.608946964823645 ], [ 7.954515659685066, 62.60814415582157 ], [ 7.954621740707479, 62.607698756094443 ], [ 7.95511449748572, 62.607272905175606 ], [ 7.955758153772738, 62.60703498605578 ], [ 7.955970264945123, 62.606144183941282 ], [ 7.95545390274017, 62.605847623569836 ], [ 7.955687222440742, 62.604867741691201 ], [ 7.954654556954294, 62.604274617724279 ], [ 7.953730388770873, 62.604047581854921 ], [ 7.951023947029406, 62.603910694119968 ], [ 7.949948957380867, 62.603495695574452 ], [ 7.948810310697044, 62.603347925861939 ], [ 7.947949913143991, 62.602853616095011 ], [ 7.948098529710126, 62.602230064804516 ], [ 7.947066108164294, 62.601636887918048 ], [ 7.947127600719517, 62.600558160034737 ], [ 7.947577878096475, 62.600310492718364 ], [ 7.947641568207709, 62.600043256599456 ], [ 7.946953337781461, 62.5996478046088 ], [ 7.947229335398051, 62.598489782539097 ], [ 7.947658351294058, 62.598331193185366 ], [ 7.947785718014942, 62.597796720655637 ], [ 7.946065296864255, 62.596808088150595 ], [ 7.942994267566045, 62.596562403719858 ], [ 7.942650220719777, 62.596364667595907 ], [ 7.940137804566215, 62.596237369168769 ], [ 7.939923293309474, 62.596316652399487 ], [ 7.931054657504554, 62.595776761488288 ], [ 7.930538724354105, 62.59548011464625 ], [ 7.929636300216543, 62.595163849933044 ], [ 7.929249799551791, 62.595144232769769 ], [ 7.92890586236787, 62.594946464213614 ], [ 7.92716662939279, 62.594858169701837 ], [ 7.926650751450548, 62.594561509216682 ], [ 7.925491282167455, 62.594502630128609 ], [ 7.924223753891604, 62.594077628694535 ], [ 7.922892367803626, 62.593919838323096 ], [ 7.922183311996295, 62.593613344491523 ], [ 7.919671239525887, 62.593485681960615 ], [ 7.919155461333482, 62.593188995089363 ], [ 7.918768995103457, 62.593169349340663 ], [ 7.916856597044939, 62.592170550187419 ], [ 7.910480228425243, 62.591846157611407 ], [ 7.910308341750178, 62.591747251398573 ], [ 7.909149023241254, 62.591688238459476 ], [ 7.907860515377102, 62.591352164509743 ], [ 7.906829282614284, 62.590758705854299 ], [ 7.894850398435305, 62.590148151779069 ], [ 7.894635815656621, 62.590227364367152 ], [ 7.892124179390982, 62.590099211461975 ], [ 7.891523185711847, 62.590158699340023 ], [ 7.890879408043095, 62.59039632035374 ], [ 7.889526988845967, 62.590327284132748 ], [ 7.887530771044946, 62.59049584006118 ], [ 7.886908358271079, 62.590644375023835 ], [ 7.885148127119026, 62.590644629019842 ], [ 7.884289674617571, 62.590961416012441 ], [ 7.874629649154597, 62.590467557287191 ], [ 7.874415011994055, 62.590546738013337 ], [ 7.856061926855367, 62.589606547404777 ], [ 7.855890238495553, 62.589507576827735 ], [ 7.853185694649475, 62.589368816489674 ], [ 7.852971010496717, 62.589447963560822 ], [ 7.848721061559516, 62.589229799715035 ], [ 7.848549400376902, 62.589130820468156 ], [ 7.846810811724328, 62.589041532505497 ], [ 7.84663915811707, 62.588942551009652 ], [ 7.845286935691065, 62.588873088341494 ], [ 7.845115288228753, 62.58877410505302 ], [ 7.843763077973801, 62.588704627769957 ], [ 7.84264711384238, 62.58846694843799 ], [ 7.840543788466436, 62.588268668740078 ], [ 7.839642576421335, 62.587951838348999 ], [ 7.838269623928324, 62.587159913625911 ], [ 7.836788997940805, 62.586813263385707 ], [ 7.836274180501504, 62.586516283201796 ], [ 7.835716268679435, 62.58639741563654 ], [ 7.834364194294094, 62.586327849042128 ], [ 7.834149484313668, 62.586406966775854 ], [ 7.833419990479356, 62.586189093912523 ] ] } }
]
}
