{
"type": "FeatureCollection",
"name": "kjovskarstinden_28_wgs84",
"crs": { "type": "name", "properties": { "name": "urn:ogc:def:crs:OGC:1.3:CRS84" } },
"features": [
{ "type": "Feature", "properties": { "cat": 1 }, "geometry": { "type": "LineString", "coordinates": [ [ 7.946860962063801, 62.61316614563907 ], [ 7.945658221161357, 62.613285580527013 ], [ 7.943983709323859, 62.61374173687117 ], [ 7.941083066793716, 62.613594854956531 ], [ 7.940868429381607, 62.61367413793873 ], [ 7.939514804348757, 62.613605570433492 ], [ 7.93859047201244, 62.613378432069723 ], [ 7.936678027562406, 62.613191366878922 ], [ 7.93562419472627, 62.612687179948558 ], [ 7.933475883972847, 62.612668422299052 ], [ 7.931801229331296, 62.613124430502744 ], [ 7.929094089536181, 62.612987107891911 ], [ 7.928749953853683, 62.612789336306328 ], [ 7.926514806231912, 62.61231528630762 ], [ 7.925654538426014, 62.611820840802935 ], [ 7.925782374092426, 62.611286394748227 ], [ 7.926426346483224, 62.611048615248379 ], [ 7.927627407104848, 62.610117860888103 ], [ 7.927819091513005, 62.60931618811297 ], [ 7.928033730262933, 62.609236925223669 ], [ 7.929098394372858, 62.604783177722162 ], [ 7.928559347106841, 62.603764111425946 ], [ 7.928621521922877, 62.602685400924749 ], [ 7.923977674441596, 62.600015423661951 ], [ 7.923032581542823, 62.599877263618325 ], [ 7.922323385662894, 62.599570768624822 ], [ 7.921357007230705, 62.599521671329803 ], [ 7.920089330583489, 62.599096630330671 ], [ 7.917770076637252, 62.598978749150625 ], [ 7.917232906175102, 62.59877112714868 ], [ 7.916459832459137, 62.598731822020369 ], [ 7.916287886906872, 62.598632922389669 ], [ 7.913775422633305, 62.598505148369391 ], [ 7.912722496531083, 62.598000800627673 ], [ 7.91083256175517, 62.597724324975978 ], [ 7.910488721473133, 62.59752651231085 ], [ 7.909371861415414, 62.597289355104827 ], [ 7.908319054194838, 62.596784975716346 ], [ 7.907395490288527, 62.596557641020581 ], [ 7.904303505497477, 62.596400180848946 ], [ 7.903573231964598, 62.596182664665363 ], [ 7.902220512337769, 62.596113747517926 ], [ 7.900931897952079, 62.595777608110851 ], [ 7.899579204513368, 62.595708665694524 ], [ 7.899063594843079, 62.595411906795306 ], [ 7.898312012227757, 62.595283433289659 ], [ 7.897431326566296, 62.594877895872798 ], [ 7.893180189248677, 62.594661071298923 ], [ 7.893008345918734, 62.594562144349666 ], [ 7.890710977167885, 62.594354751645824 ], [ 7.890539143979715, 62.594255821790632 ], [ 7.874501706671759, 62.593436344028461 ], [ 7.874287047187249, 62.593515524253846 ], [ 7.866944924682505, 62.593139719120991 ], [ 7.866730247961151, 62.593218887478216 ], [ 7.856297044858164, 62.592684172094714 ], [ 7.855674437975745, 62.592832564969306 ], [ 7.854880121266466, 62.592881982951916 ], [ 7.854128808854271, 62.592753274993129 ], [ 7.853119783047371, 62.592881831130292 ], [ 7.845198563855867, 62.592475145522556 ], [ 7.844167980147088, 62.592692695447795 ], [ 7.840690431793297, 62.592513983504169 ], [ 7.839617444803269, 62.592098162271164 ], [ 7.839037867484583, 62.592068364245733 ], [ 7.838522939135823, 62.591771390859527 ], [ 7.838136559281723, 62.591751522812174 ], [ 7.835712159681317, 62.590454674456936 ], [ 7.835755271789902, 62.590276560181955 ], [ 7.836614203094061, 62.589960078619249 ], [ 7.836593449899405, 62.589237683866685 ], [ 7.834877303190295, 62.588247738916593 ], [ 7.834878146834185, 62.587436287454132 ], [ 7.834191738087094, 62.587040304242699 ], [ 7.833419990479356, 62.586189093912523 ] ] } }
]
}
