{
"type": "FeatureCollection",
"name": "kjovskarstinden_32_wgs84",
"crs": { "type": "name", "properties": { "name": "urn:ogc:def:crs:OGC:1.3:CRS84" } },
"features": [
{ "type": "Feature", "properties": { "cat": 1 }, "geometry": { "type": "LineString", "coordinates": [ [ 7.946860962063801, 62.61316614563907 ], [ 7.946752564764138, 62.612800045918547 ], [ 7.947266764446349, 62.612285147023243 ], [ 7.94793183269065, 62.611958187816292 ], [ 7.948080507392373, 62.61133463736553 ], [ 7.948724308386484, 62.611096752649111 ], [ 7.949667627514882, 62.610423252348575 ], [ 7.950740569231093, 62.610026763158132 ], [ 7.950783028105599, 62.609848604782684 ], [ 7.952714238444421, 62.609134901718583 ], [ 7.953421616184014, 62.608629755356226 ], [ 7.95470900499795, 62.608153930794323 ], [ 7.954942372213234, 62.607174050815068 ], [ 7.955607239827335, 62.606847052321527 ], [ 7.955774497542864, 62.605322915879029 ], [ 7.954225489105368, 62.604433227896074 ], [ 7.951519009371616, 62.604296349258846 ], [ 7.950271908554103, 62.603782494592949 ], [ 7.948553308793335, 62.603605379720356 ], [ 7.947864986217274, 62.603209931003214 ], [ 7.946705126514079, 62.603151223074427 ], [ 7.9461676726263, 62.602943708742878 ], [ 7.945587749443301, 62.602914349016331 ], [ 7.943006843668233, 62.601431347999366 ], [ 7.942233657649168, 62.601392184240659 ], [ 7.939975864467384, 62.600195946175106 ], [ 7.938816142080532, 62.600137174485745 ], [ 7.936450354009045, 62.598574778733656 ], [ 7.935677253209716, 62.598535579772211 ], [ 7.935505243155472, 62.598436702971945 ], [ 7.926034981083659, 62.597956159202418 ], [ 7.925391296710397, 62.598193940789429 ], [ 7.923458620079751, 62.598095783099865 ], [ 7.921910968096008, 62.597205754538983 ], [ 7.920171629386076, 62.597117371360497 ], [ 7.9182376223335, 62.596207660593372 ], [ 7.917078110035063, 62.596148710971761 ], [ 7.914585852295233, 62.595120400871799 ], [ 7.913426391563625, 62.595061421580972 ], [ 7.913082563323641, 62.594863615470665 ], [ 7.91213768856473, 62.594725384533213 ], [ 7.91123549072562, 62.594409003799633 ], [ 7.909689592456308, 62.594330326125181 ], [ 7.909345797896237, 62.594132511254884 ], [ 7.908229073671333, 62.593895346723862 ], [ 7.881950692125138, 62.592554954516721 ], [ 7.881263526048316, 62.592159192900517 ], [ 7.879911055058564, 62.592090062703882 ], [ 7.879567488861612, 62.591892177520968 ], [ 7.879181072748408, 62.591872422730901 ], [ 7.878279325041496, 62.591555834891359 ], [ 7.877764003113737, 62.591259001138731 ], [ 7.850137417212437, 62.589843506735171 ], [ 7.849922721707622, 62.589922648957604 ], [ 7.846445453244719, 62.589744084361698 ], [ 7.846102141832541, 62.589546120202193 ], [ 7.845329427661576, 62.589506425665547 ], [ 7.844986126524498, 62.589308458897641 ], [ 7.840135210045035, 62.589149318344852 ], [ 7.839963578644098, 62.589050328932657 ], [ 7.839190887747453, 62.589010600689818 ], [ 7.838654463155068, 62.588802686272501 ], [ 7.835737002952168, 62.587119810267509 ], [ 7.834621166079468, 62.586882068424224 ], [ 7.833419990479356, 62.586189093912523 ] ] } }
]
}
