{
"type": "FeatureCollection",
"name": "kjovskarstinden_35_wgs84",
"crs": { "type": "name", "properties": { "name": "urn:ogc:def:crs:OGC:1.3:CRS84" } },
"features": [
{ "type": "Feature", "properties": { "cat": 1 }, "geometry": { "type": "LineString", "coordinates": [ [ 7.946860962063801, 62.61316614563907 ], [ 7.945658221161357, 62.613285580527013 ], [ 7.943769078303217, 62.613821024401453 ], [ 7.939514804348757, 62.613605570433492 ], [ 7.93859047201244, 62.613378432069723 ], [ 7.937430238808671, 62.613319642007674 ], [ 7.937258140066208, 62.613220766188967 ], [ 7.936484657017083, 62.613181566576756 ], [ 7.93562419472627, 62.612687179948558 ], [ 7.933475883972847, 62.612668422299052 ], [ 7.931586571474306, 62.613203698930292 ], [ 7.928492692926858, 62.613046749694618 ], [ 7.927783132242902, 62.612740277589452 ], [ 7.926450892827849, 62.612582509743156 ], [ 7.925418567222178, 62.611989173971835 ], [ 7.925589020499805, 62.611276579571786 ], [ 7.926254298029496, 62.610949726530684 ], [ 7.927319306509276, 62.606495997289095 ], [ 7.927597812499332, 62.606149510604681 ], [ 7.928262949813695, 62.60582264608928 ], [ 7.928326828496141, 62.605555421345436 ], [ 7.928970653783799, 62.60531762811496 ], [ 7.929098394372858, 62.604783177722162 ], [ 7.928754350451257, 62.604585407369463 ], [ 7.929009826212648, 62.603516506783244 ], [ 7.928837811067614, 62.603417621694589 ], [ 7.928899974233027, 62.602338910910191 ], [ 7.925460027140401, 62.600361170881868 ], [ 7.924406832762955, 62.599856907762295 ], [ 7.924020275491168, 62.599837275343297 ], [ 7.922300551371734, 62.598848359103911 ], [ 7.921334196459266, 62.598799261967173 ], [ 7.920259817784468, 62.598384042842184 ], [ 7.918906949026659, 62.598315285557213 ], [ 7.918219149549182, 62.59791969759727 ], [ 7.917446096308725, 62.597880398211807 ], [ 7.916414448433523, 62.597287004882467 ], [ 7.915834672888289, 62.597257523435786 ], [ 7.915490803667853, 62.597059722713865 ], [ 7.913944753357277, 62.596981090166089 ], [ 7.913235721732467, 62.59667455117004 ], [ 7.907846028473145, 62.59631010552858 ], [ 7.907137077475196, 62.596003536611668 ], [ 7.899235463593932, 62.595510826624867 ], [ 7.899063594843079, 62.595411906795306 ], [ 7.898290638935945, 62.595372502538268 ], [ 7.897195339124431, 62.595046181087859 ], [ 7.895456220051111, 62.594957492611925 ], [ 7.89457558399204, 62.594551937828818 ], [ 7.893416195841564, 62.594492793137874 ], [ 7.892728829890753, 62.594097085332557 ], [ 7.876111754232803, 62.593248214686547 ], [ 7.874716365017455, 62.593357163457156 ], [ 7.867932443659259, 62.59310012571175 ], [ 7.867288418577741, 62.593337634422113 ], [ 7.866129146737731, 62.593278264428498 ], [ 7.865914466891899, 62.593357431487235 ], [ 7.857821185573513, 62.59285249950392 ], [ 7.857606487521179, 62.59293165352311 ], [ 7.851423980388009, 62.592614476611814 ], [ 7.850007030820924, 62.592812237592675 ], [ 7.844597440658307, 62.592534429344887 ], [ 7.843331201861696, 62.592108710378021 ], [ 7.842751619617606, 62.592078927723598 ], [ 7.842408307415636, 62.591880954458944 ], [ 7.840669581462356, 62.591791588041339 ], [ 7.839811353074939, 62.591296641187455 ], [ 7.839424978294216, 62.591276776779843 ], [ 7.839489615165334, 62.591009603214658 ], [ 7.83901779294235, 62.590534516130859 ], [ 7.838438246844898, 62.590504716038133 ], [ 7.837172184852146, 62.590078943543162 ], [ 7.835799205057265, 62.589286994123206 ], [ 7.83567069798965, 62.589009885290359 ], [ 7.835112742473627, 62.588891014714612 ], [ 7.833911476765627, 62.588198043212863 ], [ 7.833954595502625, 62.588019929584043 ], [ 7.833311307902007, 62.587445828428592 ], [ 7.832947445155805, 62.586525439381759 ], [ 7.832990566586508, 62.586347326087051 ], [ 7.833419990479356, 62.586189093912523 ] ] } }
]
}
