{
"type": "FeatureCollection",
"name": "kjovskarstinden_27_wgs84",
"crs": { "type": "name", "properties": { "name": "urn:ogc:def:crs:OGC:1.3:CRS84" } },
"features": [
{ "type": "Feature", "properties": { "cat": 1 }, "geometry": { "type": "LineString", "coordinates": [ [ 7.946860962063801, 62.61316614563907 ], [ 7.946752564764138, 62.612800045918547 ], [ 7.947481375062056, 62.612205853838049 ], [ 7.948125200062134, 62.611967972209591 ], [ 7.948080507392373, 62.61133463736553 ], [ 7.948724308386484, 62.611096752649111 ], [ 7.948809253603111, 62.610740437483308 ], [ 7.952285088578223, 62.609293504817195 ], [ 7.952563334156238, 62.608946964823645 ], [ 7.954536876178001, 62.608055075886575 ], [ 7.954621740707479, 62.607698756094443 ], [ 7.955072069233296, 62.607451065282419 ], [ 7.955135711395619, 62.607183825114383 ], [ 7.956015125545571, 62.606777518526201 ], [ 7.956333271853798, 62.605441314368711 ], [ 7.954267916966103, 62.60425506803746 ], [ 7.953494638720059, 62.604215965471788 ], [ 7.953150434589473, 62.604018253157861 ], [ 7.949477421585041, 62.603832449149309 ], [ 7.948079528050848, 62.6031306359708 ], [ 7.947928681628772, 62.602942694829885 ], [ 7.948098529710126, 62.602230064804516 ], [ 7.947066108164294, 62.601636887918048 ], [ 7.946957741489774, 62.601270788736855 ], [ 7.947127600719517, 62.600558160034737 ], [ 7.947577878096475, 62.600310492718364 ], [ 7.947641568207709, 62.600043256599456 ], [ 7.946953337781461, 62.5996478046088 ], [ 7.94701703170335, 62.599380568824941 ], [ 7.947231547364186, 62.599301274743603 ], [ 7.947401385759838, 62.59858864541841 ], [ 7.947830402232905, 62.598430055543275 ], [ 7.948000219967617, 62.597717425207151 ], [ 7.944215437544025, 62.595542413427168 ], [ 7.943828919770703, 62.595522836442782 ], [ 7.943484878852247, 62.595325102456165 ], [ 7.942926347191333, 62.595206655746615 ], [ 7.940414027341204, 62.59507936358748 ], [ 7.940242020443551, 62.594980492669784 ], [ 7.923429493540817, 62.594127437929259 ], [ 7.922140711257705, 62.593791492260188 ], [ 7.920594808497336, 62.593712935424406 ], [ 7.918510393944408, 62.592615263465312 ], [ 7.916835282111223, 62.592259623063946 ], [ 7.916491461899475, 62.592061825464093 ], [ 7.908204268743011, 62.591549982489198 ], [ 7.906035088601273, 62.590808416905581 ], [ 7.904875817435332, 62.590749369075496 ], [ 7.904703956014617, 62.59065045629454 ], [ 7.904124324533003, 62.590620928105878 ], [ 7.903501987513187, 62.590769538164025 ], [ 7.900024213376773, 62.590592303105687 ], [ 7.899809640622562, 62.590671523791727 ], [ 7.897877559954373, 62.590573019631108 ], [ 7.897662981818824, 62.590652236940706 ], [ 7.892231834360465, 62.590465343552509 ], [ 7.891201644558381, 62.590683246416035 ], [ 7.889076395602781, 62.590574759693482 ], [ 7.888647192876125, 62.590733166262169 ], [ 7.873964071011843, 62.589982696985139 ], [ 7.872654610711922, 62.589735368942861 ], [ 7.863767965876082, 62.589280309770366 ], [ 7.863059648344858, 62.588973525403418 ], [ 7.861127832765013, 62.588874515593055 ], [ 7.860247855371682, 62.588468752988788 ], [ 7.858960068302106, 62.588132236993111 ], [ 7.85810162948846, 62.587637399876463 ], [ 7.855590412077174, 62.587508594534782 ], [ 7.855375747887536, 62.587587745581011 ], [ 7.85166253205584, 62.587577525669751 ], [ 7.851018504255907, 62.587814959191945 ], [ 7.849837977373614, 62.587844517340855 ], [ 7.848571387270333, 62.58823030419822 ], [ 7.847991873914482, 62.588200544264907 ], [ 7.847433880883938, 62.588081722491765 ], [ 7.846961973259007, 62.58760666112849 ], [ 7.846575640334707, 62.587586817107308 ], [ 7.84395803430675, 62.586280189177785 ], [ 7.84086754539947, 62.586121342812952 ], [ 7.84069592837, 62.586022354497345 ], [ 7.839322314986306, 62.58604189412894 ], [ 7.837498523450834, 62.585497271710189 ], [ 7.836124934321101, 62.585516780166529 ], [ 7.834407306881844, 62.586149735188435 ], [ 7.833634700719128, 62.586109977305853 ], [ 7.833419990479356, 62.586189093912523 ] ] } }
]
}
