{
"type": "FeatureCollection",
"name": "kjovskarstinden_45_wgs84",
"crs": { "type": "name", "properties": { "name": "urn:ogc:def:crs:OGC:1.3:CRS84" } },
"features": [
{ "type": "Feature", "properties": { "cat": 1 }, "geometry": { "type": "LineString", "coordinates": [ [ 7.946860962063801, 62.61316614563907 ], [ 7.946752564764138, 62.612800045918547 ], [ 7.947717225072281, 62.612037481734752 ], [ 7.947799978659692, 62.610869675334641 ], [ 7.94386274617446, 62.608506691266264 ], [ 7.943926491959296, 62.608239457606864 ], [ 7.943431467492755, 62.607853776041026 ], [ 7.943516464383854, 62.607497464783336 ], [ 7.943172291646625, 62.607299728273617 ], [ 7.94317020405975, 62.606488237721472 ], [ 7.942868544507609, 62.606112345113914 ], [ 7.942180243443968, 62.605716868639654 ], [ 7.942071925623864, 62.605350766329316 ], [ 7.941555719055966, 62.605054156600367 ], [ 7.941810739761962, 62.603985226480077 ], [ 7.941294558786178, 62.603688616125147 ], [ 7.94107795916288, 62.602956410516796 ], [ 7.94056180295534, 62.602659797780319 ], [ 7.940644788650737, 62.601491998665438 ], [ 7.939289727675098, 62.600611947087899 ], [ 7.939332238087988, 62.600433792879301 ], [ 7.936923877834327, 62.599049558544415 ], [ 7.935505243155472, 62.598436702971945 ], [ 7.932820691187748, 62.598210394018331 ], [ 7.931724891418492, 62.597884337107935 ], [ 7.931036926561148, 62.59748881014653 ], [ 7.929705348076697, 62.597331082241709 ], [ 7.928974857314197, 62.597113696175072 ], [ 7.925302888931502, 62.596927269601686 ], [ 7.925130923276451, 62.596828380603085 ], [ 7.924357886814192, 62.596789119757936 ], [ 7.923455492184928, 62.596472815447051 ], [ 7.92115773166668, 62.596265919118665 ], [ 7.91924505797116, 62.595267149031201 ], [ 7.918472071943708, 62.595227856237805 ], [ 7.915893198929528, 62.593744380877929 ], [ 7.9151202580891, 62.593705070113245 ], [ 7.912713581222117, 62.592320440387958 ], [ 7.911596895670629, 62.592083303347898 ], [ 7.910565561890535, 62.591489870966704 ], [ 7.90998590667455, 62.591460366825885 ], [ 7.908782750758737, 62.590768015304036 ], [ 7.907816686636198, 62.590718828421053 ], [ 7.907472945197831, 62.590521009646203 ], [ 7.899165004853048, 62.590097708514563 ], [ 7.897920300114295, 62.590394881165807 ], [ 7.893262009406093, 62.590247432877277 ], [ 7.892832833065649, 62.59040585268788 ], [ 7.888195975681797, 62.590169167536828 ], [ 7.887981375626707, 62.590248369649068 ], [ 7.884117383285636, 62.590051009029239 ], [ 7.883902773613556, 62.590130204733377 ], [ 7.87482260074874, 62.589665974617525 ], [ 7.874650847982126, 62.589567026273194 ], [ 7.861707375907293, 62.58890422132604 ], [ 7.86153567218037, 62.58880525749246 ], [ 7.860762951142545, 62.588765648404255 ], [ 7.860419552823722, 62.588567718323283 ], [ 7.85926048422435, 62.58850829398169 ], [ 7.857865483409673, 62.587805616355745 ], [ 7.852456710325111, 62.58752812413362 ], [ 7.851855700536798, 62.587587440793115 ], [ 7.851211674005778, 62.58782487522496 ], [ 7.850632165194414, 62.587795126328892 ], [ 7.850202805945539, 62.587953412400324 ], [ 7.849000759007403, 62.588072023321544 ], [ 7.848571387270333, 62.58823030419822 ], [ 7.847991873914482, 62.588200544264907 ], [ 7.846961973259007, 62.58760666112849 ], [ 7.846575640334707, 62.587586817107308 ], [ 7.846060709661528, 62.587289871526174 ], [ 7.845674381612953, 62.587270025073757 ], [ 7.843936506548178, 62.586369247971255 ], [ 7.843550192249701, 62.586349395819511 ], [ 7.842842158485288, 62.586042512608266 ], [ 7.842069540809729, 62.586002801317733 ], [ 7.841897920334561, 62.585903814434914 ], [ 7.840094929022649, 62.586081620596062 ], [ 7.839322314986306, 62.58604189412894 ], [ 7.838056426172574, 62.585616132018735 ], [ 7.837112225925597, 62.585477401946228 ], [ 7.836253432619356, 62.585793888463847 ], [ 7.834879829709307, 62.585813384463336 ], [ 7.833419990479356, 62.586189093912523 ] ] } }
]
}
