{
"type": "FeatureCollection",
"name": "kjovskarstinden_11_wgs84",
"crs": { "type": "name", "properties": { "name": "urn:ogc:def:crs:OGC:1.3:CRS84" } },
"features": [
{ "type": "Feature", "properties": { "cat": 1 }, "geometry": { "type": "LineString", "coordinates": [ [ 7.946860962063801, 62.61316614563907 ], [ 7.946752564764138, 62.612800045918547 ], [ 7.947738465463567, 62.611948403156909 ], [ 7.946231858176901, 62.610880468218532 ], [ 7.946359318770212, 62.610345998299067 ], [ 7.944466143071663, 62.609258472557926 ], [ 7.944529885478044, 62.608991238578945 ], [ 7.94401359262621, 62.608694636797068 ], [ 7.944119833471118, 62.608249247205414 ], [ 7.943452716932196, 62.607764698234462 ], [ 7.943516464383854, 62.607497464783336 ], [ 7.943021457128478, 62.60711178199125 ], [ 7.942847294816462, 62.606201422829166 ], [ 7.942180243443968, 62.605716868639654 ], [ 7.941899855627386, 62.605251896616693 ], [ 7.942154866114502, 62.60418296573161 ], [ 7.940347245230473, 62.602739081035715 ], [ 7.940453513987739, 62.602293694592632 ], [ 7.94010942038535, 62.602095951580573 ], [ 7.94027944969631, 62.601383333509474 ], [ 7.938881891571483, 62.600681432644066 ], [ 7.938945660827746, 62.600414201561655 ], [ 7.935526507795308, 62.598347626571588 ], [ 7.932455421884708, 62.598101709301858 ], [ 7.9291663990682, 62.59631201956298 ], [ 7.926654060674952, 62.596184479256387 ], [ 7.926310129582911, 62.595986704381474 ], [ 7.92418433960114, 62.59587874553354 ], [ 7.923281973984924, 62.595562440488514 ], [ 7.92250897351833, 62.595523169878433 ], [ 7.920897565005827, 62.594900353798465 ], [ 7.919931341284657, 62.59485124870622 ], [ 7.919394228102963, 62.594643635795656 ], [ 7.917848290267826, 62.594565048038767 ], [ 7.91750443738518, 62.594367252499161 ], [ 7.91692471737332, 62.59433777633209 ], [ 7.915549368562429, 62.593546580819918 ], [ 7.914303351873755, 62.593032419182428 ], [ 7.913358528705583, 62.592894197211521 ], [ 7.911382341662847, 62.592162542095124 ], [ 7.910265673298763, 62.591925394625378 ], [ 7.908526687241081, 62.591836870957934 ], [ 7.907667298856238, 62.591342326340786 ], [ 7.906722562820525, 62.591204060579784 ], [ 7.905648664299203, 62.590788735358693 ], [ 7.904875817435332, 62.590749369075496 ], [ 7.904703956014617, 62.59065045629454 ], [ 7.90393111432922, 62.590611084844781 ], [ 7.903094211065007, 62.590838919869192 ], [ 7.90000284948769, 62.590681372746033 ], [ 7.899573701411345, 62.590839813687268 ], [ 7.897641610806522, 62.590741306122858 ], [ 7.897212449689821, 62.590899739619879 ], [ 7.892747291206127, 62.59076212565266 ], [ 7.891738483466332, 62.590890964200312 ], [ 7.889033602165187, 62.590752894725107 ], [ 7.888024780320104, 62.590881706211462 ], [ 7.879502467090722, 62.59053643838007 ], [ 7.87857932785257, 62.590308918596691 ], [ 7.866214985815647, 62.589676159741849 ], [ 7.86550663298588, 62.589369387328382 ], [ 7.864175805259889, 62.589211043946101 ], [ 7.862802126183188, 62.588419351007701 ], [ 7.860097640347826, 62.588280725543292 ], [ 7.858895800983294, 62.58758796156642 ], [ 7.858123116016958, 62.587548338336759 ], [ 7.85795143209183, 62.587449370357646 ], [ 7.856749432432568, 62.587568048733303 ], [ 7.855590412077174, 62.587508594534782 ], [ 7.854195232047671, 62.587617340777612 ], [ 7.853444054744054, 62.58748863096401 ], [ 7.85243520685603, 62.587617184569183 ], [ 7.85166253205584, 62.587577525669751 ], [ 7.851018504255907, 62.587814959191945 ], [ 7.849837977373614, 62.587844517340855 ], [ 7.848571387270333, 62.58823030419822 ], [ 7.847991873914482, 62.588200544264907 ], [ 7.846253873905079, 62.587299794353868 ], [ 7.846533121852461, 62.586953479798147 ], [ 7.846619203071556, 62.586597242594891 ], [ 7.84644756374205, 62.586498261056803 ], [ 7.846061245642747, 62.586478415811946 ], [ 7.844623607889197, 62.58595372962202 ], [ 7.843850989501346, 62.585914028195262 ], [ 7.842928280542075, 62.585686278240132 ], [ 7.841897920334561, 62.585903814434914 ], [ 7.840094929022649, 62.586081620596062 ], [ 7.839322314986306, 62.58604189412894 ], [ 7.837368470048754, 62.586843069325809 ], [ 7.836788997940805, 62.586813263385707 ], [ 7.836274180501504, 62.586516283201796 ], [ 7.835716268679435, 62.58639741563654 ], [ 7.834364194294094, 62.586327849042128 ], [ 7.833956330993115, 62.586397027325113 ], [ 7.833419990479356, 62.586189093912523 ] ] } }
]
}
