{
"type": "FeatureCollection",
"name": "kjovskarstinden_42_wgs84",
"crs": { "type": "name", "properties": { "name": "urn:ogc:def:crs:OGC:1.3:CRS84" } },
"features": [
{ "type": "Feature", "properties": { "cat": 1 }, "geometry": { "type": "LineString", "coordinates": [ [ 7.946860962063801, 62.61316614563907 ], [ 7.946752564764138, 62.612800045918547 ], [ 7.947266764446349, 62.612285147023243 ], [ 7.945738912469537, 62.611306285212855 ], [ 7.945866384241953, 62.610771815895255 ], [ 7.945585895301694, 62.610306849943619 ], [ 7.944725358077347, 62.609812518438495 ], [ 7.944789099660949, 62.609545284331084 ], [ 7.944444895313988, 62.609347550540456 ], [ 7.944529885478044, 62.608991238578945 ], [ 7.94401359262621, 62.608694636797068 ], [ 7.944119833471118, 62.608249247205414 ], [ 7.943431467492755, 62.607853776041026 ], [ 7.943495215377745, 62.607586542605624 ], [ 7.943021457128478, 62.60711178199125 ], [ 7.943019373359718, 62.606300291486974 ], [ 7.942352316999014, 62.605815738053771 ], [ 7.942777306040818, 62.604034184562124 ], [ 7.941228761745274, 62.603144358477671 ], [ 7.941271265135614, 62.60296620358698 ], [ 7.9399373752945, 62.601997079779068 ], [ 7.940086154426688, 62.601373539208261 ], [ 7.938881891571483, 62.600681432644066 ], [ 7.938945660827746, 62.600414201561655 ], [ 7.936537320579221, 62.599029960819863 ], [ 7.935184374738008, 62.59896136040738 ], [ 7.934154181539933, 62.599179580542192 ], [ 7.931641573791086, 62.599052126473971 ], [ 7.931427019799961, 62.599131396058738 ], [ 7.921784656361787, 62.598551680394976 ], [ 7.919013518765222, 62.597869919508263 ], [ 7.918240465486525, 62.59783062452577 ], [ 7.917359425844237, 62.597425208221154 ], [ 7.915877317694483, 62.597079378192113 ], [ 7.914331265065472, 62.597000749898235 ], [ 7.91379415448198, 62.596793115455498 ], [ 7.912655962124015, 62.596645056722572 ], [ 7.912312121450775, 62.596447248546809 ], [ 7.911152614723663, 62.596388249730225 ], [ 7.910271716447753, 62.595982790551332 ], [ 7.906642734102247, 62.595617733691519 ], [ 7.905375440249976, 62.595192564106533 ], [ 7.904602479435272, 62.595153194770802 ], [ 7.904258710417985, 62.594955367704372 ], [ 7.898461621204479, 62.594659948401457 ], [ 7.898117899629054, 62.594462106837192 ], [ 7.886524199141623, 62.593870523115669 ], [ 7.88551526062446, 62.593999314862927 ], [ 7.884742364218694, 62.593959836310916 ], [ 7.884098449743582, 62.594197424156235 ], [ 7.870573050628656, 62.593505797447669 ], [ 7.870358380525107, 62.593584971480553 ], [ 7.861878528248647, 62.593060492599321 ], [ 7.861706800757624, 62.592961528655252 ], [ 7.860933971480041, 62.592921919045139 ], [ 7.860504589214054, 62.593080236527179 ], [ 7.856254051306102, 62.592862294325698 ], [ 7.855502732950558, 62.59273359368963 ], [ 7.855288029819047, 62.592812744069676 ], [ 7.853334492264862, 62.592802684171943 ], [ 7.852475648563583, 62.593119269928451 ], [ 7.846872772743675, 62.592831634105032 ], [ 7.846164553039147, 62.592524765243596 ], [ 7.844232578328794, 62.592425519158517 ], [ 7.843524396235627, 62.592118637398087 ], [ 7.842944813552683, 62.592088855540801 ], [ 7.842601499919764, 62.591890882732358 ], [ 7.840669581462356, 62.591791588041339 ], [ 7.839811353074939, 62.591296641187455 ], [ 7.839424978294216, 62.591276776779843 ], [ 7.839489615165334, 62.591009603214658 ], [ 7.839189429383691, 62.590633506775646 ], [ 7.837172184852146, 62.590078943543162 ], [ 7.836657308893269, 62.589781963979078 ], [ 7.836378724081434, 62.589316804817258 ], [ 7.835177411485524, 62.58862384358553 ], [ 7.834447856272346, 62.588405975265268 ], [ 7.833782991512723, 62.587920932936782 ], [ 7.833869228919776, 62.587564705744001 ], [ 7.833011234489111, 62.587069720217322 ], [ 7.833205279101819, 62.586268210172896 ], [ 7.833419990479356, 62.586189093912523 ] ] } }
]
}
