{
"type": "FeatureCollection",
"name": "kjovskarstinden_10_wgs84",
"crs": { "type": "name", "properties": { "name": "urn:ogc:def:crs:OGC:1.3:CRS84" } },
"features": [
{ "type": "Feature", "properties": { "cat": 1 }, "geometry": { "type": "LineString", "coordinates": [ [ 7.946860962063801, 62.61316614563907 ], [ 7.946752564764138, 62.612800045918547 ], [ 7.947717225072281, 62.612037481734752 ], [ 7.946512362196467, 62.611345433071463 ], [ 7.946189370157081, 62.611058624816529 ], [ 7.946295589123451, 62.610613233282329 ], [ 7.945112062373559, 62.609832095438058 ], [ 7.945175800534355, 62.609564861108112 ], [ 7.94455113265796, 62.608902160575475 ], [ 7.944485270188784, 62.608357903607391 ], [ 7.943796896787942, 62.607962434147083 ], [ 7.943709800899293, 62.607507254883252 ], [ 7.943365626732461, 62.6073095188314 ], [ 7.943471871003741, 62.606864129774777 ], [ 7.942201494694054, 62.605627791046629 ], [ 7.94239067909599, 62.604014602127272 ], [ 7.94118625777717, 62.603322513347422 ], [ 7.941271265135614, 62.60296620358698 ], [ 7.940583056281106, 62.602570720459838 ], [ 7.940666040668877, 62.601402921314033 ], [ 7.939289727675098, 62.600611947087899 ], [ 7.939332238087988, 62.600433792879301 ], [ 7.936063803320392, 62.598555179784753 ], [ 7.934904154722422, 62.598496376556142 ], [ 7.934475070644318, 62.598654925755866 ], [ 7.933895245743856, 62.598625518733449 ], [ 7.932843782425158, 62.598932805266564 ], [ 7.931490851818175, 62.598864169227213 ], [ 7.931061744703491, 62.599022707614701 ], [ 7.921226156955842, 62.598433147211843 ], [ 7.920882237785906, 62.598235359113787 ], [ 7.920130482405109, 62.598107000887282 ], [ 7.916265199013584, 62.597910513851232 ], [ 7.916093258715198, 62.597811614050833 ], [ 7.915126950494927, 62.597762474530917 ], [ 7.91439656104898, 62.597545013469826 ], [ 7.912290789019405, 62.596536320490188 ], [ 7.910551525758279, 62.596447818341041 ], [ 7.910379613138278, 62.596348911868702 ], [ 7.903809193347442, 62.596014368306335 ], [ 7.902928409222389, 62.59560886428131 ], [ 7.901790321850534, 62.5954607182804 ], [ 7.900243468113766, 62.594570460054157 ], [ 7.899084064944248, 62.594511362286731 ], [ 7.897215864988486, 62.594145637605713 ], [ 7.890066444612327, 62.593780895713046 ], [ 7.888756674702798, 62.593533714724977 ], [ 7.874651802842433, 62.592812891318118 ], [ 7.874437148363377, 62.592892071842662 ], [ 7.873664299396245, 62.592852532527871 ], [ 7.872827110893401, 62.593080181984767 ], [ 7.868361788020015, 62.592941784841472 ], [ 7.868147116408993, 62.59302095544961 ], [ 7.865613920476264, 62.592981387073507 ], [ 7.865399241505494, 62.593060553350931 ], [ 7.856297044858164, 62.592684172094714 ], [ 7.853119783047371, 62.592881831130292 ], [ 7.848461421935549, 62.592732885065573 ], [ 7.846658046702188, 62.592910770883371 ], [ 7.845906772097301, 62.592782019134773 ], [ 7.845112444038803, 62.592831381315882 ], [ 7.842600859675299, 62.592702336997625 ], [ 7.840347128826998, 62.592316005290236 ], [ 7.839510437411572, 62.591731998472881 ], [ 7.838008021031803, 62.591474415710906 ], [ 7.836741924959898, 62.591048638845471 ], [ 7.835712159681317, 62.590454674456936 ], [ 7.835755271789902, 62.590276560181955 ], [ 7.836614203094061, 62.589960078619249 ], [ 7.836571897382275, 62.589326741183925 ], [ 7.833182831099522, 62.587168717714107 ], [ 7.833333752754776, 62.58654532082442 ], [ 7.833162159101748, 62.586446323553581 ], [ 7.833419990479356, 62.586189093912523 ] ] } }
]
}
