{
"type": "FeatureCollection",
"name": "kjovskarstinden_48_wgs84",
"crs": { "type": "name", "properties": { "name": "urn:ogc:def:crs:OGC:1.3:CRS84" } },
"features": [
{ "type": "Feature", "properties": { "cat": 1 }, "geometry": { "type": "LineString", "coordinates": [ [ 7.946860962063801, 62.61316614563907 ], [ 7.946752564764138, 62.612800045918547 ], [ 7.947266764446349, 62.612285147023243 ], [ 7.948125200062134, 62.611967972209591 ], [ 7.948101746057897, 62.611245558708816 ], [ 7.94853094643186, 62.611086969158727 ], [ 7.948615893930648, 62.610730654141179 ], [ 7.951405547933463, 62.609699786187001 ], [ 7.951448002230433, 62.609521627547444 ], [ 7.952112961653305, 62.609194646944786 ], [ 7.953829531426837, 62.608560228348104 ], [ 7.954322314516414, 62.608134380582769 ], [ 7.954727818124339, 62.607253356236868 ], [ 7.956015125545571, 62.606777518526201 ], [ 7.957151471496606, 62.606113736233418 ], [ 7.957384737904869, 62.605133850804144 ], [ 7.956007801454563, 62.604343033248881 ], [ 7.955427838660854, 62.60431371390581 ], [ 7.954739406383312, 62.60391829764815 ], [ 7.950099819342914, 62.603683634737848 ], [ 7.948034837761859, 62.602497301103199 ], [ 7.948098529710126, 62.602230064804516 ], [ 7.947238175571236, 62.601735751225107 ], [ 7.947365568347055, 62.601201279441845 ], [ 7.946870610113212, 62.600815610949333 ], [ 7.946934307952371, 62.60054837525805 ], [ 7.946590189635895, 62.600350647901401 ], [ 7.947142205317324, 62.598034604929474 ], [ 7.945228523591595, 62.597036177778499 ], [ 7.943317079165476, 62.596849216981305 ], [ 7.941533130423595, 62.596127764892962 ], [ 7.940609318203338, 62.595900646854837 ], [ 7.93906324400781, 62.595822292467439 ], [ 7.937687224387419, 62.595031306336558 ], [ 7.936914213610727, 62.594992115440718 ], [ 7.935710276269342, 62.59429998583375 ], [ 7.922591085867952, 62.593543906926747 ], [ 7.922419148373722, 62.593445014961297 ], [ 7.921066497888894, 62.593376281562577 ], [ 7.919820389388883, 62.592862167989217 ], [ 7.915010970028932, 62.592527470847706 ], [ 7.913571781386622, 62.592003475010493 ], [ 7.913185335237896, 62.591983814056903 ], [ 7.910628336657111, 62.590411176526239 ], [ 7.909898159319839, 62.590193694756856 ], [ 7.89618062012825, 62.589494731177012 ], [ 7.894463992106459, 62.590128439477034 ], [ 7.894077586358557, 62.590108726111964 ], [ 7.892596857225715, 62.590574130281112 ], [ 7.885233759541861, 62.590288361945561 ], [ 7.884589930451027, 62.590525953220748 ], [ 7.883237523893894, 62.59045685616308 ], [ 7.883022908952516, 62.590536050441301 ], [ 7.853486385245331, 62.588933426631101 ], [ 7.852455983159834, 62.589151040289764 ], [ 7.846853854797714, 62.588863413859634 ], [ 7.845480664572869, 62.588071556923936 ], [ 7.845094326866864, 62.588051708732571 ], [ 7.844386237114001, 62.587744832602866 ], [ 7.84361357262403, 62.587705129232418 ], [ 7.843098670329638, 62.587408173097302 ], [ 7.842519179934587, 62.587378390727366 ], [ 7.841124637929719, 62.586675551851037 ], [ 7.840158849293789, 62.586625899944359 ], [ 7.839472386441869, 62.586229941996621 ], [ 7.834836720568215, 62.585991498510346 ], [ 7.834407306881844, 62.586149735188435 ], [ 7.833634700719128, 62.586109977305853 ], [ 7.833419990479356, 62.586189093912523 ] ] } }
]
}
