{
"type": "FeatureCollection",
"name": "kjovskarstinden_21_wgs84",
"crs": { "type": "name", "properties": { "name": "urn:ogc:def:crs:OGC:1.3:CRS84" } },
"features": [
{ "type": "Feature", "properties": { "cat": 1 }, "geometry": { "type": "LineString", "coordinates": [ [ 7.946860962063801, 62.61316614563907 ], [ 7.946752564764138, 62.612800045918547 ], [ 7.947460133666954, 62.612294932363127 ], [ 7.947545098380887, 62.611938618231449 ], [ 7.947049967249536, 62.611552948088175 ], [ 7.947113692670815, 62.611285712705531 ], [ 7.946425217828172, 62.610890254864721 ], [ 7.946531432497732, 62.610444863092837 ], [ 7.944487390684897, 62.609169394570159 ], [ 7.94401359262621, 62.608694636797068 ], [ 7.944119833471118, 62.608249247205414 ], [ 7.943431467492755, 62.607853776041026 ], [ 7.943495215377745, 62.607586542605624 ], [ 7.943172291646625, 62.607299728273617 ], [ 7.943278538769637, 62.606854339402474 ], [ 7.942762294607441, 62.606557733637857 ], [ 7.942696467530817, 62.606013476290933 ], [ 7.942352316999014, 62.605815738053771 ], [ 7.942734809736378, 62.604212340005446 ], [ 7.941723682279174, 62.603530046478731 ], [ 7.941766183403987, 62.603351891407335 ], [ 7.941120463115765, 62.602778255679389 ], [ 7.941205469288286, 62.602421945941764 ], [ 7.940710573202345, 62.602036256427056 ], [ 7.94083808492376, 62.601501792205887 ], [ 7.939289727675098, 62.600611947087899 ], [ 7.939332238087988, 62.600433792879301 ], [ 7.938321313876602, 62.599751477398698 ], [ 7.936257078592474, 62.598564979392165 ], [ 7.935870528192805, 62.598545379911442 ], [ 7.935526507795308, 62.598347626571588 ], [ 7.933400506647402, 62.598239805381539 ], [ 7.932841963661892, 62.598121318132577 ], [ 7.932153978255116, 62.597725796406195 ], [ 7.931574174379653, 62.59769638001611 ], [ 7.930886215782469, 62.597300852394874 ], [ 7.930499686303974, 62.597281238308646 ], [ 7.929467791172726, 62.596687938226573 ], [ 7.923283535375289, 62.596373924289196 ], [ 7.922037264497409, 62.595859828350797 ], [ 7.917613826741611, 62.595544851161925 ], [ 7.912800170241883, 62.592775632180768 ], [ 7.912413714710512, 62.592755968962145 ], [ 7.911511572395792, 62.592439590759994 ], [ 7.91073867280503, 62.592400256263538 ], [ 7.910394892641001, 62.592202444171832 ], [ 7.908849111848391, 62.592123758763094 ], [ 7.907990859490384, 62.592440694367568 ], [ 7.9021942132304, 62.592145436209698 ], [ 7.901979634559378, 62.592224660154606 ], [ 7.900433880880015, 62.59214588181986 ], [ 7.900219297675109, 62.592225102994448 ], [ 7.894422791394426, 62.591929523645909 ], [ 7.894208194322729, 62.59200873538181 ], [ 7.892447876392223, 62.592009080363319 ], [ 7.891396242580312, 62.592316052057384 ], [ 7.885793041586862, 62.592029975865849 ], [ 7.884783648359157, 62.591347293164112 ], [ 7.883431203896968, 62.591278197472121 ], [ 7.883259412738632, 62.591179259214108 ], [ 7.872246956889366, 62.590616125117108 ], [ 7.871559966637102, 62.590220318062535 ], [ 7.867502925399422, 62.590012610788961 ], [ 7.865935934539197, 62.589211053344322 ], [ 7.865549564743098, 62.589191261404146 ], [ 7.862437333371318, 62.587499026368484 ], [ 7.861643168882288, 62.587548484948663 ], [ 7.858166088636152, 62.587370215241386 ], [ 7.856749432432568, 62.587568048733303 ], [ 7.855590412077174, 62.587508594534782 ], [ 7.854195232047671, 62.587617340777612 ], [ 7.852649878821251, 62.587538038156765 ], [ 7.851855700536798, 62.587587440793115 ], [ 7.851211674005778, 62.58782487522496 ], [ 7.850031146815983, 62.587854435005468 ], [ 7.848571387270333, 62.58823030419822 ], [ 7.847433880883938, 62.588081722491765 ], [ 7.847133620523121, 62.587705642140918 ], [ 7.846232352081246, 62.587388853582418 ], [ 7.846619203071556, 62.586597242594891 ], [ 7.844816762851638, 62.58596365431459 ], [ 7.842520444530479, 62.585755481951701 ], [ 7.840094929022649, 62.586081620596062 ], [ 7.839322314986306, 62.58604189412894 ], [ 7.837691672432946, 62.585507206193711 ], [ 7.836189584938909, 62.585249608314456 ], [ 7.833419990479356, 62.586189093912523 ] ] } }
]
}
