{
"type": "FeatureCollection",
"name": "path_smooth_kjovskarstinden",
"crs": { "type": "name", "properties": { "name": "urn:ogc:def:crs:EPSG::25833" } },
"features": [
{ "type": "Feature", "properties": { "cat": 1 }, "geometry": { "type": "LineString", "coordinates": [ [ 138545.0, 6962275.0 ], [ 138545.0, 6962215.0 ], [ 138585.0, 6962145.0 ], [ 138585.0, 6962065.0 ], [ 138565.0, 6962045.0 ], [ 138565.0, 6962025.0 ], [ 138385.0, 6961845.0 ], [ 138345.0, 6961785.0 ], [ 138345.0, 6961745.0 ], [ 138315.0, 6961705.0 ], [ 138315.0, 6961675.0 ], [ 138295.0, 6961655.0 ], [ 138255.0, 6961515.0 ], [ 138225.0, 6961485.0 ], [ 138225.0, 6961285.0 ], [ 138165.0, 6961225.0 ], [ 138165.0, 6961175.0 ], [ 138145.0, 6961155.0 ], [ 138145.0, 6961135.0 ], [ 138085.0, 6961075.0 ], [ 138085.0, 6961015.0 ], [ 138015.0, 6960945.0 ], [ 138015.0, 6960915.0 ], [ 137795.0, 6960705.0 ], [ 137605.0, 6960715.0 ], [ 137575.0, 6960735.0 ], [ 136835.0, 6960735.0 ], [ 136795.0, 6960715.0 ], [ 136745.0, 6960715.0 ], [ 136735.0, 6960705.0 ], [ 136445.0, 6960705.0 ], [ 136435.0, 6960695.0 ], [ 136345.0, 6960685.0 ], [ 136305.0, 6960645.0 ], [ 136215.0, 6960645.0 ], [ 136165.0, 6960605.0 ], [ 135895.0, 6960595.0 ], [ 135875.0, 6960575.0 ], [ 135795.0, 6960565.0 ], [ 135765.0, 6960535.0 ], [ 135505.0, 6960515.0 ], [ 135485.0, 6960495.0 ], [ 135205.0, 6960485.0 ], [ 135195.0, 6960475.0 ], [ 134525.0, 6960475.0 ], [ 134515.0, 6960465.0 ], [ 134435.0, 6960465.0 ], [ 134425.0, 6960475.0 ], [ 134335.0, 6960475.0 ], [ 134325.0, 6960485.0 ], [ 134255.0, 6960485.0 ], [ 134175.0, 6960505.0 ], [ 133875.0, 6960515.0 ], [ 133865.0, 6960525.0 ], [ 133635.0, 6960525.0 ], [ 133495.0, 6960565.0 ], [ 133305.0, 6960565.0 ], [ 133195.0, 6960595.0 ], [ 133045.0, 6960585.0 ], [ 133025.0, 6960605.0 ], [ 133005.0, 6960605.0 ], [ 132995.0, 6960595.0 ], [ 132855.0, 6960575.0 ], [ 132815.0, 6960515.0 ], [ 132725.0, 6960495.0 ], [ 132575.0, 6960395.0 ], [ 132585.0, 6960365.0 ], [ 132615.0, 6960345.0 ], [ 132615.0, 6960285.0 ], [ 132605.0, 6960255.0 ], [ 132445.0, 6960105.0 ], [ 132435.0, 6960085.0 ], [ 132425.0, 6959925.0 ] ] } }
]
}
