{
"type": "FeatureCollection",
"name": "path_smooth_kyrkjetaket",
"crs": { "type": "name", "properties": { "name": "urn:ogc:def:crs:EPSG::25833" } },
"features": [
{ "type": "Feature", "properties": { "cat": 1 }, "geometry": { "type": "LineString", "coordinates": [ [ 136485.0, 6962325.0 ], [ 136465.0, 6962295.0 ], [ 136375.0, 6962265.0 ], [ 136325.0, 6962235.0 ], [ 136175.0, 6962075.0 ], [ 136175.0, 6962055.0 ], [ 136155.0, 6962035.0 ], [ 136155.0, 6961975.0 ], [ 136065.0, 6961885.0 ], [ 136035.0, 6961765.0 ], [ 135925.0, 6961595.0 ], [ 135595.0, 6961275.0 ], [ 135565.0, 6961275.0 ], [ 135485.0, 6961205.0 ], [ 135255.0, 6961185.0 ], [ 135245.0, 6961175.0 ], [ 135105.0, 6961175.0 ], [ 135095.0, 6961185.0 ], [ 134995.0, 6961185.0 ], [ 134985.0, 6961195.0 ], [ 134885.0, 6961195.0 ], [ 134875.0, 6961205.0 ], [ 134735.0, 6961205.0 ], [ 134695.0, 6961225.0 ], [ 134525.0, 6961225.0 ], [ 134515.0, 6961235.0 ], [ 134075.0, 6961225.0 ], [ 134065.0, 6961215.0 ], [ 133835.0, 6961215.0 ], [ 133785.0, 6961235.0 ], [ 133415.0, 6961235.0 ], [ 133405.0, 6961245.0 ], [ 133355.0, 6961245.0 ], [ 133285.0, 6961335.0 ], [ 133205.0, 6961335.0 ], [ 133185.0, 6961355.0 ], [ 133135.0, 6961355.0 ], [ 133085.0, 6961375.0 ], [ 132845.0, 6961355.0 ], [ 132805.0, 6961325.0 ], [ 132755.0, 6961315.0 ], [ 132675.0, 6961245.0 ], [ 132675.0, 6961015.0 ], [ 132715.0, 6960945.0 ], [ 132645.0, 6960915.0 ], [ 132515.0, 6960915.0 ], [ 132495.0, 6960895.0 ], [ 132485.0, 6960795.0 ], [ 132445.0, 6960755.0 ], [ 132445.0, 6960665.0 ], [ 132535.0, 6960555.0 ], [ 132535.0, 6960495.0 ], [ 132575.0, 6960435.0 ], [ 132585.0, 6960365.0 ], [ 132615.0, 6960345.0 ], [ 132615.0, 6960285.0 ], [ 132605.0, 6960255.0 ], [ 132445.0, 6960105.0 ], [ 132435.0, 6960085.0 ], [ 132425.0, 6959925.0 ] ] } }
]
}
