{
"type": "FeatureCollection",
"name": "path_smooth_loftskarstinden",
"crs": { "type": "name", "properties": { "name": "urn:ogc:def:crs:EPSG::25833" } },
"features": [
{ "type": "Feature", "properties": { "cat": 1 }, "geometry": { "type": "LineString", "coordinates": [ [ 132355.0, 6963825.0 ], [ 132225.0, 6963655.0 ], [ 132215.0, 6963535.0 ], [ 132165.0, 6963475.0 ], [ 132165.0, 6963445.0 ], [ 132145.0, 6963415.0 ], [ 132145.0, 6963375.0 ], [ 132095.0, 6963295.0 ], [ 132095.0, 6963265.0 ], [ 132065.0, 6963215.0 ], [ 132015.0, 6963075.0 ], [ 131985.0, 6963045.0 ], [ 131945.0, 6962955.0 ], [ 131915.0, 6962925.0 ], [ 131915.0, 6962705.0 ], [ 132015.0, 6962585.0 ], [ 132155.0, 6962455.0 ], [ 132215.0, 6962455.0 ], [ 132275.0, 6962535.0 ], [ 132565.0, 6962535.0 ], [ 132685.0, 6962415.0 ], [ 132675.0, 6962115.0 ], [ 132735.0, 6962055.0 ], [ 132735.0, 6962025.0 ], [ 132755.0, 6962005.0 ], [ 132755.0, 6961935.0 ], [ 132785.0, 6961905.0 ], [ 132805.0, 6961905.0 ], [ 132815.0, 6961885.0 ], [ 132815.0, 6961725.0 ], [ 132805.0, 6961715.0 ], [ 132805.0, 6961675.0 ], [ 132745.0, 6961625.0 ], [ 132735.0, 6961585.0 ], [ 132665.0, 6961485.0 ], [ 132645.0, 6961415.0 ], [ 132645.0, 6961365.0 ], [ 132675.0, 6961305.0 ], [ 132675.0, 6961015.0 ], [ 132715.0, 6960945.0 ], [ 132645.0, 6960915.0 ], [ 132515.0, 6960915.0 ], [ 132495.0, 6960895.0 ], [ 132485.0, 6960795.0 ], [ 132445.0, 6960755.0 ], [ 132445.0, 6960665.0 ], [ 132535.0, 6960555.0 ], [ 132535.0, 6960495.0 ], [ 132575.0, 6960435.0 ], [ 132585.0, 6960365.0 ], [ 132615.0, 6960345.0 ], [ 132615.0, 6960285.0 ], [ 132605.0, 6960255.0 ], [ 132445.0, 6960105.0 ], [ 132435.0, 6960085.0 ], [ 132425.0, 6959925.0 ] ] } }
]
}
