{
"type": "FeatureCollection",
"name": "path_smooth_run_5c4fce58_3bd5_4465_8f49_1744af72f60f",
"crs": { "type": "name", "properties": { "name": "urn:ogc:def:crs:EPSG::25833" } },
"features": [
{ "type": "Feature", "properties": { "cat": 1 }, "geometry": { "type": "LineString", "coordinates": [ [ 132700.0, 6964170.0 ], [ 132760.0, 6964120.0 ], [ 132760.0, 6964090.0 ], [ 132810.0, 6964040.0 ], [ 132800.0, 6963860.0 ], [ 132850.0, 6963800.0 ], [ 132850.0, 6963770.0 ], [ 132880.0, 6963740.0 ], [ 132890.0, 6963510.0 ], [ 132970.0, 6963410.0 ], [ 132970.0, 6963290.0 ], [ 132990.0, 6963260.0 ], [ 132990.0, 6963000.0 ], [ 132970.0, 6962980.0 ], [ 132980.0, 6962450.0 ], [ 132960.0, 6962420.0 ], [ 132960.0, 6962200.0 ], [ 132940.0, 6962110.0 ], [ 132940.0, 6961990.0 ], [ 132860.0, 6961900.0 ], [ 132850.0, 6961860.0 ], [ 132820.0, 6961830.0 ], [ 132810.0, 6961680.0 ], [ 132780.0, 6961650.0 ], [ 132750.0, 6961640.0 ], [ 132720.0, 6961560.0 ], [ 132650.0, 6961450.0 ], [ 132650.0, 6961360.0 ], [ 132680.0, 6961290.0 ], [ 132670.0, 6961260.0 ], [ 132670.0, 6961190.0 ], [ 132680.0, 6961180.0 ], [ 132670.0, 6961040.0 ], [ 132710.0, 6960980.0 ], [ 132700.0, 6960900.0 ], [ 132780.0, 6960820.0 ], [ 132780.0, 6960790.0 ], [ 132810.0, 6960760.0 ], [ 132810.0, 6960730.0 ], [ 132870.0, 6960660.0 ], [ 132910.0, 6960590.0 ], [ 133030.0, 6960600.0 ], [ 133060.0, 6960580.0 ], [ 133100.0, 6960580.0 ], [ 133180.0, 6960600.0 ], [ 133270.0, 6960570.0 ], [ 133510.0, 6960560.0 ], [ 133560.0, 6960540.0 ], [ 133620.0, 6960540.0 ], [ 133640.0, 6960560.0 ], [ 133640.0, 6960740.0 ], [ 133670.0, 6960780.0 ], [ 133670.0, 6960810.0 ] ] } }
]
}
