{
"type": "FeatureCollection",
"name": "path_smooth_run_29213c80_7325_4364_9093_a2aec1e24243",
"crs": { "type": "name", "properties": { "name": "urn:ogc:def:crs:EPSG::25833" } },
"features": [
{ "type": "Feature", "properties": { "cat": 1 }, "geometry": { "type": "LineString", "coordinates": [ [ 135200.0, 6959820.0 ], [ 135110.0, 6959810.0 ], [ 135000.0, 6959840.0 ], [ 134410.0, 6959820.0 ], [ 134320.0, 6959830.0 ], [ 134260.0, 6959870.0 ], [ 134130.0, 6959860.0 ], [ 134110.0, 6959880.0 ], [ 134090.0, 6959860.0 ], [ 134080.0, 6959870.0 ], [ 134050.0, 6959860.0 ], [ 133950.0, 6959910.0 ], [ 133700.0, 6959920.0 ], [ 133640.0, 6959950.0 ], [ 133570.0, 6959950.0 ], [ 133500.0, 6959970.0 ], [ 133460.0, 6959960.0 ], [ 133380.0, 6959980.0 ], [ 133350.0, 6960010.0 ], [ 133290.0, 6960020.0 ], [ 133220.0, 6960070.0 ], [ 133170.0, 6960060.0 ], [ 133090.0, 6959980.0 ], [ 133100.0, 6959940.0 ], [ 133090.0, 6959890.0 ], [ 133070.0, 6959890.0 ], [ 133000.0, 6959840.0 ], [ 132950.0, 6959840.0 ], [ 132900.0, 6959820.0 ], [ 132850.0, 6959850.0 ], [ 132730.0, 6959880.0 ], [ 132610.0, 6960000.0 ], [ 132570.0, 6960010.0 ] ] } }
]
}
