{
"type": "FeatureCollection",
"name": "path_smooth_run_1f3c8cd5_77d4_47f5_80d6_3698501c2717",
"crs": { "type": "name", "properties": { "name": "urn:ogc:def:crs:EPSG::25833" } },
"features": [
{ "type": "Feature", "properties": { "cat": 1 }, "geometry": { "type": "LineString", "coordinates": [ [ 135200.0, 6959820.0 ], [ 135110.0, 6959810.0 ], [ 135000.0, 6959840.0 ], [ 134410.0, 6959820.0 ], [ 134320.0, 6959830.0 ], [ 134260.0, 6959870.0 ], [ 134130.0, 6959860.0 ], [ 134110.0, 6959880.0 ], [ 134050.0, 6959860.0 ], [ 133950.0, 6959910.0 ], [ 133700.0, 6959920.0 ], [ 133640.0, 6959950.0 ], [ 133380.0, 6959980.0 ], [ 133220.0, 6960070.0 ], [ 133170.0, 6960060.0 ], [ 133090.0, 6959980.0 ], [ 133090.0, 6959890.0 ], [ 132900.0, 6959820.0 ], [ 132730.0, 6959880.0 ], [ 132610.0, 6960000.0 ], [ 132570.0, 6960010.0 ] ] } }
]
}
