{
"type": "FeatureCollection",
"name": "path_smooth_run_5794df2f_c374_4f74_b45b_7f318ed78d18",
"crs": { "type": "name", "properties": { "name": "urn:ogc:def:crs:EPSG::25833" } },
"features": [
{ "type": "Feature", "properties": { "cat": 1 }, "geometry": { "type": "LineString", "coordinates": [ [ 132700.0, 6964170.0 ], [ 132760.0, 6964120.0 ], [ 132760.0, 6964090.0 ], [ 132810.0, 6964040.0 ], [ 132800.0, 6963860.0 ], [ 132850.0, 6963800.0 ], [ 132850.0, 6963770.0 ], [ 132880.0, 6963740.0 ], [ 132890.0, 6963510.0 ], [ 132970.0, 6963410.0 ], [ 132970.0, 6963290.0 ], [ 132990.0, 6963260.0 ], [ 132990.0, 6963000.0 ], [ 132970.0, 6962980.0 ], [ 132980.0, 6962450.0 ], [ 132960.0, 6962420.0 ], [ 132960.0, 6962200.0 ], [ 132940.0, 6962110.0 ], [ 132940.0, 6961990.0 ], [ 132860.0, 6961900.0 ], [ 132850.0, 6961860.0 ], [ 132820.0, 6961830.0 ], [ 132810.0, 6961680.0 ], [ 132780.0, 6961650.0 ], [ 132750.0, 6961640.0 ], [ 132720.0, 6961560.0 ], [ 132650.0, 6961450.0 ], [ 132650.0, 6961360.0 ], [ 132680.0, 6961290.0 ], [ 132670.0, 6961260.0 ], [ 132670.0, 6961190.0 ], [ 132680.0, 6961180.0 ], [ 132670.0, 6961040.0 ], [ 132710.0, 6960980.0 ], [ 132710.0, 6960940.0 ], [ 132660.0, 6960930.0 ], [ 132640.0, 6960910.0 ], [ 132520.0, 6960920.0 ], [ 132470.0, 6960850.0 ], [ 132340.0, 6960810.0 ], [ 132290.0, 6960760.0 ], [ 132270.0, 6960760.0 ], [ 132230.0, 6960730.0 ], [ 132140.0, 6960710.0 ], [ 132090.0, 6960670.0 ], [ 132000.0, 6960760.0 ], [ 132010.0, 6960790.0 ], [ 131990.0, 6960810.0 ], [ 131960.0, 6960810.0 ], [ 131870.0, 6960870.0 ], [ 131870.0, 6960890.0 ], [ 131910.0, 6960930.0 ], [ 131960.0, 6960950.0 ], [ 131960.0, 6960980.0 ], [ 131930.0, 6961010.0 ], [ 131920.0, 6961040.0 ] ] } }
]
}
