{
"type": "FeatureCollection",
"name": "path_smooth_run_8e603586_262a_40ae_8ab2_4372193eace0",
"crs": { "type": "name", "properties": { "name": "urn:ogc:def:crs:EPSG::25833" } },
"features": [
{ "type": "Feature", "properties": { "cat": 1 }, "geometry": { "type": "LineString", "coordinates": [ [ 136470.0, 6962360.0 ], [ 136480.0, 6962330.0 ], [ 136470.0, 6962300.0 ], [ 136320.0, 6962230.0 ], [ 136170.0, 6962070.0 ], [ 136160.0, 6961980.0 ], [ 136070.0, 6961890.0 ], [ 136070.0, 6961860.0 ], [ 136040.0, 6961810.0 ], [ 136030.0, 6961750.0 ], [ 135930.0, 6961600.0 ], [ 135610.0, 6961280.0 ], [ 135570.0, 6961270.0 ], [ 135500.0, 6961210.0 ], [ 135410.0, 6961210.0 ], [ 135380.0, 6961190.0 ], [ 135330.0, 6961190.0 ], [ 135320.0, 6961180.0 ], [ 135100.0, 6961180.0 ], [ 135090.0, 6961190.0 ], [ 134740.0, 6961200.0 ], [ 134670.0, 6961230.0 ], [ 134250.0, 6961230.0 ], [ 134240.0, 6961220.0 ], [ 134080.0, 6961230.0 ], [ 134050.0, 6961210.0 ], [ 133930.0, 6961210.0 ], [ 133920.0, 6961220.0 ], [ 133770.0, 6961220.0 ], [ 133680.0, 6961240.0 ], [ 133470.0, 6961240.0 ], [ 133450.0, 6961260.0 ] ] } }
]
}
