{
"type": "FeatureCollection",
"name": "path_smooth_run_278b85d4_2b81_4bf1_a853_092f6885bc31",
"crs": { "type": "name", "properties": { "name": "urn:ogc:def:crs:EPSG::25833" } },
"features": [
{ "type": "Feature", "properties": { "cat": 1 }, "geometry": { "type": "LineString", "coordinates": [ [ 134370.0, 6962940.0 ], [ 134370.0, 6962910.0 ], [ 134330.0, 6962870.0 ], [ 134330.0, 6962840.0 ], [ 134360.0, 6962800.0 ], [ 134270.0, 6962710.0 ], [ 134180.0, 6962710.0 ], [ 134150.0, 6962700.0 ], [ 134090.0, 6962650.0 ], [ 133920.0, 6962480.0 ], [ 133920.0, 6962450.0 ], [ 133890.0, 6962410.0 ], [ 133890.0, 6962390.0 ], [ 133760.0, 6962260.0 ], [ 133720.0, 6962250.0 ], [ 133640.0, 6962170.0 ], [ 133540.0, 6962160.0 ], [ 133500.0, 6962130.0 ], [ 133450.0, 6962130.0 ], [ 133440.0, 6962120.0 ], [ 133320.0, 6962120.0 ], [ 132990.0, 6961790.0 ], [ 132800.0, 6961670.0 ], [ 132790.0, 6961630.0 ], [ 132880.0, 6961520.0 ] ] } }
]
}
