{
"type": "FeatureCollection",
"name": "path_smooth_run_70aea9ad_2a70_46bf_95ca_d49de65fa926",
"crs": { "type": "name", "properties": { "name": "urn:ogc:def:crs:EPSG::25833" } },
"features": [
{ "type": "Feature", "properties": { "cat": 1 }, "geometry": { "type": "LineString", "coordinates": [ [ 133690.0, 6962940.0 ], [ 133710.0, 6962950.0 ], [ 133770.0, 6962940.0 ], [ 133800.0, 6962920.0 ], [ 133880.0, 6962900.0 ], [ 133970.0, 6962840.0 ], [ 133970.0, 6962640.0 ], [ 133930.0, 6962600.0 ], [ 133930.0, 6962490.0 ], [ 133890.0, 6962390.0 ], [ 133760.0, 6962260.0 ], [ 133720.0, 6962250.0 ], [ 133640.0, 6962170.0 ], [ 133540.0, 6962160.0 ], [ 133500.0, 6962130.0 ], [ 133450.0, 6962130.0 ], [ 133440.0, 6962120.0 ], [ 133320.0, 6962120.0 ], [ 132990.0, 6961790.0 ], [ 132940.0, 6961750.0 ], [ 132920.0, 6961750.0 ], [ 132890.0, 6961720.0 ], [ 132840.0, 6961700.0 ], [ 132780.0, 6961650.0 ], [ 132760.0, 6961650.0 ], [ 132720.0, 6961560.0 ], [ 132660.0, 6961480.0 ], [ 132650.0, 6961360.0 ], [ 132680.0, 6961290.0 ], [ 132670.0, 6961260.0 ], [ 132670.0, 6961190.0 ], [ 132680.0, 6961180.0 ], [ 132670.0, 6961040.0 ], [ 132710.0, 6960980.0 ], [ 132700.0, 6960900.0 ], [ 132780.0, 6960820.0 ], [ 132780.0, 6960790.0 ], [ 132830.0, 6960740.0 ] ] } }
]
}
