{
"type": "FeatureCollection",
"name": "path_smooth_run_f2ccf729_080e_4be7_b2e1_8d579bba1681",
"crs": { "type": "name", "properties": { "name": "urn:ogc:def:crs:EPSG::25833" } },
"features": [
{ "type": "Feature", "properties": { "cat": 1 }, "geometry": { "type": "LineString", "coordinates": [ [ 134680.0, 6964870.0 ], [ 134630.0, 6964860.0 ], [ 134590.0, 6964820.0 ], [ 134560.0, 6964820.0 ], [ 134540.0, 6964800.0 ], [ 134420.0, 6964780.0 ], [ 134210.0, 6964570.0 ], [ 134160.0, 6964500.0 ], [ 134160.0, 6964410.0 ], [ 134110.0, 6964360.0 ], [ 134110.0, 6964290.0 ], [ 134070.0, 6964250.0 ], [ 134070.0, 6964050.0 ], [ 134060.0, 6964040.0 ], [ 134050.0, 6963920.0 ], [ 133950.0, 6963820.0 ], [ 133950.0, 6963690.0 ], [ 133930.0, 6963600.0 ], [ 133930.0, 6963380.0 ], [ 133900.0, 6963350.0 ], [ 133900.0, 6963310.0 ] ] } }
]
}
