{
"type": "FeatureCollection",
"name": "path_smooth_skarven",
"crs": { "type": "name", "properties": { "name": "urn:ogc:def:crs:EPSG::25833" } },
"features": [
{ "type": "Feature", "properties": { "cat": 1 }, "geometry": { "type": "LineString", "coordinates": [ [ 133715.0, 6962965.0 ], [ 133735.0, 6962945.0 ], [ 133905.0, 6962885.0 ], [ 133965.0, 6962835.0 ], [ 133965.0, 6962655.0 ], [ 133955.0, 6962625.0 ], [ 133925.0, 6962595.0 ], [ 133925.0, 6962455.0 ], [ 133875.0, 6962385.0 ], [ 133745.0, 6962255.0 ], [ 133715.0, 6962245.0 ], [ 133645.0, 6962175.0 ], [ 133585.0, 6962175.0 ], [ 133515.0, 6962125.0 ], [ 133475.0, 6962115.0 ], [ 133425.0, 6962065.0 ], [ 133345.0, 6962055.0 ], [ 133305.0, 6962015.0 ], [ 133195.0, 6962005.0 ], [ 132985.0, 6961795.0 ], [ 132935.0, 6961755.0 ], [ 132915.0, 6961755.0 ], [ 132885.0, 6961725.0 ], [ 132855.0, 6961715.0 ], [ 132825.0, 6961685.0 ], [ 132795.0, 6961675.0 ], [ 132745.0, 6961625.0 ], [ 132735.0, 6961585.0 ], [ 132665.0, 6961485.0 ], [ 132645.0, 6961415.0 ], [ 132645.0, 6961365.0 ], [ 132675.0, 6961305.0 ], [ 132675.0, 6961015.0 ], [ 132715.0, 6960945.0 ], [ 132645.0, 6960915.0 ], [ 132515.0, 6960915.0 ], [ 132495.0, 6960895.0 ], [ 132485.0, 6960795.0 ], [ 132445.0, 6960755.0 ], [ 132445.0, 6960665.0 ], [ 132535.0, 6960555.0 ], [ 132535.0, 6960495.0 ], [ 132575.0, 6960435.0 ], [ 132585.0, 6960365.0 ], [ 132615.0, 6960345.0 ], [ 132615.0, 6960285.0 ], [ 132605.0, 6960255.0 ], [ 132445.0, 6960105.0 ], [ 132435.0, 6960085.0 ], [ 132425.0, 6959925.0 ] ] } }
]
}
