{
"type": "FeatureCollection",
"name": "path_smooth_sore_klauva",
"crs": { "type": "name", "properties": { "name": "urn:ogc:def:crs:EPSG::25833" } },
"features": [
{ "type": "Feature", "properties": { "cat": 1 }, "geometry": { "type": "LineString", "coordinates": [ [ 135050.0, 6963000.0 ], [ 134950.0, 6962850.0 ], [ 134830.0, 6962740.0 ], [ 134700.0, 6962660.0 ], [ 134670.0, 6962660.0 ], [ 134640.0, 6962640.0 ], [ 134580.0, 6962640.0 ], [ 134500.0, 6962600.0 ], [ 134450.0, 6962600.0 ], [ 134440.0, 6962610.0 ], [ 134310.0, 6962600.0 ], [ 134270.0, 6962640.0 ], [ 134090.0, 6962640.0 ], [ 134070.0, 6962630.0 ], [ 133920.0, 6962480.0 ], [ 133920.0, 6962450.0 ], [ 133890.0, 6962410.0 ], [ 133890.0, 6962390.0 ], [ 133760.0, 6962260.0 ], [ 133720.0, 6962250.0 ], [ 133640.0, 6962170.0 ], [ 133540.0, 6962160.0 ], [ 133500.0, 6962130.0 ], [ 133450.0, 6962130.0 ], [ 133440.0, 6962120.0 ], [ 133320.0, 6962120.0 ], [ 132990.0, 6961790.0 ], [ 132750.0, 6961640.0 ], [ 132720.0, 6961560.0 ], [ 132660.0, 6961480.0 ], [ 132650.0, 6961450.0 ], [ 132650.0, 6961360.0 ], [ 132680.0, 6961290.0 ], [ 132670.0, 6961260.0 ], [ 132670.0, 6961190.0 ], [ 132680.0, 6961180.0 ], [ 132670.0, 6961040.0 ], [ 132710.0, 6960980.0 ], [ 132710.0, 6960940.0 ], [ 132700.0, 6960930.0 ], [ 132660.0, 6960930.0 ], [ 132640.0, 6960910.0 ], [ 132520.0, 6960920.0 ], [ 132490.0, 6960870.0 ], [ 132490.0, 6960800.0 ], [ 132440.0, 6960750.0 ], [ 132450.0, 6960730.0 ], [ 132440.0, 6960680.0 ], [ 132460.0, 6960640.0 ], [ 132530.0, 6960560.0 ], [ 132530.0, 6960500.0 ], [ 132580.0, 6960420.0 ], [ 132570.0, 6960370.0 ], [ 132620.0, 6960340.0 ], [ 132620.0, 6960310.0 ], [ 132600.0, 6960250.0 ], [ 132440.0, 6960090.0 ], [ 132420.0, 6959930.0 ] ] } }
]
}
