{
"type": "FeatureCollection",
"name": "galtatind_05_wgs84",
"crs": { "type": "name", "properties": { "name": "urn:ogc:def:crs:OGC:1.3:CRS84" } },
"features": [
{ "type": "Feature", "properties": { "cat": 1 }, "geometry": { "type": "LineString", "coordinates": [ [ 7.817966455613596, 62.612804032754262 ], [ 7.817258080664214, 62.612497014980981 ], [ 7.817798829025264, 62.610270682325542 ], [ 7.821044261744087, 62.608995248619472 ], [ 7.822527003928617, 62.60853063209364 ], [ 7.823686759634073, 62.608590371202027 ], [ 7.824888576597174, 62.609283438283512 ], [ 7.830880887456623, 62.609591888347396 ], [ 7.834082545243251, 62.608494255011259 ], [ 7.834212008689431, 62.607959915417844 ], [ 7.835071480489053, 62.607643450742223 ], [ 7.835565926398445, 62.607218045682018 ], [ 7.836062886473915, 62.604358284356138 ], [ 7.836685831708452, 62.604209983676419 ], [ 7.83696536219003, 62.603863692157823 ], [ 7.837288817460486, 62.602527833473516 ], [ 7.837181809558635, 62.602161667892766 ], [ 7.836666731394279, 62.60186468561924 ], [ 7.836108532974012, 62.601745815723604 ], [ 7.83570130429348, 62.601003544822014 ], [ 7.834714364000257, 62.600231454902101 ], [ 7.834585826257793, 62.599954344659878 ], [ 7.834779935129287, 62.59915283332893 ], [ 7.835510598482407, 62.598559252069215 ], [ 7.835403623813547, 62.598193085572532 ], [ 7.835533006630921, 62.597658743639222 ], [ 7.835747796468117, 62.597579624865787 ], [ 7.835705508850219, 62.596946287428317 ], [ 7.833152300960619, 62.595372281560415 ], [ 7.832745224147073, 62.594630004083257 ], [ 7.832896203017223, 62.594006608460731 ], [ 7.832038045717921, 62.593511614731909 ], [ 7.832295952080805, 62.593254388198012 ], [ 7.832210601114697, 62.592799163562134 ], [ 7.834229669618734, 62.591730897547855 ], [ 7.834315915694681, 62.591374670200821 ], [ 7.834745407298495, 62.591216434869338 ], [ 7.835024827972327, 62.590870145730769 ], [ 7.835669046987062, 62.590632788710494 ], [ 7.835755271789902, 62.590276560181955 ], [ 7.836399471975226, 62.590039199529336 ], [ 7.83646413260081, 62.589772027689961 ], [ 7.83567069798965, 62.589009885290359 ], [ 7.833611388660743, 62.587821936093789 ], [ 7.833354428847783, 62.587267715015173 ], [ 7.833419990479356, 62.586189093912523 ] ] } }
]
}
