{
"type": "FeatureCollection",
"name": "galtatind_34_wgs84",
"crs": { "type": "name", "properties": { "name": "urn:ogc:def:crs:OGC:1.3:CRS84" } },
"features": [
{ "type": "Feature", "properties": { "cat": 1 }, "geometry": { "type": "LineString", "coordinates": [ [ 7.817966455613596, 62.612804032754262 ], [ 7.81760145085562, 62.612695050944808 ], [ 7.817796123238057, 62.611893570993303 ], [ 7.818226004229611, 62.611735391880764 ], [ 7.818528784194342, 62.61048864321657 ], [ 7.819173567024406, 62.610251370136197 ], [ 7.819238438245847, 62.609984209183061 ], [ 7.820119744707767, 62.609578785870163 ], [ 7.820162985425752, 62.609400678185587 ], [ 7.822312098853713, 62.608609728926346 ], [ 7.823278563689088, 62.608659513699273 ], [ 7.824136993626805, 62.609154565037102 ], [ 7.830902475665901, 62.609502832401908 ], [ 7.834125700311886, 62.608316141834869 ], [ 7.835049906480468, 62.607732507526556 ], [ 7.835136201635109, 62.60737628035708 ], [ 7.835565926398445, 62.607218045682018 ], [ 7.83606204506431, 62.605169735816531 ], [ 7.83522509312173, 62.604585699757017 ], [ 7.835376084151742, 62.60396230163277 ], [ 7.834539178560125, 62.603378262085997 ], [ 7.834453773878759, 62.602923038104436 ], [ 7.834131969667973, 62.602635986874873 ], [ 7.834261399864364, 62.602101646773875 ], [ 7.835142265595494, 62.601696122540325 ], [ 7.835379507463738, 62.600716496570165 ], [ 7.834714364000257, 62.600231454902101 ], [ 7.835059436154824, 62.598806545224207 ], [ 7.835510598482407, 62.598559252069215 ], [ 7.835403623813547, 62.598193085572532 ], [ 7.835856440601487, 62.596322887962749 ], [ 7.836307557322961, 62.596075591606031 ], [ 7.836286816880169, 62.595353196994544 ], [ 7.835965072113171, 62.595066150798459 ], [ 7.836892003174984, 62.591236689580313 ], [ 7.835733715808816, 62.590365617322121 ], [ 7.836421025663483, 62.589950142254892 ], [ 7.836249402490221, 62.589851148382692 ], [ 7.836421830107371, 62.589138690252639 ], [ 7.834705694778339, 62.58814874334491 ], [ 7.8345349401849, 62.587238296239875 ], [ 7.833526906773891, 62.586555261147311 ], [ 7.833419990479356, 62.586189093912523 ] ] } }
]
}
