{
"type": "FeatureCollection",
"name": "galtatind_04_wgs84",
"crs": { "type": "name", "properties": { "name": "urn:ogc:def:crs:OGC:1.3:CRS84" } },
"features": [
{ "type": "Feature", "properties": { "cat": 1 }, "geometry": { "type": "LineString", "coordinates": [ [ 7.817966455613596, 62.612804032754262 ], [ 7.817623081708416, 62.612605997638362 ], [ 7.818142178071952, 62.610468716670866 ], [ 7.818357107667452, 62.610389626598071 ], [ 7.818443612628823, 62.61003341262996 ], [ 7.819733149064515, 62.609558863877005 ], [ 7.81979801334004, 62.60929170256847 ], [ 7.822806742037391, 62.608184371795701 ], [ 7.825126233146926, 62.608303835440537 ], [ 7.826693067016574, 62.609105849259556 ], [ 7.828432752142275, 62.609195403046478 ], [ 7.828647645830975, 62.609116296628429 ], [ 7.831160539832365, 62.609245610130401 ], [ 7.833309359027702, 62.608454487423749 ], [ 7.833761597488919, 62.607395751695449 ], [ 7.834642631863763, 62.606990232921056 ], [ 7.835504644308052, 62.604239411448596 ], [ 7.836557260548642, 62.603932874799597 ], [ 7.836686654328227, 62.603398531954184 ], [ 7.836514955260464, 62.603299537378739 ], [ 7.837010115698004, 62.602062673997487 ], [ 7.836108532974012, 62.601745815723604 ], [ 7.83570130429348, 62.601003544822014 ], [ 7.834714364000257, 62.600231454902101 ], [ 7.834585826257793, 62.599954344659878 ], [ 7.834779935129287, 62.59915283332893 ], [ 7.835510598482407, 62.598559252069215 ], [ 7.835403623813547, 62.598193085572532 ], [ 7.835533006630921, 62.597658743639222 ], [ 7.835747796468117, 62.597579624865787 ], [ 7.835856440601487, 62.596322887962749 ], [ 7.834848080707149, 62.595639857990825 ], [ 7.834912770717739, 62.595372687276019 ], [ 7.834569475367752, 62.595174694941825 ], [ 7.83418305466243, 62.595154815381321 ], [ 7.833324843369736, 62.594659828838275 ], [ 7.833540508195339, 62.593769262453563 ], [ 7.834184803127611, 62.59353191332918 ], [ 7.835154177177153, 62.590335803679494 ], [ 7.836184739718257, 62.590118320093168 ], [ 7.83646413260081, 62.589772027689961 ], [ 7.836207104582181, 62.589217810942891 ], [ 7.833461347363124, 62.58763388232947 ], [ 7.833419990479356, 62.586189093912523 ] ] } }
]
}
