{
"type": "FeatureCollection",
"name": "galtatind_03_wgs84",
"crs": { "type": "name", "properties": { "name": "urn:ogc:def:crs:OGC:1.3:CRS84" } },
"features": [
{ "type": "Feature", "properties": { "cat": 1 }, "geometry": { "type": "LineString", "coordinates": [ [ 7.817966455613596, 62.612804032754262 ], [ 7.817108029399892, 62.612308943496089 ], [ 7.817648784657712, 62.610082611515473 ], [ 7.821538929629305, 62.608569896322344 ], [ 7.822376937327207, 62.608342566066298 ], [ 7.823729977159001, 62.608412262095278 ], [ 7.825103480050695, 62.609204337459083 ], [ 7.830902475665901, 62.609502832401908 ], [ 7.834104122850889, 62.608405198425736 ], [ 7.834147277626238, 62.608227085238632 ], [ 7.834577020104197, 62.608068853852011 ], [ 7.835719483034122, 62.604160293386258 ], [ 7.836772094294211, 62.603853755047872 ], [ 7.837181809558635, 62.602161667892766 ], [ 7.836666731394279, 62.60186468561924 ], [ 7.836108532974012, 62.601745815723604 ], [ 7.83570130429348, 62.601003544822014 ], [ 7.834714364000257, 62.600231454902101 ], [ 7.834585826257793, 62.599954344659878 ], [ 7.834779935129287, 62.59915283332893 ], [ 7.835510598482407, 62.598559252069215 ], [ 7.835403623813547, 62.598193085572532 ], [ 7.835533006630921, 62.597658743639222 ], [ 7.835747796468117, 62.597579624865787 ], [ 7.835856440601487, 62.596322887962749 ], [ 7.836758666480171, 62.595828293686587 ], [ 7.83684489734841, 62.595472064572213 ], [ 7.836673241946503, 62.595373070784085 ], [ 7.83590039239967, 62.595333322142025 ], [ 7.835557090737651, 62.595135332153404 ], [ 7.83302379606254, 62.59509517032226 ], [ 7.832745224147073, 62.594630004083257 ], [ 7.832896203017223, 62.594006608460731 ], [ 7.832038045717921, 62.593511614731909 ], [ 7.832295952080805, 62.593254388198012 ], [ 7.832189032202907, 62.592888219977091 ], [ 7.833327531661266, 62.592225476664559 ], [ 7.834616045892727, 62.591750776373623 ], [ 7.834788526595521, 62.591038320991764 ], [ 7.835454308453665, 62.590711908063561 ], [ 7.835540536118507, 62.590355679706946 ], [ 7.836399471975226, 62.590039199529336 ], [ 7.83646413260081, 62.589772027689961 ], [ 7.836207104582181, 62.589217810942891 ], [ 7.833461347363124, 62.58763388232947 ], [ 7.833419990479356, 62.586189093912523 ] ] } }
]
}
