{
"type": "FeatureCollection",
"name": "galtatind_32_wgs84",
"crs": { "type": "name", "properties": { "name": "urn:ogc:def:crs:OGC:1.3:CRS84" } },
"features": [
{ "type": "Feature", "properties": { "cat": 1 }, "geometry": { "type": "LineString", "coordinates": [ [ 7.817966455613596, 62.612804032754262 ], [ 7.816936347576809, 62.612209925057094 ], [ 7.817390597048141, 62.610339807098981 ], [ 7.817648784657712, 62.610082611515473 ], [ 7.819583095600248, 62.60937079502343 ], [ 7.819669582110781, 62.609014580042597 ], [ 7.820314323310295, 62.608777301120313 ], [ 7.820594089503576, 62.60843104564352 ], [ 7.821023904692531, 62.608272857009844 ], [ 7.82175878394083, 62.60524501686151 ], [ 7.821973665461742, 62.605165920559521 ], [ 7.82210332811146, 62.604631594924385 ], [ 7.821073408716588, 62.604037520340036 ], [ 7.821375969852055, 62.60279076248986 ], [ 7.823202874203466, 62.601712712564691 ], [ 7.82372132833845, 62.599575402028648 ], [ 7.826299266062325, 62.598626179524793 ], [ 7.826622040894293, 62.598101799180895 ], [ 7.828770149876482, 62.59731073669591 ], [ 7.828706428560686, 62.596766454863975 ], [ 7.827011718925112, 62.595687355439892 ], [ 7.827270753095894, 62.594618690688122 ], [ 7.826755902747999, 62.594321674912521 ], [ 7.825618285435379, 62.594172913696411 ], [ 7.825275066997357, 62.593974899529016 ], [ 7.825168232140639, 62.593608727086966 ], [ 7.825963704061584, 62.592748031241747 ], [ 7.82544889839221, 62.592451011248343 ], [ 7.825492075615805, 62.592272901038854 ], [ 7.826565942727219, 62.591877380074493 ], [ 7.826609112207008, 62.591699269413134 ], [ 7.826159074374608, 62.591135086209633 ], [ 7.826223829977345, 62.590867920419875 ], [ 7.825730639244822, 62.590481846601271 ], [ 7.825173811765777, 62.589551488736305 ], [ 7.825861246610048, 62.589136067439036 ], [ 7.827213423352367, 62.589205717901493 ], [ 7.827578181459634, 62.589314671201599 ], [ 7.829510876178605, 62.588602694952705 ], [ 7.829554022000784, 62.588424583055229 ], [ 7.829983494336767, 62.588266362129332 ], [ 7.830949314650244, 62.588316084962955 ], [ 7.831678840818952, 62.588533971195346 ], [ 7.832065173417489, 62.588553856494599 ], [ 7.832494634768963, 62.588395627682878 ], [ 7.832473980603226, 62.587673233666123 ], [ 7.831960114941474, 62.586564787577586 ], [ 7.833419990479356, 62.586189093912523 ] ] } }
]
}
