{
"type": "FeatureCollection",
"name": "galtatind_18_wgs84",
"crs": { "type": "name", "properties": { "name": "urn:ogc:def:crs:OGC:1.3:CRS84" } },
"features": [
{ "type": "Feature", "properties": { "cat": 1 }, "geometry": { "type": "LineString", "coordinates": [ [ 7.817966455613596, 62.612804032754262 ], [ 7.817236448818549, 62.612586068217311 ], [ 7.816206363063957, 62.611991955432899 ], [ 7.816617391198704, 62.610299946713837 ], [ 7.820056170622327, 62.609034502114696 ], [ 7.820099410716723, 62.608856394441126 ], [ 7.822248485371081, 62.608065445632029 ], [ 7.822940017642779, 62.605215706142168 ], [ 7.822618303188694, 62.60492862957377 ], [ 7.822704736944789, 62.604572411988173 ], [ 7.821674807190285, 62.603978341703787 ], [ 7.822020559306952, 62.602553473607038 ], [ 7.822665138510186, 62.602316181604863 ], [ 7.822751562070136, 62.601959963848913 ], [ 7.823396122426049, 62.601722668210556 ], [ 7.823914562893949, 62.599585356769673 ], [ 7.826277674088089, 62.598715234708912 ], [ 7.826622040894293, 62.598101799180895 ], [ 7.829135011770719, 62.59741968733659 ], [ 7.829199758008535, 62.597152520041348 ], [ 7.828856481868544, 62.596954513904777 ], [ 7.829930479339713, 62.596558968809475 ], [ 7.830188431943205, 62.596301746807057 ], [ 7.830274743234483, 62.595945522854613 ], [ 7.829759839894982, 62.595648517449838 ], [ 7.830017785530386, 62.595391295667426 ], [ 7.830233556088368, 62.594500735842836 ], [ 7.83175856367497, 62.593857897044337 ], [ 7.832189032202907, 62.592888219977091 ], [ 7.832640124657274, 62.592640935152545 ], [ 7.832791092918452, 62.59201753949575 ], [ 7.833005847972781, 62.591938424470406 ], [ 7.833243061437797, 62.59095880172076 ], [ 7.835583649072417, 62.590177565496489 ], [ 7.835970006323153, 62.590197440310703 ], [ 7.836399471975226, 62.590039199529336 ], [ 7.83567069798965, 62.589009885290359 ], [ 7.835112742473627, 62.588891014714612 ], [ 7.834597907485142, 62.588594028102655 ], [ 7.833311307902007, 62.587445828428592 ], [ 7.833333752754776, 62.58654532082442 ], [ 7.833162159101748, 62.586446323553581 ], [ 7.833419990479356, 62.586189093912523 ] ] } }
]
}
