{
"type": "FeatureCollection",
"name": "galtatind_25_wgs84",
"crs": { "type": "name", "properties": { "name": "urn:ogc:def:crs:OGC:1.3:CRS84" } },
"features": [
{ "type": "Feature", "properties": { "cat": 1 }, "geometry": { "type": "LineString", "coordinates": [ [ 7.817966455613596, 62.612804032754262 ], [ 7.81760145085562, 62.612695050944808 ], [ 7.818120550747305, 62.610557770106347 ], [ 7.818400360442102, 62.610211519624755 ], [ 7.819045138089365, 62.609974247067242 ], [ 7.8190883859752, 62.609796139813746 ], [ 7.823816410446629, 62.608056043817378 ], [ 7.825169441519921, 62.60812572576296 ], [ 7.826907964512889, 62.609026745573658 ], [ 7.830967239413408, 62.60923566453328 ], [ 7.833545813849343, 62.608286316769025 ], [ 7.833740019784869, 62.607484808226928 ], [ 7.834384618405962, 62.60724746232664 ], [ 7.835093926547194, 62.606742942922843 ], [ 7.835719483034122, 62.604160293386258 ], [ 7.836772094294211, 62.603853755047872 ], [ 7.837181809558635, 62.602161667892766 ], [ 7.836516605139477, 62.601676633993165 ], [ 7.836840050382124, 62.600340776204504 ], [ 7.836518249140267, 62.600053730519768 ], [ 7.836755429062526, 62.599074101360593 ], [ 7.837013346540926, 62.598816866256612 ], [ 7.835768521848964, 62.598302019347521 ], [ 7.835833210939947, 62.598034848195169 ], [ 7.835211245684794, 62.597371695485108 ], [ 7.83529750076344, 62.597015467659332 ], [ 7.83495418446511, 62.596817475987805 ], [ 7.835040440582656, 62.596461248334634 ], [ 7.834697132221875, 62.596263256138023 ], [ 7.834697995100615, 62.595451804957492 ], [ 7.833668124471235, 62.594857824042883 ], [ 7.834099422563843, 62.593076689446512 ], [ 7.834314182108796, 62.592997572467404 ], [ 7.834486679214685, 62.592285117685172 ], [ 7.834701431896221, 62.592206000015807 ], [ 7.835325799308966, 62.590434798885603 ], [ 7.836807380671031, 62.589970014717935 ], [ 7.836979795802169, 62.589257555727784 ], [ 7.836636554494511, 62.589059569216104 ], [ 7.836701210289307, 62.588792397200116 ], [ 7.835671521286303, 62.588198433547376 ], [ 7.835757737106034, 62.587842204892276 ], [ 7.835414519922828, 62.587644215700088 ], [ 7.835479182785986, 62.587377044346226 ], [ 7.836123320632296, 62.587139684117275 ], [ 7.836252629530711, 62.586605340491495 ], [ 7.835716268679435, 62.58639741563654 ], [ 7.833419990479356, 62.586189093912523 ] ] } }
]
}
