{
"type": "FeatureCollection",
"name": "galtatind_31_wgs84",
"crs": { "type": "name", "properties": { "name": "urn:ogc:def:crs:OGC:1.3:CRS84" } },
"features": [
{ "type": "Feature", "properties": { "cat": 1 }, "geometry": { "type": "LineString", "coordinates": [ [ 7.817966455613596, 62.612804032754262 ], [ 7.817794768091046, 62.612705015294225 ], [ 7.818313854304873, 62.610567733549878 ], [ 7.818572036123236, 62.610310536178531 ], [ 7.819646661306552, 62.609915078879808 ], [ 7.820119744707767, 62.609578785870163 ], [ 7.820227845400715, 62.609133516618421 ], [ 7.822806742037391, 62.608184371795701 ], [ 7.823498224315106, 62.605334628857179 ], [ 7.822983233416915, 62.60503759724147 ], [ 7.823631399556284, 62.602365961153914 ], [ 7.826424430164113, 62.601337640040235 ], [ 7.826467617919348, 62.601159529676295 ], [ 7.828079409473408, 62.600160515936558 ], [ 7.828597478854024, 62.598023182020832 ], [ 7.829263488770708, 62.597696801776117 ], [ 7.829329246525466, 62.59661818530612 ], [ 7.830210009985906, 62.596212690826981 ], [ 7.830274743234483, 62.595945522854613 ], [ 7.829931473202916, 62.595747519447201 ], [ 7.830233556088368, 62.594500735842836 ], [ 7.830942614649369, 62.593996234131211 ], [ 7.831351540369559, 62.593115616224949 ], [ 7.832210601114697, 62.592799163562134 ], [ 7.832748868816905, 62.591384202018112 ], [ 7.834252098188804, 62.590830389584575 ], [ 7.834295219728846, 62.590652275889958 ], [ 7.835583649072417, 62.590177565496489 ], [ 7.835970006323153, 62.590197440310703 ], [ 7.836421025663483, 62.589950142254892 ], [ 7.83567069798965, 62.589009885290359 ], [ 7.834104641757722, 62.588207982884917 ], [ 7.833954595502625, 62.588019929584043 ], [ 7.834169317936674, 62.58794081232076 ], [ 7.834127064593766, 62.587307474854597 ], [ 7.833633825423385, 62.586921428331848 ], [ 7.833419990479356, 62.586189093912523 ] ] } }
]
}
