{
"type": "FeatureCollection",
"name": "galtatind_35_wgs84",
"crs": { "type": "name", "properties": { "name": "urn:ogc:def:crs:OGC:1.3:CRS84" } },
"features": [
{ "type": "Feature", "properties": { "cat": 1 }, "geometry": { "type": "LineString", "coordinates": [ [ 7.817966455613596, 62.612804032754262 ], [ 7.816506452907033, 62.612368100008332 ], [ 7.815476389434305, 62.611773982136874 ], [ 7.81577928521284, 62.610527241022076 ], [ 7.819841255455675, 62.609113595002597 ], [ 7.821840293650005, 62.608134583977673 ], [ 7.823223290149047, 62.602435104670384 ], [ 7.827112131810287, 62.600922216228525 ], [ 7.827176905896955, 62.600655050254971 ], [ 7.827821403091462, 62.600417733301086 ], [ 7.827864580785437, 62.600239622366935 ], [ 7.828702302794674, 62.600012250208266 ], [ 7.828896570697016, 62.599210749238068 ], [ 7.828403212735648, 62.598824682601162 ], [ 7.828597478854024, 62.598023182020832 ], [ 7.829263488770708, 62.597696801776117 ], [ 7.829028119369204, 62.597053517070968 ], [ 7.829136028946731, 62.596608238299865 ], [ 7.82958720482207, 62.596360964493648 ], [ 7.829759839894982, 62.595648517449838 ], [ 7.829244946802455, 62.595351510283159 ], [ 7.829202798340334, 62.594718172770065 ], [ 7.828516304853359, 62.594322160466248 ], [ 7.829182229889634, 62.593995779448477 ], [ 7.829461743091931, 62.593649502725739 ], [ 7.831802643215448, 62.592868334251953 ], [ 7.831975199513972, 62.592155883384528 ], [ 7.83283422538892, 62.591839426402714 ], [ 7.832942054001558, 62.591394143576473 ], [ 7.835776827624584, 62.590187503036425 ], [ 7.836571096709283, 62.590138193238047 ], [ 7.83700055839439, 62.589979950550919 ], [ 7.837237620524945, 62.589000318937359 ], [ 7.836980583723471, 62.588446103495365 ], [ 7.836465737026328, 62.588149123621314 ], [ 7.836551943156916, 62.587792894342861 ], [ 7.834342637780625, 62.586416905960924 ], [ 7.833419990479356, 62.586189093912523 ] ] } }
]
}
