{
"type": "FeatureCollection",
"name": "galtatind_10_wgs84",
"crs": { "type": "name", "properties": { "name": "urn:ogc:def:crs:OGC:1.3:CRS84" } },
"features": [
{ "type": "Feature", "properties": { "cat": 1 }, "geometry": { "type": "LineString", "coordinates": [ [ 7.817966455613596, 62.612804032754262 ], [ 7.81760145085562, 62.612695050944808 ], [ 7.818593661867216, 62.610221482651447 ], [ 7.819668283466471, 62.609826025137167 ], [ 7.819926446812669, 62.609568825006519 ], [ 7.822505391527036, 62.608619686412673 ], [ 7.823450247397356, 62.608758524358493 ], [ 7.824480373579497, 62.609352584201488 ], [ 7.83047269300406, 62.60966105191882 ], [ 7.831912158055573, 62.609374446009973 ], [ 7.834060967488963, 62.608583311591417 ], [ 7.834878188827048, 62.607633510684238 ], [ 7.835974075900236, 62.607148866593285 ], [ 7.836232914662356, 62.606080182570828 ], [ 7.83597576912738, 62.6055259638227 ], [ 7.836277724646884, 62.60427916542632 ], [ 7.836685831708452, 62.604209983676419 ], [ 7.83696536219003, 62.603863692157823 ], [ 7.837288817460486, 62.602527833473516 ], [ 7.837181809558635, 62.602161667892766 ], [ 7.836666731394279, 62.60186468561924 ], [ 7.836108532974012, 62.601745815723604 ], [ 7.835872987771888, 62.601102540187576 ], [ 7.835186260692665, 62.600706557550147 ], [ 7.834843770454211, 62.599697113933537 ], [ 7.835059436154824, 62.598806545224207 ], [ 7.835510598482407, 62.598559252069215 ], [ 7.835856440601487, 62.596322887962749 ], [ 7.836758666480171, 62.595828293686587 ], [ 7.83684489734841, 62.595472064572213 ], [ 7.836673241946503, 62.595373070784085 ], [ 7.83590039239967, 62.595333322142025 ], [ 7.835557090737651, 62.595135332153404 ], [ 7.834977459409961, 62.595105516512994 ], [ 7.833775954487888, 62.594412540594604 ], [ 7.834250363053612, 62.592453291831745 ], [ 7.835109374365587, 62.592136820633613 ], [ 7.835432751171399, 62.590800965139337 ], [ 7.835647490420309, 62.590721845829258 ], [ 7.835755271789902, 62.590276560181955 ], [ 7.836184739718257, 62.590118320093168 ], [ 7.83646413260081, 62.589772027689961 ], [ 7.83567069798965, 62.589009885290359 ], [ 7.833611388660743, 62.587821936093789 ], [ 7.833311307902007, 62.587445828428592 ], [ 7.833591583580269, 62.586288090858517 ], [ 7.833419990479356, 62.586189093912523 ] ] } }
]
}
