{
"type": "FeatureCollection",
"name": "galtatind_33_wgs84",
"crs": { "type": "name", "properties": { "name": "urn:ogc:def:crs:OGC:1.3:CRS84" } },
"features": [
{ "type": "Feature", "properties": { "cat": 1 }, "geometry": { "type": "LineString", "coordinates": [ [ 7.817966455613596, 62.612804032754262 ], [ 7.817429765189969, 62.612596033060797 ], [ 7.81797050297875, 62.610369699596099 ], [ 7.818400360442102, 62.610211519624755 ], [ 7.818443612628823, 62.61003341262996 ], [ 7.819948067814961, 62.609479771204654 ], [ 7.819991309378723, 62.60930166358478 ], [ 7.823214932378308, 62.608115230602813 ], [ 7.824426012019767, 62.602316725238474 ], [ 7.82764868644812, 62.601130176823091 ], [ 7.828829753277168, 62.601100813943809 ], [ 7.830763205641884, 62.600388830695472 ], [ 7.831257584712187, 62.599963439989722 ], [ 7.832976096177409, 62.599330535854939 ], [ 7.833062385235714, 62.598974309877057 ], [ 7.833535136770677, 62.598637966841721 ], [ 7.834009646728142, 62.5966787203037 ], [ 7.833666342988847, 62.596480725632304 ], [ 7.833838881246215, 62.595768272219665 ], [ 7.832980658735653, 62.59527328340608 ], [ 7.83285215582162, 62.594996172036737 ], [ 7.832746137527192, 62.593818553599888 ], [ 7.833218806624529, 62.593482210508171 ], [ 7.833369768178238, 62.592858814134765 ], [ 7.833799286648751, 62.592700582085008 ], [ 7.833950231005582, 62.592077184847241 ], [ 7.834379734904042, 62.591918950810246 ], [ 7.8345306620657, 62.591295552708246 ], [ 7.835239568782086, 62.590791027070338 ], [ 7.835347356574621, 62.590345741826049 ], [ 7.836807380671031, 62.589970014717935 ], [ 7.836979795802169, 62.589257555727784 ], [ 7.836808174579311, 62.589158562569835 ], [ 7.836937482315669, 62.58862421829609 ], [ 7.834041696705771, 62.586852251101455 ], [ 7.834127927084899, 62.586496023651669 ], [ 7.833419990479356, 62.586189093912523 ] ] } }
]
}
