{
"type": "FeatureCollection",
"name": "galtatind_24_wgs84",
"crs": { "type": "name", "properties": { "name": "urn:ogc:def:crs:OGC:1.3:CRS84" } },
"features": [
{ "type": "Feature", "properties": { "cat": 1 }, "geometry": { "type": "LineString", "coordinates": [ [ 7.817966455613596, 62.612804032754262 ], [ 7.817408133767223, 62.612685086329485 ], [ 7.816721400811852, 62.612289012706107 ], [ 7.817175665338334, 62.610418895653652 ], [ 7.817605527618245, 62.610260718197573 ], [ 7.817648784657712, 62.610082611515473 ], [ 7.8245043097844, 62.607640635569723 ], [ 7.826222300279619, 62.60781927043157 ], [ 7.827595844895928, 62.608611321821449 ], [ 7.828948912475953, 62.608680967600364 ], [ 7.831097746620201, 62.607889879168589 ], [ 7.831484330216064, 62.607909769498555 ], [ 7.833396597340659, 62.60728681128051 ], [ 7.833461332551822, 62.607019641863843 ], [ 7.834772076934904, 62.606455892555346 ], [ 7.835634058694861, 62.603705069860929 ], [ 7.836278558563, 62.603467713860489 ], [ 7.83653734572573, 62.602399028559049 ], [ 7.836795295852609, 62.602141794305538 ], [ 7.835958410852746, 62.601557763552876 ], [ 7.836087802278549, 62.601023421227289 ], [ 7.835057716735619, 62.600429447658598 ], [ 7.834950742415964, 62.600063280821232 ], [ 7.835231105185929, 62.598905541183804 ], [ 7.834887768262606, 62.598707549068763 ], [ 7.834952466384307, 62.598440378448416 ], [ 7.834437473346885, 62.598143389097629 ], [ 7.834674702466521, 62.597163764142834 ], [ 7.834331388771969, 62.596965770973434 ], [ 7.834439218557886, 62.596520487011752 ], [ 7.833602532450929, 62.595936444821604 ], [ 7.833560290791953, 62.595303107357282 ], [ 7.832745224147073, 62.594630004083257 ], [ 7.833865734175723, 62.590810509917361 ], [ 7.835390470666675, 62.59016762769086 ], [ 7.835970006323153, 62.590197440310703 ], [ 7.836421025663483, 62.589950142254892 ], [ 7.836249402490221, 62.589851148382692 ], [ 7.836335617469939, 62.589494919360469 ], [ 7.835220523428092, 62.588445729472703 ], [ 7.835328300722471, 62.588000444096998 ], [ 7.833998580637761, 62.587030364794217 ], [ 7.834149484313668, 62.586406966775854 ], [ 7.833419990479356, 62.586189093912523 ] ] } }
]
}
