{
"type": "FeatureCollection",
"name": "galtatind_27_wgs84",
"crs": { "type": "name", "properties": { "name": "urn:ogc:def:crs:OGC:1.3:CRS84" } },
"features": [
{ "type": "Feature", "properties": { "cat": 1 }, "geometry": { "type": "LineString", "coordinates": [ [ 7.817966455613596, 62.612804032754262 ], [ 7.817408133767223, 62.612685086329485 ], [ 7.815648063830182, 62.61187300227153 ], [ 7.815929319654869, 62.610715313707551 ], [ 7.816209156279896, 62.610369067989353 ], [ 7.819841255455675, 62.609113595002597 ], [ 7.819884496983558, 62.608935487415195 ], [ 7.822463386568884, 62.607986348844392 ], [ 7.822982032672367, 62.605849043708474 ], [ 7.82319691553262, 62.605769945540139 ], [ 7.823348166364229, 62.605146563991319 ], [ 7.823176503154331, 62.605047553485093 ], [ 7.823781446379519, 62.602554025564558 ], [ 7.82764868644812, 62.601130176823091 ], [ 7.828636506787933, 62.601090865851255 ], [ 7.830784785726727, 62.600299774655298 ], [ 7.831257584712187, 62.599963439989722 ], [ 7.832976096177409, 62.599330535854939 ], [ 7.833019240999693, 62.599152422876692 ], [ 7.833663659711069, 62.598915077851757 ], [ 7.83454791133178, 62.595263751787527 ], [ 7.833882898330415, 62.594778707923687 ], [ 7.834917880972072, 62.590503979230505 ], [ 7.835583649072417, 62.590177565496489 ], [ 7.836184739718257, 62.590118320093168 ], [ 7.83646413260081, 62.589772027689961 ], [ 7.835970823548305, 62.589385988485922 ], [ 7.83607859393746, 62.588940702437213 ], [ 7.83539213525396, 62.588544724457144 ], [ 7.835436074356937, 62.587555158587485 ], [ 7.833548465855765, 62.58646620438973 ], [ 7.833419990479356, 62.586189093912523 ] ] } }
]
}
