{
"type": "FeatureCollection",
"name": "galtatind_17_wgs84",
"crs": { "type": "name", "properties": { "name": "urn:ogc:def:crs:OGC:1.3:CRS84" } },
"features": [
{ "type": "Feature", "properties": { "cat": 1 }, "geometry": { "type": "LineString", "coordinates": [ [ 7.817966455613596, 62.612804032754262 ], [ 7.817794768091046, 62.612705015294225 ], [ 7.818270600354349, 62.610745840480178 ], [ 7.818550410232278, 62.610399589700243 ], [ 7.819045138089365, 62.609974247067242 ], [ 7.819904825663432, 62.609657878803013 ], [ 7.819969688670309, 62.609390717397403 ], [ 7.822763519401946, 62.608362480546788 ], [ 7.823923269150987, 62.608422217607398 ], [ 7.824760097489882, 62.609006319793103 ], [ 7.830945651644292, 62.60932472049484 ], [ 7.833932404677724, 62.608306200412123 ], [ 7.835049906480468, 62.607732507526556 ], [ 7.835136201635109, 62.60737628035708 ], [ 7.835565926398445, 62.607218045682018 ], [ 7.83569535613518, 62.606683704251061 ], [ 7.835910212509066, 62.606604586135724 ], [ 7.836277724646884, 62.60427916542632 ], [ 7.836685831708452, 62.604209983676419 ], [ 7.83696536219003, 62.603863692157823 ], [ 7.837288817460486, 62.602527833473516 ], [ 7.837181809558635, 62.602161667892766 ], [ 7.835979976456706, 62.601468706511994 ], [ 7.835916118507078, 62.600924426122191 ], [ 7.835057716735619, 62.600429447658598 ], [ 7.834757500071069, 62.600053341267326 ], [ 7.835599375080763, 62.595768669594591 ], [ 7.833046270344604, 62.594194663185021 ], [ 7.833369768178238, 62.592858814134765 ], [ 7.833820850567721, 62.592611525352829 ], [ 7.833928667965453, 62.592166241611551 ], [ 7.834572924252536, 62.591928890165555 ], [ 7.835111061361262, 62.590513917718006 ], [ 7.836421025663483, 62.589950142254892 ], [ 7.836099334842256, 62.589663097099447 ], [ 7.836035486220983, 62.589118816872748 ], [ 7.834512529915967, 62.58813880450743 ], [ 7.834663429959975, 62.587515405885135 ], [ 7.833977022384136, 62.587119421632565 ], [ 7.834127927084899, 62.586496023651669 ], [ 7.833419990479356, 62.586189093912523 ] ] } }
]
}
