{
"type": "FeatureCollection",
"name": "galtatind_15_wgs84",
"crs": { "type": "name", "properties": { "name": "urn:ogc:def:crs:OGC:1.3:CRS84" } },
"features": [
{ "type": "Feature", "properties": { "cat": 1 }, "geometry": { "type": "LineString", "coordinates": [ [ 7.817966455613596, 62.612804032754262 ], [ 7.81760145085562, 62.612695050944808 ], [ 7.818163805249609, 62.61037966323002 ], [ 7.819883204367259, 62.609746932594128 ], [ 7.820162985425752, 62.609400678185587 ], [ 7.822527003928617, 62.60853063209364 ], [ 7.823686759634073, 62.608590371202027 ], [ 7.824716885040608, 62.609184429287929 ], [ 7.830902475665901, 62.609502832401908 ], [ 7.831332253768674, 62.609344611498571 ], [ 7.832105459777945, 62.609384390315334 ], [ 7.834039389588031, 62.608672368166189 ], [ 7.834340572837198, 62.608237026357827 ], [ 7.834770314468741, 62.608078794364133 ], [ 7.83505078017607, 62.606921056517976 ], [ 7.835480498621719, 62.606762822019896 ], [ 7.836062886473915, 62.604358284356138 ], [ 7.836685831708452, 62.604209983676419 ], [ 7.836750528867587, 62.603942812213049 ], [ 7.837180194373128, 62.603784571756179 ], [ 7.837460514868803, 62.602626827073834 ], [ 7.837117121191391, 62.602428839677309 ], [ 7.837181809558635, 62.602161667892766 ], [ 7.836108532974012, 62.601745815723604 ], [ 7.836023107225025, 62.601290592414173 ], [ 7.835186260692665, 62.600706557550147 ], [ 7.834907607484148, 62.600241394531281 ], [ 7.83516640828306, 62.59917271194967 ], [ 7.834823068822194, 62.598974719640928 ], [ 7.834974032131832, 62.598351321564259 ], [ 7.834630703147178, 62.598153328924163 ], [ 7.834716968055251, 62.597797101592263 ], [ 7.834545306962677, 62.597698105107597 ], [ 7.835105982721683, 62.595382626201456 ], [ 7.833926029345067, 62.594600594474443 ], [ 7.834443555817004, 62.592463231412864 ], [ 7.83508781474035, 62.592225877623726 ], [ 7.835432751171399, 62.590800965139337 ], [ 7.835647490420309, 62.590721845829258 ], [ 7.835755271789902, 62.590276560181955 ], [ 7.836421025663483, 62.589950142254892 ], [ 7.83567069798965, 62.589009885290359 ], [ 7.834297806896243, 62.588217922291307 ], [ 7.834340923357353, 62.588039808511965 ], [ 7.833997713653928, 62.5878418159338 ], [ 7.834062389782724, 62.587574645418286 ], [ 7.833569147248966, 62.587188598621104 ], [ 7.833419990479356, 62.586189093912523 ] ] } }
]
}
