{
"type": "FeatureCollection",
"name": "galtatind_20_wgs84",
"crs": { "type": "name", "properties": { "name": "urn:ogc:def:crs:OGC:1.3:CRS84" } },
"features": [
{ "type": "Feature", "properties": { "cat": 1 }, "geometry": { "type": "LineString", "coordinates": [ [ 7.817966455613596, 62.612804032754262 ], [ 7.817429765189969, 62.612596033060797 ], [ 7.81797050297875, 62.610369699596099 ], [ 7.818250312490382, 62.610023449412871 ], [ 7.822785130793105, 62.608273426173923 ], [ 7.824031307544442, 62.607976944558025 ], [ 7.825964207050477, 62.608076483170819 ], [ 7.826822666650673, 62.608571518384188 ], [ 7.827574247603215, 62.608700377131534 ], [ 7.830666993183851, 62.608859548942874 ], [ 7.831418599405866, 62.608988387318753 ], [ 7.833137643297357, 62.608355488464952 ], [ 7.833374098248863, 62.608187318103056 ], [ 7.833546729719105, 62.60747486634547 ], [ 7.833976464119117, 62.607316636698876 ], [ 7.834041194202107, 62.607049466943295 ], [ 7.835351929258948, 62.606485712058479 ], [ 7.83591275247587, 62.604170231975971 ], [ 7.836557260548642, 62.603932874799597 ], [ 7.837031678617131, 62.60197361675754 ], [ 7.836538169181268, 62.601587576844715 ], [ 7.836775363970784, 62.600607947858585 ], [ 7.836153327074218, 62.599944798379866 ], [ 7.836325831260801, 62.599232341433137 ], [ 7.835982483208303, 62.599034351862102 ], [ 7.835768521848964, 62.598302019347521 ], [ 7.836221317799257, 62.596431820269473 ], [ 7.836092780077972, 62.59615471141359 ], [ 7.836758666480171, 62.595828293686587 ], [ 7.836952682638636, 62.595026778058852 ], [ 7.838456025429739, 62.594472921850844 ], [ 7.83852067981702, 62.594205748976172 ], [ 7.839164946065565, 62.593968376448409 ], [ 7.839745281271665, 62.593186721299922 ], [ 7.840818999152299, 62.592791088527918 ], [ 7.840862084984029, 62.592612972317355 ], [ 7.84017547905141, 62.592217015889489 ], [ 7.840218567680567, 62.5920388999156 ], [ 7.839875273235754, 62.591840920655635 ], [ 7.837643196802207, 62.591365488799923 ], [ 7.836741924959898, 62.591048638845471 ], [ 7.835712159681317, 62.590454674456936 ], [ 7.835755271789902, 62.590276560181955 ], [ 7.836421025663483, 62.589950142254892 ], [ 7.836400277167598, 62.58922774753762 ], [ 7.833826110509098, 62.587742819351107 ], [ 7.833419990479356, 62.586189093912523 ] ] } }
]
}
