{
"type": "FeatureCollection",
"name": "galtatind_36_wgs84",
"crs": { "type": "name", "properties": { "name": "urn:ogc:def:crs:OGC:1.3:CRS84" } },
"features": [
{ "type": "Feature", "properties": { "cat": 1 }, "geometry": { "type": "LineString", "coordinates": [ [ 7.817966455613596, 62.612804032754262 ], [ 7.817086397278342, 62.612397996705432 ], [ 7.817627156211477, 62.610171664859209 ], [ 7.82239854985794, 62.608253511768893 ], [ 7.823241324005376, 62.60478038998064 ], [ 7.823456198267745, 62.604701291295363 ], [ 7.823866686028047, 62.603009253826727 ], [ 7.824081545539489, 62.602930153976445 ], [ 7.824189556244733, 62.602484880420931 ], [ 7.827841932773445, 62.601140126282289 ], [ 7.828228425864168, 62.601160024403292 ], [ 7.83338414145561, 62.599261362923862 ], [ 7.834244243693114, 62.59813344900536 ], [ 7.83584067253337, 62.590731783329275 ], [ 7.835669046987062, 62.590632788710494 ], [ 7.835755271789902, 62.590276560181955 ], [ 7.836614203094061, 62.589960078619249 ], [ 7.836808174579311, 62.589158562569835 ], [ 7.836551144671941, 62.588604346430316 ], [ 7.835349855742151, 62.587911387005796 ], [ 7.835392965342327, 62.587733272807363 ], [ 7.835049751865661, 62.587535282767618 ], [ 7.835135972689774, 62.587179054564672 ], [ 7.833419990479356, 62.586189093912523 ] ] } }
]
}
