{
"type": "FeatureCollection",
"name": "galtatind_02_wgs84",
"crs": { "type": "name", "properties": { "name": "urn:ogc:def:crs:OGC:1.3:CRS84" } },
"features": [
{ "type": "Feature", "properties": { "cat": 1 }, "geometry": { "type": "LineString", "coordinates": [ [ 7.817966455613596, 62.612804032754262 ], [ 7.817473027594378, 62.61241792650727 ], [ 7.81797050297875, 62.610369699596099 ], [ 7.818400360442102, 62.610211519624755 ], [ 7.818465238501721, 62.609944359124491 ], [ 7.822978421480992, 62.608283382977639 ], [ 7.824138168692411, 62.608343118216766 ], [ 7.824653226760544, 62.608640146480866 ], [ 7.824588407918974, 62.608907310666368 ], [ 7.82493178820045, 62.609105328724027 ], [ 7.830924063728453, 62.609413776451071 ], [ 7.832858022839646, 62.608701771081158 ], [ 7.833761597488919, 62.607395751695449 ], [ 7.834685780807273, 62.606812119487245 ], [ 7.835760069024498, 62.606416533463303 ], [ 7.836062886473915, 62.604358284356138 ], [ 7.836685831708452, 62.604209983676419 ], [ 7.83696536219003, 62.603863692157823 ], [ 7.837288817460486, 62.602527833473516 ], [ 7.837181809558635, 62.602161667892766 ], [ 7.836666731394279, 62.60186468561924 ], [ 7.836108532974012, 62.601745815723604 ], [ 7.83570130429348, 62.601003544822014 ], [ 7.834714364000257, 62.600231454902101 ], [ 7.834585826257793, 62.599954344659878 ], [ 7.834779935129287, 62.59915283332893 ], [ 7.835510598482407, 62.598559252069215 ], [ 7.835403623813547, 62.598193085572532 ], [ 7.835533006630921, 62.597658743639222 ], [ 7.835747796468117, 62.597579624865787 ], [ 7.835899562640677, 62.596144773781518 ], [ 7.834376264941846, 62.595164755294427 ], [ 7.83321700546291, 62.59510511182976 ], [ 7.832873724688023, 62.594907115519085 ], [ 7.832896203017223, 62.594006608460731 ], [ 7.832038045717921, 62.593511614731909 ], [ 7.832295952080805, 62.593254388198012 ], [ 7.832210601114697, 62.592799163562134 ], [ 7.833112775305363, 62.592304592167565 ], [ 7.8344012963665, 62.591829893954603 ], [ 7.8345306620657, 62.591295552708246 ], [ 7.835454308453665, 62.590711908063561 ], [ 7.835368913693855, 62.590256684761151 ], [ 7.836184739718257, 62.590118320093168 ], [ 7.83646413260081, 62.589772027689961 ], [ 7.836207104582181, 62.589217810942891 ], [ 7.833461347363124, 62.58763388232947 ], [ 7.833419990479356, 62.586189093912523 ] ] } }
]
}
