{
"type": "FeatureCollection",
"name": "galtatind_21_wgs84",
"crs": { "type": "name", "properties": { "name": "urn:ogc:def:crs:OGC:1.3:CRS84" } },
"features": [
{ "type": "Feature", "properties": { "cat": 1 }, "geometry": { "type": "LineString", "coordinates": [ [ 7.817966455613596, 62.612804032754262 ], [ 7.816871449502353, 62.612477084571807 ], [ 7.815841374888737, 62.611882969243858 ], [ 7.816165890086457, 62.610547174099985 ], [ 7.82519218967978, 62.607225223663924 ], [ 7.826351901258229, 62.607284940010182 ], [ 7.826866964328362, 62.607581960168318 ], [ 7.829379718820791, 62.607711303852469 ], [ 7.829981178027752, 62.607652090225152 ], [ 7.831270430445628, 62.607177430941199 ], [ 7.832043579990441, 62.607217209332177 ], [ 7.833332781229059, 62.606742530287065 ], [ 7.833548557033215, 62.605851965432493 ], [ 7.8348376742657, 62.6053772713312 ], [ 7.834923963289649, 62.605021044207156 ], [ 7.835353654187734, 62.604862809723933 ], [ 7.835418365118759, 62.604595639066638 ], [ 7.837351898421279, 62.60388356558024 ], [ 7.837610651603541, 62.602814877825899 ], [ 7.837117121191391, 62.602428839677309 ], [ 7.837181809558635, 62.602161667892766 ], [ 7.835143125987348, 62.600884671335791 ], [ 7.835229394811822, 62.600528443743073 ], [ 7.833835324576158, 62.599014075472851 ], [ 7.834266689142248, 62.597232941286194 ], [ 7.834095032734526, 62.597133944310897 ], [ 7.834181300305814, 62.596777717345653 ], [ 7.833687910783833, 62.596391668974469 ], [ 7.833796634543099, 62.595134934757901 ], [ 7.833131636815668, 62.594649887518997 ], [ 7.833368873579612, 62.59367026488043 ], [ 7.833819968755042, 62.59342297627628 ], [ 7.834638462787682, 62.590850268189044 ], [ 7.83528268433838, 62.590612912988654 ], [ 7.835325799308966, 62.590434798885603 ], [ 7.836807380671031, 62.589970014717935 ], [ 7.836765070829501, 62.58933667728494 ], [ 7.835413690583046, 62.588455667360442 ], [ 7.835586127945467, 62.587743210394081 ], [ 7.83532913158644, 62.587188992456909 ], [ 7.833419990479356, 62.586189093912523 ] ] } }
]
}
