{
"type": "FeatureCollection",
"name": "galtatind_09_wgs84",
"crs": { "type": "name", "properties": { "name": "urn:ogc:def:crs:OGC:1.3:CRS84" } },
"features": [
{ "type": "Feature", "properties": { "cat": 1 }, "geometry": { "type": "LineString", "coordinates": [ [ 7.817966455613596, 62.612804032754262 ], [ 7.817086397278342, 62.612397996705432 ], [ 7.817627156211477, 62.610171664859209 ], [ 7.823214932378308, 62.608115230602813 ], [ 7.82555602314803, 62.608145632497461 ], [ 7.826951163544832, 62.608848635217235 ], [ 7.831203713790702, 62.609067498115841 ], [ 7.833567392873229, 62.608197260285763 ], [ 7.833675285792866, 62.607751977789157 ], [ 7.835523642127285, 62.60658470825274 ], [ 7.83591275247587, 62.604170231975971 ], [ 7.836557260548642, 62.603932874799597 ], [ 7.836686654328227, 62.603398531954184 ], [ 7.836514955260464, 62.603299537378739 ], [ 7.837010115698004, 62.602062673997487 ], [ 7.835829856450585, 62.60128065423153 ], [ 7.834585826257793, 62.599954344659878 ], [ 7.834779935129287, 62.59915283332893 ], [ 7.835510598482407, 62.598559252069215 ], [ 7.835403623813547, 62.598193085572532 ], [ 7.835834879362179, 62.596411945045304 ], [ 7.834976604797898, 62.595916967808741 ], [ 7.834891207527361, 62.595461744186316 ], [ 7.832831498666256, 62.594273778045377 ], [ 7.832896203017223, 62.594006608460731 ], [ 7.832402874314457, 62.593620556368705 ], [ 7.832145893939787, 62.593066332790954 ], [ 7.832661691991216, 62.592551878646233 ], [ 7.833542286878877, 62.592146360815242 ], [ 7.834122730053855, 62.591364730539951 ], [ 7.834552222502987, 62.591206495815115 ], [ 7.834724700729311, 62.590494040477324 ], [ 7.836614203094061, 62.589960078619249 ], [ 7.836678861573291, 62.589692906650932 ], [ 7.836250211453393, 62.589039696442818 ], [ 7.833182831099522, 62.587168717714107 ], [ 7.833333752754776, 62.58654532082442 ], [ 7.833162159101748, 62.586446323553581 ], [ 7.833419990479356, 62.586189093912523 ] ] } }
]
}
