{
"type": "FeatureCollection",
"name": "galtatind_11_wgs84",
"crs": { "type": "name", "properties": { "name": "urn:ogc:def:crs:OGC:1.3:CRS84" } },
"features": [
{ "type": "Feature", "properties": { "cat": 1 }, "geometry": { "type": "LineString", "coordinates": [ [ 7.817966455613596, 62.612804032754262 ], [ 7.817429765189969, 62.612596033060797 ], [ 7.8180786395115, 62.609924432499923 ], [ 7.820012929940194, 62.609212609766793 ], [ 7.820507616223985, 62.608787261378488 ], [ 7.822441774478782, 62.608075403157919 ], [ 7.82315489591033, 62.605136607975844 ], [ 7.8228115720628, 62.604938586311349 ], [ 7.822747952941837, 62.604394303163154 ], [ 7.821889679526127, 62.603899245405643 ], [ 7.822213812490734, 62.602563430958973 ], [ 7.822643532253181, 62.602405236030428 ], [ 7.82272995640036, 62.602049018295943 ], [ 7.823374518905194, 62.601811722786827 ], [ 7.823914562893949, 62.599585356769673 ], [ 7.826277674088089, 62.598715234708912 ], [ 7.826600450369567, 62.59819085443489 ], [ 7.828104143625702, 62.597637114634601 ], [ 7.829135011770719, 62.59741968733659 ], [ 7.829199758008535, 62.597152520041348 ], [ 7.828706428560686, 62.596766454863975 ], [ 7.829350827431804, 62.596529129498158 ], [ 7.829715682122768, 62.596638078521408 ], [ 7.829930479339713, 62.596558968809475 ], [ 7.830274743234483, 62.595945522854613 ], [ 7.829244946802455, 62.595351510283159 ], [ 7.829309686340015, 62.595084342844011 ], [ 7.830168826460023, 62.594767903846488 ], [ 7.830534637380775, 62.594065400846389 ], [ 7.831823276513538, 62.593590728073082 ], [ 7.832059615655337, 62.593422558354412 ], [ 7.832210601114697, 62.592799163562134 ], [ 7.833305966620745, 62.592314533305249 ], [ 7.833672552388864, 62.590800569685236 ], [ 7.835583649072417, 62.590177565496489 ], [ 7.835970006323153, 62.590197440310703 ], [ 7.836399471975226, 62.590039199529336 ], [ 7.836357170848885, 62.589405862091539 ], [ 7.833847669787646, 62.587653762550232 ], [ 7.833956330993115, 62.586397027325113 ], [ 7.833419990479356, 62.586189093912523 ] ] } }
]
}
