{
"type": "FeatureCollection",
"name": "galtatind_16_wgs84",
"crs": { "type": "name", "properties": { "name": "urn:ogc:def:crs:OGC:1.3:CRS84" } },
"features": [
{ "type": "Feature", "properties": { "cat": 1 }, "geometry": { "type": "LineString", "coordinates": [ [ 7.817966455613596, 62.612804032754262 ], [ 7.816936347576809, 62.612209925057094 ], [ 7.81741222635822, 62.610250753803747 ], [ 7.819604717448303, 62.609281741286274 ], [ 7.819862876293087, 62.609024541211589 ], [ 7.823279761370684, 62.60784806719353 ], [ 7.825792518549258, 62.607977475540636 ], [ 7.827574247603215, 62.608700377131534 ], [ 7.828734022793387, 62.608760074537223 ], [ 7.829765278787668, 62.608542647873591 ], [ 7.833224887827959, 62.607187812513466 ], [ 7.833461332551822, 62.607019641863843 ], [ 7.833720260198943, 62.605950963715053 ], [ 7.834794528874141, 62.605555384861113 ], [ 7.835311374589764, 62.604229472289575 ], [ 7.83595588861925, 62.60399211797354 ], [ 7.836557260548642, 62.603932874799597 ], [ 7.836665089064649, 62.603487589108482 ], [ 7.836493389573779, 62.603388594500743 ], [ 7.836687475478563, 62.60258708021 ], [ 7.836902298904588, 62.602507960116867 ], [ 7.837010115698004, 62.602062673997487 ], [ 7.836838422976556, 62.601963679906298 ], [ 7.837485259512552, 62.599291961348399 ], [ 7.837356699215109, 62.599014853352493 ], [ 7.835961753244256, 62.598311957351285 ], [ 7.836069564816336, 62.597866671882464 ], [ 7.835640821616673, 62.597213458547564 ], [ 7.835705508850219, 62.596946287428317 ], [ 7.832787448343262, 62.595263341557562 ], [ 7.832830586808694, 62.595085228549017 ], [ 7.832337241929978, 62.594699176005385 ], [ 7.833693233051823, 62.591522963879513 ], [ 7.834380598713874, 62.59110749963434 ], [ 7.83448840081689, 62.590662215249758 ], [ 7.835583649072417, 62.590177565496489 ], [ 7.835970006323153, 62.590197440310703 ], [ 7.836614203094061, 62.589960078619249 ], [ 7.836678861573291, 62.589692906650932 ], [ 7.836507238952568, 62.589593913103606 ], [ 7.836593449899405, 62.589237683866685 ], [ 7.834190876370157, 62.587851755455311 ], [ 7.834255550792086, 62.587584584826921 ], [ 7.833762305543321, 62.587198538676148 ], [ 7.833956330993115, 62.586397027325113 ], [ 7.833419990479356, 62.586189093912523 ] ] } }
]
}
