{
"type": "FeatureCollection",
"name": "galtatind_22_wgs84",
"crs": { "type": "name", "properties": { "name": "urn:ogc:def:crs:OGC:1.3:CRS84" } },
"features": [
{ "type": "Feature", "properties": { "cat": 1 }, "geometry": { "type": "LineString", "coordinates": [ [ 7.817966455613596, 62.612804032754262 ], [ 7.81760145085562, 62.612695050944808 ], [ 7.817644712414187, 62.612516944326543 ], [ 7.817301343914455, 62.612318908492234 ], [ 7.817842084925041, 62.61009257556794 ], [ 7.81956147360525, 62.609459848755208 ], [ 7.820227845400715, 62.609133516618421 ], [ 7.820507616223985, 62.608787261378488 ], [ 7.822656675253685, 62.607996306066696 ], [ 7.823519830713443, 62.605245574301769 ], [ 7.823004841083736, 62.604948542783077 ], [ 7.823501776898429, 62.602900288757979 ], [ 7.823330125691182, 62.602801278603998 ], [ 7.823654178768771, 62.601465459716515 ], [ 7.823482535041631, 62.601366449851795 ], [ 7.823936162745571, 62.599496302059201 ], [ 7.826299266062325, 62.598626179524793 ], [ 7.826385632492339, 62.598269958734711 ], [ 7.829135011770719, 62.59741968733659 ], [ 7.829199758008535, 62.597152520041348 ], [ 7.828706428560686, 62.596766454863975 ], [ 7.830188431943205, 62.596301746807057 ], [ 7.830274743234483, 62.595945522854613 ], [ 7.829931473202916, 62.595747519447201 ], [ 7.830189418286119, 62.595490297339808 ], [ 7.830233556088368, 62.594500735842836 ], [ 7.830448336124757, 62.594421625098356 ], [ 7.830556212328376, 62.593976344769999 ], [ 7.830985761828086, 62.593818121811729 ], [ 7.831351540369559, 62.593115616224949 ], [ 7.833757040958199, 62.592067244619571 ], [ 7.834273659032047, 62.590741332739952 ], [ 7.836421025663483, 62.589950142254892 ], [ 7.83567069798965, 62.589009885290359 ], [ 7.833911476765627, 62.588198043212863 ], [ 7.833847669787646, 62.587653762550232 ], [ 7.833182831099522, 62.587168717714107 ], [ 7.832947445155805, 62.586525439381759 ], [ 7.832990566586508, 62.586347326087051 ], [ 7.833419990479356, 62.586189093912523 ] ] } }
]
}
