{
"type": "FeatureCollection",
"name": "galtatind_28_wgs84",
"crs": { "type": "name", "properties": { "name": "urn:ogc:def:crs:OGC:1.3:CRS84" } },
"features": [
{ "type": "Feature", "properties": { "cat": 1 }, "geometry": { "type": "LineString", "coordinates": [ [ 7.817966455613596, 62.612804032754262 ], [ 7.816743033926238, 62.612199959566915 ], [ 7.817175665338334, 62.610418895653652 ], [ 7.81956147360525, 62.609459848755208 ], [ 7.820056170622327, 62.609034502114696 ], [ 7.823064863297795, 62.607927165281652 ], [ 7.823302566178191, 62.606947566174675 ], [ 7.82396883965247, 62.60662121482293 ], [ 7.82424970847701, 62.605463504200024 ], [ 7.824464585217622, 62.605384403995039 ], [ 7.824831825603268, 62.603870472617906 ], [ 7.824338447845465, 62.603484391334959 ], [ 7.824619264686948, 62.60232667924997 ], [ 7.827841932773445, 62.601140126282289 ], [ 7.828808166600369, 62.601189869591352 ], [ 7.83052680120973, 62.600556997323054 ], [ 7.830827945456552, 62.60012166255882 ], [ 7.833169333070466, 62.599340477803139 ], [ 7.833212476753854, 62.599162364749617 ], [ 7.833856894196571, 62.598925018814391 ], [ 7.834222675960976, 62.598222505749661 ], [ 7.834652269593982, 62.598064272099201 ], [ 7.83618392704056, 62.590929771979468 ], [ 7.835669046987062, 62.590632788710494 ], [ 7.835755271789902, 62.590276560181955 ], [ 7.836635756066861, 62.589871021301839 ], [ 7.836678861573291, 62.589692906650932 ], [ 7.836507238952568, 62.589593913103606 ], [ 7.836508040402613, 62.588782461059168 ], [ 7.835843133275166, 62.588297427978922 ], [ 7.83590779409177, 62.58803025639881 ], [ 7.835414519922828, 62.587644215700088 ], [ 7.835500736780935, 62.587287987217543 ], [ 7.833419990479356, 62.586189093912523 ] ] } }
]
}
