{
"type": "FeatureCollection",
"name": "galtatind_14_wgs84",
"crs": { "type": "name", "properties": { "name": "urn:ogc:def:crs:OGC:1.3:CRS84" } },
"features": [
{ "type": "Feature", "properties": { "cat": 1 }, "geometry": { "type": "LineString", "coordinates": [ [ 7.817966455613596, 62.612804032754262 ], [ 7.817236448818549, 62.612586068217311 ], [ 7.816549720422703, 62.612189993810816 ], [ 7.817197295365272, 62.610329842401526 ], [ 7.817906967672286, 62.609825415391214 ], [ 7.819841255455675, 62.609113595002597 ], [ 7.820099410716723, 62.608856394441126 ], [ 7.822055196410258, 62.608055487840275 ], [ 7.822509043389736, 62.606185347712334 ], [ 7.822165712260408, 62.605987324359148 ], [ 7.822468252772421, 62.60474056386375 ], [ 7.821438322243386, 62.604146491822583 ], [ 7.82171925992372, 62.602988787228661 ], [ 7.822363851140556, 62.602751496783249 ], [ 7.822407065821334, 62.602573388045109 ], [ 7.823481354570823, 62.602177896606818 ], [ 7.823936162745571, 62.599496302059201 ], [ 7.826299266062325, 62.598626179524793 ], [ 7.826364041104869, 62.598359013940282 ], [ 7.829135011770719, 62.59741968733659 ], [ 7.829199758008535, 62.597152520041348 ], [ 7.828706428560686, 62.596766454863975 ], [ 7.829350827431804, 62.596529129498158 ], [ 7.829715682122768, 62.596638078521408 ], [ 7.830188431943205, 62.596301746807057 ], [ 7.830274743234483, 62.595945522854613 ], [ 7.829244946802455, 62.595351510283159 ], [ 7.828150442892678, 62.595024657473786 ], [ 7.82763557673591, 62.59472764473108 ], [ 7.828731087977665, 62.59424305240919 ], [ 7.829440165168836, 62.593738558592229 ], [ 7.833091209549206, 62.592393648765253 ], [ 7.833457807482418, 62.59087968587616 ], [ 7.835583649072417, 62.590177565496489 ], [ 7.835970006323153, 62.590197440310703 ], [ 7.836421025663483, 62.589950142254892 ], [ 7.836507238952568, 62.589593913103606 ], [ 7.836207104582181, 62.589217810942891 ], [ 7.834855746447052, 62.588336795911125 ], [ 7.835006640575227, 62.587713396836982 ], [ 7.834878146834185, 62.587436287454132 ], [ 7.834191738087094, 62.587040304242699 ], [ 7.834299524314489, 62.586595019782486 ], [ 7.833419990479356, 62.586189093912523 ] ] } }
]
}
