{
"type": "FeatureCollection",
"name": "galtatind_29_wgs84",
"crs": { "type": "name", "properties": { "name": "urn:ogc:def:crs:OGC:1.3:CRS84" } },
"features": [
{ "type": "Feature", "properties": { "cat": 1 }, "geometry": { "type": "LineString", "coordinates": [ [ 7.817966455613596, 62.612804032754262 ], [ 7.817408133767223, 62.612685086329485 ], [ 7.816378041173404, 62.612090974719756 ], [ 7.81683232346017, 62.610220859026946 ], [ 7.81981963447133, 62.609202648788219 ], [ 7.819884496983558, 62.608935487415195 ], [ 7.821432100090478, 62.608203721103621 ], [ 7.822511470496056, 62.604562455135643 ], [ 7.821653196434868, 62.604067395914171 ], [ 7.821912515808402, 62.602998745034967 ], [ 7.823459750885542, 62.602266951193947 ], [ 7.823914562893949, 62.599585356769673 ], [ 7.826707315864478, 62.598557026193234 ], [ 7.826772087050673, 62.598289860366521 ], [ 7.829178176075887, 62.597241575811786 ], [ 7.828684845506539, 62.596855510542838 ], [ 7.828749594229113, 62.596588343490104 ], [ 7.827376554467359, 62.595796310322733 ], [ 7.827549238325835, 62.595083866680781 ], [ 7.827377616860087, 62.594984861912494 ], [ 7.82763557673591, 62.59472764473108 ], [ 7.827463956960563, 62.594628640092068 ], [ 7.827915115250251, 62.594381371455093 ], [ 7.828001446691619, 62.594025149183125 ], [ 7.828431010042594, 62.593866934284748 ], [ 7.828517333411908, 62.593510711582724 ], [ 7.828732110516708, 62.593431603441793 ], [ 7.828841025158, 62.592174875686261 ], [ 7.835369747471308, 62.589445233165783 ], [ 7.833825237534494, 62.588554270406249 ], [ 7.833954595502625, 62.588019929584043 ], [ 7.833461347363124, 62.58763388232947 ], [ 7.833526027733903, 62.58736671212052 ], [ 7.833011234489111, 62.587069720217322 ], [ 7.833205279101819, 62.586268210172896 ], [ 7.833419990479356, 62.586189093912523 ] ] } }
]
}
