{
"type": "FeatureCollection",
"name": "galtatind_38_wgs84",
"crs": { "type": "name", "properties": { "name": "urn:ogc:def:crs:OGC:1.3:CRS84" } },
"features": [
{ "type": "Feature", "properties": { "cat": 1 }, "geometry": { "type": "LineString", "coordinates": [ [ 7.817966455613596, 62.612804032754262 ], [ 7.81760145085562, 62.612695050944808 ], [ 7.818120550747305, 62.610557770106347 ], [ 7.818378734128268, 62.61030057311411 ], [ 7.819883204367259, 62.609746932594128 ], [ 7.820141365140229, 62.609489732030553 ], [ 7.820786113284985, 62.609252451022392 ], [ 7.822268872470299, 62.608787837472846 ], [ 7.823042048603318, 62.608827666124675 ], [ 7.824072168722995, 62.609421728899711 ], [ 7.831396035613112, 62.609888892936567 ], [ 7.833759776324704, 62.609018652687809 ], [ 7.833997137890373, 62.60803903072037 ], [ 7.834663322163424, 62.607712627069432 ], [ 7.834857493219141, 62.606911116495333 ], [ 7.835502070447804, 62.606673765138979 ], [ 7.836062886473915, 62.604358284356138 ], [ 7.836685831708452, 62.604209983676419 ], [ 7.837181809558635, 62.602161667892766 ], [ 7.836709858778271, 62.60168657126313 ], [ 7.837356699215109, 62.599014853352493 ], [ 7.835790085025786, 62.598212962302114 ], [ 7.835919461010297, 62.597678619917161 ], [ 7.835640821616673, 62.597213458547564 ], [ 7.835705508850219, 62.596946287428317 ], [ 7.836135075932007, 62.596788048847309 ], [ 7.836329116837719, 62.595986534426793 ], [ 7.836758666480171, 62.595828293686587 ], [ 7.83684489734841, 62.595472064572213 ], [ 7.836673241946503, 62.595373070784085 ], [ 7.837643196802207, 62.591365488799923 ], [ 7.836741924959898, 62.591048638845471 ], [ 7.835733715808816, 62.590365617322121 ], [ 7.836184739718257, 62.590118320093168 ], [ 7.836571096709283, 62.590138193238047 ], [ 7.837430015526961, 62.58982170647873 ], [ 7.838076463974148, 62.58714997979358 ], [ 7.835716268679435, 62.58639741563654 ], [ 7.833419990479356, 62.586189093912523 ] ] } }
]
}
