{
"type": "FeatureCollection",
"name": "galtatind_06_wgs84",
"crs": { "type": "name", "properties": { "name": "urn:ogc:def:crs:OGC:1.3:CRS84" } },
"features": [
{ "type": "Feature", "properties": { "cat": 1 }, "geometry": { "type": "LineString", "coordinates": [ [ 7.817966455613596, 62.612804032754262 ], [ 7.816914715032354, 62.612298978234072 ], [ 7.817390597048141, 62.610339807098981 ], [ 7.819776392061806, 62.609380756343377 ], [ 7.819862876293087, 62.609024541211589 ], [ 7.822635063733358, 62.608085360417945 ], [ 7.824031307544442, 62.607976944558025 ], [ 7.825964207050477, 62.608076483170819 ], [ 7.826822666650673, 62.608571518384188 ], [ 7.82720925547973, 62.608591420634575 ], [ 7.827552650163724, 62.60878943243624 ], [ 7.831611898408637, 62.608998332271092 ], [ 7.833116062840465, 62.608444544862152 ], [ 7.83356830799296, 62.607385809851678 ], [ 7.83399804096008, 62.607227580119051 ], [ 7.834062770603169, 62.606960410347405 ], [ 7.835373501215013, 62.60639665519917 ], [ 7.83591275247587, 62.604170231975971 ], [ 7.836557260548642, 62.603932874799597 ], [ 7.837010115698004, 62.602062673997487 ], [ 7.835979976456706, 62.601468706511994 ], [ 7.834585826257793, 62.599954344659878 ], [ 7.834779935129287, 62.59915283332893 ], [ 7.835510598482407, 62.598559252069215 ], [ 7.835403623813547, 62.598193085572532 ], [ 7.835878001694319, 62.596233830874823 ], [ 7.835041294418979, 62.595649797029175 ], [ 7.834934333761629, 62.595283630360363 ], [ 7.833561183068977, 62.594491656582434 ], [ 7.833992480826695, 62.592710522310448 ], [ 7.834421993898469, 62.592552288268656 ], [ 7.834939439522308, 62.590414922251554 ], [ 7.835583649072417, 62.590177565496489 ], [ 7.836184739718257, 62.590118320093168 ], [ 7.83646413260081, 62.589772027689961 ], [ 7.83567069798965, 62.589009885290359 ], [ 7.833782991512723, 62.587920932936782 ], [ 7.833763177818966, 62.586387087608777 ], [ 7.833419990479356, 62.586189093912523 ] ] } }
]
}
