{
"type": "FeatureCollection",
"name": "galtatind_07_wgs84",
"crs": { "type": "name", "properties": { "name": "urn:ogc:def:crs:OGC:1.3:CRS84" } },
"features": [
{ "type": "Feature", "properties": { "cat": 1 }, "geometry": { "type": "LineString", "coordinates": [ [ 7.817966455613596, 62.612804032754262 ], [ 7.817429765189969, 62.612596033060797 ], [ 7.818185432280282, 62.610290609783782 ], [ 7.819474984155758, 62.609816063628571 ], [ 7.819969688670309, 62.609390717397403 ], [ 7.822741907863918, 62.608451534914266 ], [ 7.823901661031753, 62.608511272201149 ], [ 7.824760097489882, 62.609006319793103 ], [ 7.830924063728453, 62.609413776451071 ], [ 7.833695951842166, 62.608474371749267 ], [ 7.834168854793944, 62.608138028637057 ], [ 7.83423358541722, 62.607870858800183 ], [ 7.835780787070687, 62.607138927824685 ], [ 7.836233753017805, 62.605268731070012 ], [ 7.835933476185583, 62.60489262639652 ], [ 7.836062886473915, 62.604358284356138 ], [ 7.836685831708452, 62.604209983676419 ], [ 7.837244885916165, 62.603517399986707 ], [ 7.837438952632876, 62.60271588438922 ], [ 7.837117121191391, 62.602428839677309 ], [ 7.837181809558635, 62.602161667892766 ], [ 7.836666731394279, 62.60186468561924 ], [ 7.836108532974012, 62.601745815723604 ], [ 7.83570130429348, 62.601003544822014 ], [ 7.834714364000257, 62.600231454902101 ], [ 7.834585826257793, 62.599954344659878 ], [ 7.834779935129287, 62.59915283332893 ], [ 7.835510598482407, 62.598559252069215 ], [ 7.835403623813547, 62.598193085572532 ], [ 7.835812483751409, 62.59731245369791 ], [ 7.835683946585527, 62.597035344473419 ], [ 7.833624099936112, 62.595847388169283 ], [ 7.833710368411696, 62.595491161506452 ], [ 7.83285215582162, 62.594996172036737 ], [ 7.832745224147073, 62.594630004083257 ], [ 7.832939338518644, 62.593828495377522 ], [ 7.833626770023622, 62.593413035749727 ], [ 7.833691464856681, 62.593145865665619 ], [ 7.834120985930376, 62.59298763266046 ], [ 7.834486679214685, 62.592285117685172 ], [ 7.834916183439447, 62.592126882000152 ], [ 7.835368913693855, 62.590256684761151 ], [ 7.836399471975226, 62.590039199529336 ], [ 7.83646413260081, 62.589772027689961 ], [ 7.836292510272876, 62.589673033882278 ], [ 7.836378724081434, 62.589316804817258 ], [ 7.834447856272346, 62.588405975265268 ], [ 7.833461347363124, 62.58763388232947 ], [ 7.833419990479356, 62.586189093912523 ] ] } }
]
}
