{
"type": "FeatureCollection",
"name": "galtatind_26_wgs84",
"crs": { "type": "name", "properties": { "name": "urn:ogc:def:crs:OGC:1.3:CRS84" } },
"features": [
{ "type": "Feature", "properties": { "cat": 1 }, "geometry": { "type": "LineString", "coordinates": [ [ 7.817966455613596, 62.612804032754262 ], [ 7.816399675133564, 62.612001921645295 ], [ 7.816853954332784, 62.610131805839565 ], [ 7.819841255455675, 62.609113595002597 ], [ 7.820572471404057, 62.608520099585327 ], [ 7.821861907596323, 62.608045529782672 ], [ 7.822272544669415, 62.606353499057022 ], [ 7.821950825136368, 62.606066420880452 ], [ 7.822253375679554, 62.604819660988262 ], [ 7.822124938039113, 62.604542540633098 ], [ 7.821288283037108, 62.603958424995625 ], [ 7.821612443834729, 62.602622612326684 ], [ 7.823374518905194, 62.601811722786827 ], [ 7.823892962895576, 62.59967441147478 ], [ 7.826277674088089, 62.598715234708912 ], [ 7.826622040894293, 62.598101799180895 ], [ 7.829135011770719, 62.59741968733659 ], [ 7.829286084272946, 62.596796296905993 ], [ 7.829930479339713, 62.596558968809475 ], [ 7.830188431943205, 62.596301746807057 ], [ 7.830274743234483, 62.595945522854613 ], [ 7.828708482549616, 62.595143557060062 ], [ 7.82883796879257, 62.594609222747223 ], [ 7.82849472348073, 62.594411216139221 ], [ 7.828537886079385, 62.594233104787925 ], [ 7.832640124657274, 62.592640935152545 ], [ 7.833049878952157, 62.590948860616315 ], [ 7.833694114939364, 62.590711512953526 ], [ 7.834295219728846, 62.590652275889958 ], [ 7.835583649072417, 62.590177565496489 ], [ 7.835970006323153, 62.590197440310703 ], [ 7.836399471975226, 62.590039199529336 ], [ 7.836571897382275, 62.589326741183925 ], [ 7.836421830107371, 62.589138690252639 ], [ 7.835048912740209, 62.588346734292536 ], [ 7.834577202241856, 62.587871633701418 ], [ 7.833054356539149, 62.586891606911593 ], [ 7.833419990479356, 62.586189093912523 ] ] } }
]
}
