{
"type": "FeatureCollection",
"name": "galtatind_12_wgs84",
"crs": { "type": "name", "properties": { "name": "urn:ogc:def:crs:OGC:1.3:CRS84" } },
"features": [
{ "type": "Feature", "properties": { "cat": 1 }, "geometry": { "type": "LineString", "coordinates": [ [ 7.817966455613596, 62.612804032754262 ], [ 7.81760145085562, 62.612695050944808 ], [ 7.818421986608952, 62.610122466130058 ], [ 7.819926446812669, 62.609568825006519 ], [ 7.820012929940194, 62.609212609766793 ], [ 7.823236542189291, 62.608026176138424 ], [ 7.824267810024228, 62.607808790282952 ], [ 7.826393989368037, 62.607918277540769 ], [ 7.827424147830203, 62.608512316083186 ], [ 7.828777210394045, 62.608581963459436 ], [ 7.829830050100334, 62.608275480635385 ], [ 7.830689576333195, 62.607959043704085 ], [ 7.830840684197995, 62.607335652088814 ], [ 7.831270430445628, 62.607177430941199 ], [ 7.831850292384217, 62.607207265133241 ], [ 7.833354359469342, 62.606653473825723 ], [ 7.833526980112651, 62.605941021942066 ], [ 7.834816101643219, 62.605466328098842 ], [ 7.834880819070864, 62.6051991577799 ], [ 7.835310512834142, 62.6050409234687 ], [ 7.835526213738938, 62.604150354530717 ], [ 7.836557260548642, 62.603932874799597 ], [ 7.837031678617131, 62.60197361675754 ], [ 7.835829856450585, 62.60128065423153 ], [ 7.835916118507078, 62.600924426122191 ], [ 7.834714364000257, 62.600231454902101 ], [ 7.834757500071069, 62.600053341267326 ], [ 7.834414153583495, 62.599855347856554 ], [ 7.834780800899664, 62.598341382194 ], [ 7.834437473346885, 62.598143389097629 ], [ 7.834459912955615, 62.597242881267817 ], [ 7.83383799428916, 62.596579723065901 ], [ 7.833989844529516, 62.595144875202479 ], [ 7.833303276081398, 62.594748885447288 ], [ 7.834035607379828, 62.592532408765457 ], [ 7.834315049637911, 62.592186121345101 ], [ 7.834744553276847, 62.592027886180752 ], [ 7.835024827972327, 62.590870145730769 ], [ 7.835454308453665, 62.590711908063561 ], [ 7.835540536118507, 62.590355679706946 ], [ 7.836614203094061, 62.589960078619249 ], [ 7.836678861573291, 62.589692906650932 ], [ 7.836421830107371, 62.589138690252639 ], [ 7.834534087504341, 62.588049747577465 ], [ 7.834835034698648, 62.587614401458929 ], [ 7.833633825423385, 62.586921428331848 ], [ 7.833720060939425, 62.586565201204564 ], [ 7.833376871909902, 62.586367207379176 ], [ 7.833419990479356, 62.586189093912523 ] ] } }
]
}
