{
"type": "FeatureCollection",
"name": "galtatind_30_wgs84",
"crs": { "type": "name", "properties": { "name": "urn:ogc:def:crs:OGC:1.3:CRS84" } },
"features": [
{ "type": "Feature", "properties": { "cat": 1 }, "geometry": { "type": "LineString", "coordinates": [ [ 7.817966455613596, 62.612804032754262 ], [ 7.81760145085562, 62.612695050944808 ], [ 7.817644712414187, 62.612516944326543 ], [ 7.817301343914455, 62.612318908492234 ], [ 7.817777200854886, 62.610359735696271 ], [ 7.819926446812669, 62.609568825006519 ], [ 7.819969688670309, 62.609390717397403 ], [ 7.823193322420458, 62.608204285061838 ], [ 7.825126233146926, 62.608303835440537 ], [ 7.825984684759744, 62.608798875702377 ], [ 7.831418599405866, 62.608988387318753 ], [ 7.833352518655137, 62.608276374548645 ], [ 7.833438836150099, 62.607920148734145 ], [ 7.833868577714727, 62.607761919517699 ], [ 7.834492494713363, 62.606802178970526 ], [ 7.834922214265277, 62.606643946207541 ], [ 7.835483074730591, 62.604328468361139 ], [ 7.835354514444322, 62.604051358523712 ], [ 7.834152651282895, 62.603358380989782 ], [ 7.834195796474123, 62.603180267654579 ], [ 7.833852418945123, 62.602982272439668 ], [ 7.834046572664151, 62.602180762747565 ], [ 7.833874889415601, 62.60208176513693 ], [ 7.834755759669918, 62.601676243406331 ], [ 7.834798898152202, 62.601498129792347 ], [ 7.834283855530574, 62.601201139201365 ], [ 7.834499551838191, 62.600310571778827 ], [ 7.834714364000257, 62.600231454902101 ], [ 7.834779935129287, 62.59915283332893 ], [ 7.835510598482407, 62.598559252069215 ], [ 7.835403623813547, 62.598193085572532 ], [ 7.835812483751409, 62.59731245369791 ], [ 7.835705508850219, 62.596946287428317 ], [ 7.835362190534206, 62.596748296733807 ], [ 7.835319911207653, 62.596114959290851 ], [ 7.83501973135844, 62.595738853961059 ], [ 7.835127545196283, 62.59529356924817 ], [ 7.83480581243407, 62.595006520540672 ], [ 7.834591902937429, 62.59427418691903 ], [ 7.835540536118507, 62.590355679706946 ], [ 7.83725838962182, 62.589722713811348 ], [ 7.837883304166305, 62.587140045695612 ], [ 7.835716268679435, 62.58639741563654 ], [ 7.834557347338552, 62.586337787923945 ], [ 7.834385750661166, 62.586238792117953 ], [ 7.833784736039116, 62.586298030802865 ], [ 7.833419990479356, 62.586189093912523 ] ] } }
]
}
