{
"type": "FeatureCollection",
"name": "galtatind_13_wgs84",
"crs": { "type": "name", "properties": { "name": "urn:ogc:def:crs:OGC:1.3:CRS84" } },
"features": [
{ "type": "Feature", "properties": { "cat": 1 }, "geometry": { "type": "LineString", "coordinates": [ [ 7.817966455613596, 62.612804032754262 ], [ 7.817258080664214, 62.612497014980981 ], [ 7.817798829025264, 62.610270682325542 ], [ 7.819754770636633, 62.60946981011287 ], [ 7.81981963447133, 62.609202648788219 ], [ 7.82239854985794, 62.608253511768893 ], [ 7.825126233146926, 62.608303835440537 ], [ 7.826156378501238, 62.608897883167224 ], [ 7.831182126884886, 62.609156554125825 ], [ 7.833739109190208, 62.60829625872352 ], [ 7.833890155288885, 62.607672862964655 ], [ 7.834534756939125, 62.607435516411854 ], [ 7.834664206408826, 62.606901176206833 ], [ 7.835137072331892, 62.606564829306272 ], [ 7.835719483034122, 62.604160293386258 ], [ 7.836772094294211, 62.603853755047872 ], [ 7.837181809558635, 62.602161667892766 ], [ 7.836688295159538, 62.60177562844386 ], [ 7.837356699215109, 62.599014853352493 ], [ 7.835103423540179, 62.59781698014686 ], [ 7.835039585274796, 62.597272699618117 ], [ 7.834352955022181, 62.596876714191801 ], [ 7.834095913646471, 62.596322493381905 ], [ 7.8332376712942, 62.595827505880621 ], [ 7.832937520822671, 62.595451396468498 ], [ 7.83302379606254, 62.59509517032226 ], [ 7.832745224147073, 62.594630004083257 ], [ 7.832917770841189, 62.593917551921798 ], [ 7.833412005632161, 62.593492151603805 ], [ 7.833800167737328, 62.591889131150147 ], [ 7.834229669618734, 62.591730897547855 ], [ 7.834337476847531, 62.591285613350678 ], [ 7.834766967020229, 62.591127377933219 ], [ 7.834917880972072, 62.590503979230505 ], [ 7.836421025663483, 62.589950142254892 ], [ 7.83567069798965, 62.589009885290359 ], [ 7.834104641757722, 62.588207982884917 ], [ 7.833461347363124, 62.58763388232947 ], [ 7.833526027733903, 62.58736671212052 ], [ 7.833182831099522, 62.587168717714107 ], [ 7.833247512687469, 62.586901547650648 ], [ 7.832925884220815, 62.586614496021063 ], [ 7.832990566586508, 62.586347326087051 ], [ 7.833419990479356, 62.586189093912523 ] ] } }
]
}
