{
"type": "FeatureCollection",
"name": "galtatind_08_wgs84",
"crs": { "type": "name", "properties": { "name": "urn:ogc:def:crs:OGC:1.3:CRS84" } },
"features": [
{ "type": "Feature", "properties": { "cat": 1 }, "geometry": { "type": "LineString", "coordinates": [ [ 7.817966455613596, 62.612804032754262 ], [ 7.816743033926238, 62.612199959566915 ], [ 7.817197295365272, 62.610329842401526 ], [ 7.81745548453738, 62.610072647197129 ], [ 7.822205259610677, 62.608243554167565 ], [ 7.82428941639893, 62.607719735608519 ], [ 7.826222300279619, 62.60781927043157 ], [ 7.827424147830203, 62.608512316083186 ], [ 7.828970505633071, 62.60859191202109 ], [ 7.829615165693007, 62.608354589001706 ], [ 7.830001754072745, 62.608374483506047 ], [ 7.834492494713363, 62.606802178970526 ], [ 7.834986933991923, 62.606376775871574 ], [ 7.83509566652222, 62.605120040797537 ], [ 7.835525358006644, 62.604961805793344 ], [ 7.835719483034122, 62.604160293386258 ], [ 7.836772094294211, 62.603853755047872 ], [ 7.837181809558635, 62.602161667892766 ], [ 7.835829856450585, 62.60128065423153 ], [ 7.835872987771888, 62.601102540187576 ], [ 7.834714364000257, 62.600231454902101 ], [ 7.835059436154824, 62.598806545224207 ], [ 7.834952466384307, 62.598440378448416 ], [ 7.83460913655386, 62.598242385743745 ], [ 7.834975748714245, 62.596728419082531 ], [ 7.83328080810222, 62.595649392710484 ], [ 7.833410215009796, 62.595115053071545 ], [ 7.833131636815668, 62.594649887518997 ], [ 7.833368873579612, 62.59367026488043 ], [ 7.833583639402464, 62.593591149112356 ], [ 7.833820850567721, 62.592611525352829 ], [ 7.834358173295124, 62.592008007660546 ], [ 7.834509101481963, 62.591384609596027 ], [ 7.834723847430317, 62.591305491800121 ], [ 7.834810086024373, 62.59094926404493 ], [ 7.835454308453665, 62.590711908063561 ], [ 7.835755271789902, 62.590276560181955 ], [ 7.836184739718257, 62.590118320093168 ], [ 7.83646413260081, 62.589772027689961 ], [ 7.83567069798965, 62.589009885290359 ], [ 7.834104641757722, 62.588207982884917 ], [ 7.834190876370157, 62.587851755455311 ], [ 7.833847669787646, 62.587653762550232 ], [ 7.833612266178332, 62.587010485100294 ], [ 7.833784736039116, 62.586298030802865 ], [ 7.833419990479356, 62.586189093912523 ] ] } }
]
}
