{
"type": "FeatureCollection",
"name": "galtatind_37_wgs84",
"crs": { "type": "name", "properties": { "name": "urn:ogc:def:crs:OGC:1.3:CRS84" } },
"features": [
{ "type": "Feature", "properties": { "cat": 1 }, "geometry": { "type": "LineString", "coordinates": [ [ 7.817966455613596, 62.612804032754262 ], [ 7.816571353959975, 62.612100940704003 ], [ 7.817003993829402, 62.61031987743818 ], [ 7.82046437870266, 62.608965369213763 ], [ 7.820594089503576, 62.60843104564352 ], [ 7.821238810577666, 62.608193762172974 ], [ 7.822296594836136, 62.604641552346301 ], [ 7.821438322243386, 62.604146491822583 ], [ 7.821805697294397, 62.60263257024792 ], [ 7.823352915237546, 62.60190077735772 ], [ 7.823892962895576, 62.59967441147478 ], [ 7.826685725175711, 62.598646081458078 ], [ 7.826750496801956, 62.598378915647459 ], [ 7.82872698300068, 62.597488848059314 ], [ 7.828900669450049, 62.595964953512784 ], [ 7.829545048991589, 62.595727626985209 ], [ 7.829588207725607, 62.595549515256685 ], [ 7.828343649767377, 62.595034605699816 ], [ 7.828537886079385, 62.594233104787925 ], [ 7.828774248851494, 62.594064940961147 ], [ 7.828560494216992, 62.593332600199552 ], [ 7.828668393664409, 62.592887321647808 ], [ 7.828883165758969, 62.592808213205707 ], [ 7.828733131573844, 62.592620154452433 ], [ 7.828905759549617, 62.591907708362221 ], [ 7.835369747471308, 62.589445233165783 ], [ 7.833825237534494, 62.588554270406249 ], [ 7.833954595502625, 62.588019929584043 ], [ 7.833311307902007, 62.587445828428592 ], [ 7.833548465855765, 62.58646620438973 ], [ 7.833419990479356, 62.586189093912523 ] ] } }
]
}
