{
"type": "FeatureCollection",
"name": "galtatind_19_wgs84",
"crs": { "type": "name", "properties": { "name": "urn:ogc:def:crs:OGC:1.3:CRS84" } },
"features": [
{ "type": "Feature", "properties": { "cat": 1 }, "geometry": { "type": "LineString", "coordinates": [ [ 7.817966455613596, 62.612804032754262 ], [ 7.817086397278342, 62.612397996705432 ], [ 7.817497382447098, 62.610705984808781 ], [ 7.817777200854886, 62.610359735696271 ], [ 7.822290485735448, 62.608698783202279 ], [ 7.823450247397356, 62.608758524358493 ], [ 7.82430868303331, 62.609253574717208 ], [ 7.830494282499836, 62.609571996054051 ], [ 7.831353840398038, 62.609255555461651 ], [ 7.831740441969508, 62.609275445326467 ], [ 7.833674372948168, 62.608563428254094 ], [ 7.833953982561918, 62.608217143853572 ], [ 7.834191329609705, 62.607237521355778 ], [ 7.834664206408826, 62.606901176206833 ], [ 7.835462361515716, 62.603606074015381 ], [ 7.836343257331984, 62.603200542607389 ], [ 7.836795295852609, 62.602141794305538 ], [ 7.835765158369634, 62.601547825257313 ], [ 7.835808290570141, 62.601369711245468 ], [ 7.835293239745059, 62.601072724270644 ], [ 7.835229394811822, 62.600528443743073 ], [ 7.834714364000257, 62.600231454902101 ], [ 7.834457290759912, 62.599677234329533 ], [ 7.835255222805166, 62.596382130215908 ], [ 7.835083567762452, 62.596283134475925 ], [ 7.835212945786066, 62.59574879277131 ], [ 7.833539616642898, 62.5945807132398 ], [ 7.833733709203587, 62.593779203130687 ], [ 7.834700574905056, 62.593017451284176 ], [ 7.835218010784304, 62.590880084103098 ], [ 7.835432751171399, 62.590800965139337 ], [ 7.835540536118507, 62.590355679706946 ], [ 7.836614203094061, 62.589960078619249 ], [ 7.836678861573291, 62.589692906650932 ], [ 7.836185550926983, 62.589306868184906 ], [ 7.836271764669418, 62.588950639184738 ], [ 7.835070468914468, 62.588257677260358 ], [ 7.835156692147476, 62.587901449078181 ], [ 7.834878146834185, 62.587436287454132 ], [ 7.834191738087094, 62.587040304242699 ], [ 7.834299524314489, 62.586595019782486 ], [ 7.833419990479356, 62.586189093912523 ] ] } }
]
}
