{
"type": "FeatureCollection",
"name": "galtatind_23_wgs84",
"crs": { "type": "name", "properties": { "name": "urn:ogc:def:crs:OGC:1.3:CRS84" } },
"features": [
{ "type": "Feature", "properties": { "cat": 1 }, "geometry": { "type": "LineString", "coordinates": [ [ 7.817966455613596, 62.612804032754262 ], [ 7.817773137661194, 62.612794068633015 ], [ 7.818550410232278, 62.610399589700243 ], [ 7.820098124128364, 62.609667839704379 ], [ 7.820141365140229, 62.609489732030553 ], [ 7.822483778978572, 62.608708740726328 ], [ 7.822870365905468, 62.608728654976808 ], [ 7.824072168722995, 62.609421728899711 ], [ 7.831417622552868, 62.609799836894133 ], [ 7.833781355382125, 62.608929596172104 ], [ 7.834125700311886, 62.608316141834869 ], [ 7.834555444222815, 62.60815791053426 ], [ 7.83464174686856, 62.607801683773118 ], [ 7.835952505050563, 62.607237923560334 ], [ 7.836448597507168, 62.605189611963183 ], [ 7.836169886687639, 62.604724450688352 ], [ 7.836277724646884, 62.60427916542632 ], [ 7.837115501511291, 62.604051743477477 ], [ 7.837546762347363, 62.602270597758832 ], [ 7.836688295159538, 62.60177562844386 ], [ 7.837356699215109, 62.599014853352493 ], [ 7.835961753244256, 62.598311957351285 ], [ 7.836069564816336, 62.597866671882464 ], [ 7.835726233747359, 62.597668681911081 ], [ 7.835812483751409, 62.59731245369791 ], [ 7.835640821616673, 62.597213458547564 ], [ 7.835834879362179, 62.596411945045304 ], [ 7.836329116837719, 62.595986534426793 ], [ 7.836007365175362, 62.595699488234843 ], [ 7.83607204493855, 62.595432316842626 ], [ 7.834698856507337, 62.594640353754997 ], [ 7.834356439760685, 62.593630909925452 ], [ 7.834485816205532, 62.593096568869967 ], [ 7.835151648970205, 62.592770158083283 ], [ 7.835388800198105, 62.591790530836818 ], [ 7.835947631614427, 62.591097949286123 ], [ 7.836012299217863, 62.590830777752295 ], [ 7.835669046987062, 62.590632788710494 ], [ 7.835755271789902, 62.590276560181955 ], [ 7.836614203094061, 62.589960078619249 ], [ 7.836678861573291, 62.589692906650932 ], [ 7.836035486220983, 62.589118816872748 ], [ 7.834662580300304, 62.588326857264057 ], [ 7.834791921977503, 62.587792515442331 ], [ 7.833783864512286, 62.587109481880809 ], [ 7.833633825423385, 62.586921428331848 ], [ 7.833784736039116, 62.586298030802865 ], [ 7.833419990479356, 62.586189093912523 ] ] } }
]
}
