{
"type": "FeatureCollection",
"name": "multi_path_smooth_loftskarstinden_16",
"crs": { "type": "name", "properties": { "name": "urn:ogc:def:crs:EPSG::25833" } },
"features": [
{ "type": "Feature", "properties": { "cat": 1 }, "geometry": { "type": "LineString", "coordinates": [ [ 132350.0, 6963820.0 ], [ 132360.0, 6963860.0 ], [ 132400.0, 6963900.0 ], [ 132400.0, 6963930.0 ], [ 132430.0, 6964010.0 ], [ 132500.0, 6964080.0 ], [ 132590.0, 6964120.0 ], [ 132630.0, 6964120.0 ], [ 132650.0, 6964140.0 ], [ 132730.0, 6964140.0 ], [ 132800.0, 6964050.0 ], [ 132800.0, 6963890.0 ], [ 132850.0, 6963820.0 ], [ 132850.0, 6963770.0 ], [ 132880.0, 6963740.0 ], [ 132880.0, 6963520.0 ], [ 132860.0, 6963500.0 ], [ 132860.0, 6963450.0 ], [ 132870.0, 6963440.0 ], [ 132890.0, 6963250.0 ], [ 132920.0, 6963220.0 ], [ 132930.0, 6962740.0 ], [ 132950.0, 6962720.0 ], [ 132950.0, 6962660.0 ], [ 132960.0, 6962650.0 ], [ 132960.0, 6962350.0 ], [ 132970.0, 6962340.0 ], [ 132970.0, 6962130.0 ], [ 132950.0, 6962070.0 ], [ 132950.0, 6962000.0 ], [ 132930.0, 6961960.0 ], [ 132860.0, 6961880.0 ], [ 132840.0, 6961740.0 ], [ 132810.0, 6961710.0 ], [ 132810.0, 6961680.0 ], [ 132780.0, 6961650.0 ], [ 132750.0, 6961640.0 ], [ 132740.0, 6961570.0 ], [ 132660.0, 6961460.0 ], [ 132650.0, 6961120.0 ], [ 132540.0, 6961000.0 ], [ 132540.0, 6960980.0 ], [ 132500.0, 6960940.0 ], [ 132500.0, 6960920.0 ], [ 132470.0, 6960880.0 ], [ 132470.0, 6960810.0 ], [ 132480.0, 6960800.0 ], [ 132470.0, 6960720.0 ], [ 132500.0, 6960690.0 ], [ 132520.0, 6960640.0 ], [ 132520.0, 6960590.0 ], [ 132550.0, 6960560.0 ], [ 132560.0, 6960400.0 ], [ 132620.0, 6960330.0 ], [ 132570.0, 6960230.0 ], [ 132490.0, 6960150.0 ], [ 132490.0, 6960130.0 ], [ 132470.0, 6960110.0 ], [ 132470.0, 6960060.0 ], [ 132450.0, 6960030.0 ], [ 132450.0, 6959950.0 ], [ 132420.0, 6959930.0 ] ] } }
]
}
