{
"type": "FeatureCollection",
"name": "multi_path_smooth_loftskarstinden_22",
"crs": { "type": "name", "properties": { "name": "urn:ogc:def:crs:EPSG::25833" } },
"features": [
{ "type": "Feature", "properties": { "cat": 1 }, "geometry": { "type": "LineString", "coordinates": [ [ 132350.0, 6963820.0 ], [ 132370.0, 6963880.0 ], [ 132400.0, 6963910.0 ], [ 132410.0, 6963970.0 ], [ 132440.0, 6964020.0 ], [ 132510.0, 6964090.0 ], [ 132610.0, 6964120.0 ], [ 132640.0, 6964150.0 ], [ 132740.0, 6964150.0 ], [ 132760.0, 6964130.0 ], [ 132770.0, 6964090.0 ], [ 132790.0, 6964070.0 ], [ 132800.0, 6963790.0 ], [ 132850.0, 6963740.0 ], [ 132860.0, 6963700.0 ], [ 132860.0, 6963590.0 ], [ 132840.0, 6963570.0 ], [ 132840.0, 6963330.0 ], [ 132850.0, 6963320.0 ], [ 132850.0, 6963170.0 ], [ 132870.0, 6963120.0 ], [ 132890.0, 6962740.0 ], [ 132900.0, 6962730.0 ], [ 132900.0, 6962680.0 ], [ 132950.0, 6962630.0 ], [ 132960.0, 6962590.0 ], [ 132960.0, 6962200.0 ], [ 132940.0, 6962130.0 ], [ 132920.0, 6961770.0 ], [ 132850.0, 6961700.0 ], [ 132800.0, 6961670.0 ], [ 132740.0, 6961590.0 ], [ 132740.0, 6961560.0 ], [ 132680.0, 6961500.0 ], [ 132660.0, 6961220.0 ], [ 132650.0, 6961210.0 ], [ 132650.0, 6960990.0 ], [ 132620.0, 6960960.0 ], [ 132570.0, 6960860.0 ], [ 132560.0, 6960690.0 ], [ 132590.0, 6960650.0 ], [ 132590.0, 6960480.0 ], [ 132580.0, 6960470.0 ], [ 132580.0, 6960430.0 ], [ 132590.0, 6960420.0 ], [ 132590.0, 6960370.0 ], [ 132640.0, 6960330.0 ], [ 132640.0, 6960270.0 ], [ 132510.0, 6960130.0 ], [ 132510.0, 6960060.0 ], [ 132470.0, 6960020.0 ], [ 132470.0, 6959970.0 ], [ 132420.0, 6959930.0 ] ] } }
]
}
