{
"type": "FeatureCollection",
"name": "multi_path_smooth_loftskarstinden_28",
"crs": { "type": "name", "properties": { "name": "urn:ogc:def:crs:EPSG::25833" } },
"features": [
{ "type": "Feature", "properties": { "cat": 1 }, "geometry": { "type": "LineString", "coordinates": [ [ 132350.0, 6963820.0 ], [ 132370.0, 6963880.0 ], [ 132400.0, 6963910.0 ], [ 132410.0, 6964020.0 ], [ 132500.0, 6964120.0 ], [ 132620.0, 6964120.0 ], [ 132650.0, 6964150.0 ], [ 132730.0, 6964150.0 ], [ 132760.0, 6964120.0 ], [ 132760.0, 6964090.0 ], [ 132790.0, 6964060.0 ], [ 132790.0, 6963840.0 ], [ 132800.0, 6963830.0 ], [ 132800.0, 6963780.0 ], [ 132830.0, 6963750.0 ], [ 132830.0, 6963340.0 ], [ 132810.0, 6963320.0 ], [ 132810.0, 6963230.0 ], [ 132730.0, 6963150.0 ], [ 132730.0, 6963050.0 ], [ 132710.0, 6963020.0 ], [ 132710.0, 6962980.0 ], [ 132680.0, 6962920.0 ], [ 132680.0, 6962540.0 ], [ 132700.0, 6962500.0 ], [ 132710.0, 6962320.0 ], [ 132740.0, 6962220.0 ], [ 132740.0, 6961900.0 ], [ 132670.0, 6961830.0 ], [ 132670.0, 6961810.0 ], [ 132650.0, 6961790.0 ], [ 132650.0, 6961700.0 ], [ 132640.0, 6961680.0 ], [ 132680.0, 6961640.0 ], [ 132660.0, 6961590.0 ], [ 132660.0, 6961460.0 ], [ 132650.0, 6961450.0 ], [ 132650.0, 6961360.0 ], [ 132680.0, 6961290.0 ], [ 132670.0, 6961250.0 ], [ 132670.0, 6961100.0 ], [ 132650.0, 6961080.0 ], [ 132640.0, 6961020.0 ], [ 132600.0, 6960980.0 ], [ 132600.0, 6960930.0 ], [ 132580.0, 6960910.0 ], [ 132580.0, 6960380.0 ], [ 132620.0, 6960330.0 ], [ 132610.0, 6960320.0 ], [ 132610.0, 6960260.0 ], [ 132590.0, 6960240.0 ], [ 132580.0, 6960180.0 ], [ 132530.0, 6960130.0 ], [ 132510.0, 6960050.0 ], [ 132460.0, 6960000.0 ], [ 132460.0, 6959960.0 ], [ 132420.0, 6959930.0 ] ] } }
]
}
