{
"type": "FeatureCollection",
"name": "multi_path_smooth_loftskarstinden_31",
"crs": { "type": "name", "properties": { "name": "urn:ogc:def:crs:EPSG::25833" } },
"features": [
{ "type": "Feature", "properties": { "cat": 1 }, "geometry": { "type": "LineString", "coordinates": [ [ 132350.0, 6963820.0 ], [ 132290.0, 6963760.0 ], [ 132220.0, 6963660.0 ], [ 132230.0, 6963620.0 ], [ 132220.0, 6963540.0 ], [ 132170.0, 6963490.0 ], [ 132150.0, 6963390.0 ], [ 132100.0, 6963310.0 ], [ 132090.0, 6963250.0 ], [ 132070.0, 6963230.0 ], [ 132060.0, 6963180.0 ], [ 132020.0, 6963110.0 ], [ 132020.0, 6963080.0 ], [ 131970.0, 6963020.0 ], [ 131960.0, 6962980.0 ], [ 131930.0, 6962950.0 ], [ 131880.0, 6962930.0 ], [ 131800.0, 6962850.0 ], [ 131800.0, 6962710.0 ], [ 132020.0, 6962500.0 ], [ 132040.0, 6962440.0 ], [ 132040.0, 6962250.0 ], [ 131990.0, 6962200.0 ], [ 131990.0, 6962160.0 ], [ 131970.0, 6962140.0 ], [ 131970.0, 6961990.0 ], [ 131990.0, 6961970.0 ], [ 131990.0, 6961840.0 ], [ 132100.0, 6961710.0 ], [ 132090.0, 6961470.0 ], [ 132150.0, 6961400.0 ], [ 132160.0, 6961330.0 ], [ 132220.0, 6961260.0 ], [ 132260.0, 6961260.0 ], [ 132310.0, 6961210.0 ], [ 132310.0, 6961080.0 ], [ 132300.0, 6961040.0 ], [ 132270.0, 6961000.0 ], [ 132270.0, 6960960.0 ], [ 132280.0, 6960950.0 ], [ 132270.0, 6960940.0 ], [ 132270.0, 6960860.0 ], [ 132280.0, 6960830.0 ], [ 132240.0, 6960790.0 ], [ 132250.0, 6960750.0 ], [ 132220.0, 6960720.0 ], [ 132230.0, 6960380.0 ], [ 132180.0, 6960320.0 ], [ 132220.0, 6960250.0 ], [ 132210.0, 6960240.0 ], [ 132210.0, 6960190.0 ], [ 132240.0, 6960160.0 ], [ 132240.0, 6960110.0 ], [ 132290.0, 6960060.0 ], [ 132300.0, 6960020.0 ], [ 132400.0, 6959930.0 ], [ 132420.0, 6959930.0 ] ] } }
]
}
