{
"type": "FeatureCollection",
"name": "multi_path_smooth_loftskarstinden_14",
"crs": { "type": "name", "properties": { "name": "urn:ogc:def:crs:EPSG::25833" } },
"features": [
{ "type": "Feature", "properties": { "cat": 1 }, "geometry": { "type": "LineString", "coordinates": [ [ 132350.0, 6963820.0 ], [ 132220.0, 6963650.0 ], [ 132230.0, 6963620.0 ], [ 132220.0, 6963540.0 ], [ 132160.0, 6963460.0 ], [ 132150.0, 6963390.0 ], [ 132100.0, 6963310.0 ], [ 132090.0, 6963250.0 ], [ 132070.0, 6963230.0 ], [ 132040.0, 6963130.0 ], [ 131970.0, 6963020.0 ], [ 131950.0, 6962960.0 ], [ 131910.0, 6962920.0 ], [ 131910.0, 6962670.0 ], [ 132000.0, 6962570.0 ], [ 132010.0, 6962540.0 ], [ 132130.0, 6962420.0 ], [ 132130.0, 6962090.0 ], [ 132110.0, 6962070.0 ], [ 132100.0, 6962010.0 ], [ 132050.0, 6961960.0 ], [ 132050.0, 6961810.0 ], [ 132070.0, 6961790.0 ], [ 132070.0, 6961750.0 ], [ 132100.0, 6961720.0 ], [ 132100.0, 6961470.0 ], [ 132210.0, 6961360.0 ], [ 132220.0, 6961300.0 ], [ 132290.0, 6961230.0 ], [ 132340.0, 6961200.0 ], [ 132340.0, 6961170.0 ], [ 132310.0, 6961130.0 ], [ 132340.0, 6961100.0 ], [ 132360.0, 6961110.0 ], [ 132370.0, 6961100.0 ], [ 132380.0, 6961030.0 ], [ 132320.0, 6960970.0 ], [ 132320.0, 6960940.0 ], [ 132360.0, 6960900.0 ], [ 132370.0, 6960820.0 ], [ 132430.0, 6960760.0 ], [ 132440.0, 6960740.0 ], [ 132440.0, 6960670.0 ], [ 132480.0, 6960620.0 ], [ 132480.0, 6960450.0 ], [ 132580.0, 6960360.0 ], [ 132600.0, 6960360.0 ], [ 132620.0, 6960330.0 ], [ 132610.0, 6960320.0 ], [ 132610.0, 6960270.0 ], [ 132520.0, 6960170.0 ], [ 132520.0, 6960090.0 ], [ 132510.0, 6960060.0 ], [ 132470.0, 6960020.0 ], [ 132470.0, 6959970.0 ], [ 132420.0, 6959930.0 ] ] } }
]
}
