{
"type": "FeatureCollection",
"name": "multi_path_smooth_loftskarstinden_01",
"crs": { "type": "name", "properties": { "name": "urn:ogc:def:crs:EPSG::25833" } },
"features": [
{ "type": "Feature", "properties": { "cat": 1 }, "geometry": { "type": "LineString", "coordinates": [ [ 132350.0, 6963820.0 ], [ 132230.0, 6963660.0 ], [ 132220.0, 6963540.0 ], [ 132180.0, 6963500.0 ], [ 132160.0, 6963460.0 ], [ 132150.0, 6963390.0 ], [ 132100.0, 6963310.0 ], [ 132090.0, 6963250.0 ], [ 132070.0, 6963230.0 ], [ 132040.0, 6963130.0 ], [ 132020.0, 6963110.0 ], [ 132020.0, 6963080.0 ], [ 131990.0, 6963050.0 ], [ 131950.0, 6962960.0 ], [ 131920.0, 6962930.0 ], [ 131920.0, 6962700.0 ], [ 131980.0, 6962640.0 ], [ 132010.0, 6962600.0 ], [ 132010.0, 6962580.0 ], [ 132130.0, 6962460.0 ], [ 132210.0, 6962460.0 ], [ 132280.0, 6962530.0 ], [ 132310.0, 6962540.0 ], [ 132550.0, 6962540.0 ], [ 132570.0, 6962530.0 ], [ 132710.0, 6962390.0 ], [ 132710.0, 6962310.0 ], [ 132740.0, 6962270.0 ], [ 132750.0, 6962160.0 ], [ 132770.0, 6962130.0 ], [ 132770.0, 6961900.0 ], [ 132810.0, 6961870.0 ], [ 132820.0, 6961720.0 ], [ 132810.0, 6961680.0 ], [ 132780.0, 6961650.0 ], [ 132750.0, 6961640.0 ], [ 132720.0, 6961560.0 ], [ 132660.0, 6961480.0 ], [ 132650.0, 6961450.0 ], [ 132650.0, 6961360.0 ], [ 132680.0, 6961290.0 ], [ 132670.0, 6961260.0 ], [ 132670.0, 6961190.0 ], [ 132680.0, 6961180.0 ], [ 132670.0, 6961040.0 ], [ 132710.0, 6960980.0 ], [ 132710.0, 6960940.0 ], [ 132700.0, 6960930.0 ], [ 132660.0, 6960930.0 ], [ 132640.0, 6960910.0 ], [ 132520.0, 6960920.0 ], [ 132490.0, 6960870.0 ], [ 132490.0, 6960800.0 ], [ 132440.0, 6960750.0 ], [ 132450.0, 6960730.0 ], [ 132440.0, 6960680.0 ], [ 132460.0, 6960640.0 ], [ 132530.0, 6960560.0 ], [ 132530.0, 6960500.0 ], [ 132580.0, 6960420.0 ], [ 132570.0, 6960370.0 ], [ 132620.0, 6960340.0 ], [ 132620.0, 6960310.0 ], [ 132600.0, 6960250.0 ], [ 132440.0, 6960090.0 ], [ 132420.0, 6959930.0 ] ] } }
]
}
