{
"type": "FeatureCollection",
"name": "multi_path_smooth_loftskarstinden_05",
"crs": { "type": "name", "properties": { "name": "urn:ogc:def:crs:EPSG::25833" } },
"features": [
{ "type": "Feature", "properties": { "cat": 1 }, "geometry": { "type": "LineString", "coordinates": [ [ 132350.0, 6963820.0 ], [ 132300.0, 6963760.0 ], [ 132300.0, 6963740.0 ], [ 132220.0, 6963650.0 ], [ 132230.0, 6963630.0 ], [ 132220.0, 6963540.0 ], [ 132170.0, 6963490.0 ], [ 132150.0, 6963390.0 ], [ 132100.0, 6963310.0 ], [ 132090.0, 6963260.0 ], [ 132070.0, 6963230.0 ], [ 132070.0, 6963200.0 ], [ 132040.0, 6963150.0 ], [ 132040.0, 6963130.0 ], [ 132020.0, 6963110.0 ], [ 132020.0, 6963080.0 ], [ 131970.0, 6963020.0 ], [ 131940.0, 6962950.0 ], [ 131940.0, 6962710.0 ], [ 131950.0, 6962700.0 ], [ 131950.0, 6962660.0 ], [ 132010.0, 6962600.0 ], [ 132010.0, 6962560.0 ], [ 132030.0, 6962530.0 ], [ 132130.0, 6962430.0 ], [ 132270.0, 6962430.0 ], [ 132360.0, 6962510.0 ], [ 132580.0, 6962500.0 ], [ 132700.0, 6962380.0 ], [ 132700.0, 6962280.0 ], [ 132740.0, 6962230.0 ], [ 132750.0, 6961920.0 ], [ 132800.0, 6961880.0 ], [ 132800.0, 6961820.0 ], [ 132790.0, 6961810.0 ], [ 132800.0, 6961670.0 ], [ 132750.0, 6961640.0 ], [ 132720.0, 6961560.0 ], [ 132660.0, 6961480.0 ], [ 132650.0, 6961450.0 ], [ 132650.0, 6961360.0 ], [ 132680.0, 6961290.0 ], [ 132670.0, 6961250.0 ], [ 132670.0, 6961190.0 ], [ 132680.0, 6961180.0 ], [ 132670.0, 6961110.0 ], [ 132520.0, 6960950.0 ], [ 132490.0, 6960870.0 ], [ 132490.0, 6960800.0 ], [ 132440.0, 6960750.0 ], [ 132450.0, 6960720.0 ], [ 132440.0, 6960670.0 ], [ 132530.0, 6960540.0 ], [ 132530.0, 6960500.0 ], [ 132550.0, 6960480.0 ], [ 132560.0, 6960440.0 ], [ 132590.0, 6960410.0 ], [ 132590.0, 6960370.0 ], [ 132620.0, 6960340.0 ], [ 132620.0, 6960310.0 ], [ 132570.0, 6960230.0 ], [ 132450.0, 6960110.0 ], [ 132430.0, 6960050.0 ], [ 132420.0, 6959930.0 ] ] } }
]
}
