{
"type": "FeatureCollection",
"name": "multi_path_smooth_loftskarstinden_08",
"crs": { "type": "name", "properties": { "name": "urn:ogc:def:crs:EPSG::25833" } },
"features": [
{ "type": "Feature", "properties": { "cat": 1 }, "geometry": { "type": "LineString", "coordinates": [ [ 132350.0, 6963820.0 ], [ 132310.0, 6963750.0 ], [ 132230.0, 6963670.0 ], [ 132220.0, 6963650.0 ], [ 132230.0, 6963620.0 ], [ 132220.0, 6963540.0 ], [ 132170.0, 6963490.0 ], [ 132150.0, 6963390.0 ], [ 132100.0, 6963310.0 ], [ 132090.0, 6963260.0 ], [ 132070.0, 6963230.0 ], [ 132070.0, 6963200.0 ], [ 132040.0, 6963150.0 ], [ 132040.0, 6963130.0 ], [ 132020.0, 6963110.0 ], [ 132020.0, 6963080.0 ], [ 131970.0, 6963020.0 ], [ 131960.0, 6962980.0 ], [ 131900.0, 6962920.0 ], [ 131900.0, 6962700.0 ], [ 132010.0, 6962580.0 ], [ 132010.0, 6962560.0 ], [ 132160.0, 6962410.0 ], [ 132310.0, 6962400.0 ], [ 132360.0, 6962450.0 ], [ 132380.0, 6962450.0 ], [ 132400.0, 6962470.0 ], [ 132620.0, 6962470.0 ], [ 132730.0, 6962360.0 ], [ 132730.0, 6962330.0 ], [ 132800.0, 6962240.0 ], [ 132800.0, 6962030.0 ], [ 132780.0, 6961990.0 ], [ 132780.0, 6961930.0 ], [ 132810.0, 6961910.0 ], [ 132820.0, 6961870.0 ], [ 132820.0, 6961720.0 ], [ 132810.0, 6961680.0 ], [ 132730.0, 6961590.0 ], [ 132730.0, 6961570.0 ], [ 132660.0, 6961480.0 ], [ 132660.0, 6961320.0 ], [ 132650.0, 6961280.0 ], [ 132630.0, 6961260.0 ], [ 132630.0, 6961090.0 ], [ 132530.0, 6960980.0 ], [ 132530.0, 6960920.0 ], [ 132510.0, 6960870.0 ], [ 132510.0, 6960760.0 ], [ 132520.0, 6960750.0 ], [ 132520.0, 6960640.0 ], [ 132540.0, 6960570.0 ], [ 132540.0, 6960500.0 ], [ 132550.0, 6960490.0 ], [ 132550.0, 6960450.0 ], [ 132580.0, 6960420.0 ], [ 132590.0, 6960370.0 ], [ 132610.0, 6960350.0 ], [ 132620.0, 6960310.0 ], [ 132570.0, 6960230.0 ], [ 132480.0, 6960150.0 ], [ 132480.0, 6960110.0 ], [ 132460.0, 6960090.0 ], [ 132440.0, 6960020.0 ], [ 132440.0, 6959940.0 ], [ 132420.0, 6959930.0 ] ] } }
]
}
