{
"type": "FeatureCollection",
"name": "multi_path_smooth_loftskarstinden_04",
"crs": { "type": "name", "properties": { "name": "urn:ogc:def:crs:EPSG::25833" } },
"features": [
{ "type": "Feature", "properties": { "cat": 1 }, "geometry": { "type": "LineString", "coordinates": [ [ 132350.0, 6963820.0 ], [ 132360.0, 6963860.0 ], [ 132400.0, 6963900.0 ], [ 132430.0, 6964020.0 ], [ 132510.0, 6964100.0 ], [ 132620.0, 6964120.0 ], [ 132640.0, 6964140.0 ], [ 132740.0, 6964140.0 ], [ 132760.0, 6964120.0 ], [ 132760.0, 6964090.0 ], [ 132810.0, 6964040.0 ], [ 132800.0, 6963860.0 ], [ 132850.0, 6963800.0 ], [ 132850.0, 6963770.0 ], [ 132880.0, 6963740.0 ], [ 132890.0, 6963510.0 ], [ 132970.0, 6963410.0 ], [ 132970.0, 6963290.0 ], [ 132990.0, 6963260.0 ], [ 132990.0, 6963000.0 ], [ 132970.0, 6962980.0 ], [ 132970.0, 6962860.0 ], [ 132980.0, 6962850.0 ], [ 132980.0, 6962450.0 ], [ 132960.0, 6962420.0 ], [ 132960.0, 6962200.0 ], [ 132950.0, 6962190.0 ], [ 132950.0, 6962120.0 ], [ 132940.0, 6962110.0 ], [ 132940.0, 6961990.0 ], [ 132860.0, 6961900.0 ], [ 132860.0, 6961880.0 ], [ 132830.0, 6961840.0 ], [ 132830.0, 6961740.0 ], [ 132810.0, 6961710.0 ], [ 132810.0, 6961680.0 ], [ 132780.0, 6961650.0 ], [ 132750.0, 6961640.0 ], [ 132720.0, 6961560.0 ], [ 132660.0, 6961480.0 ], [ 132650.0, 6961450.0 ], [ 132650.0, 6961360.0 ], [ 132680.0, 6961290.0 ], [ 132670.0, 6961250.0 ], [ 132670.0, 6961190.0 ], [ 132680.0, 6961180.0 ], [ 132670.0, 6961040.0 ], [ 132610.0, 6960970.0 ], [ 132610.0, 6960940.0 ], [ 132590.0, 6960920.0 ], [ 132570.0, 6960920.0 ], [ 132520.0, 6960870.0 ], [ 132520.0, 6960770.0 ], [ 132550.0, 6960740.0 ], [ 132560.0, 6960380.0 ], [ 132610.0, 6960350.0 ], [ 132620.0, 6960310.0 ], [ 132600.0, 6960250.0 ], [ 132440.0, 6960090.0 ], [ 132420.0, 6959930.0 ] ] } }
]
}
