{
"type": "FeatureCollection",
"name": "multi_path_smooth_loftskarstinden_15",
"crs": { "type": "name", "properties": { "name": "urn:ogc:def:crs:EPSG::25833" } },
"features": [
{ "type": "Feature", "properties": { "cat": 1 }, "geometry": { "type": "LineString", "coordinates": [ [ 132350.0, 6963820.0 ], [ 132360.0, 6963860.0 ], [ 132400.0, 6963910.0 ], [ 132420.0, 6964020.0 ], [ 132510.0, 6964110.0 ], [ 132620.0, 6964120.0 ], [ 132650.0, 6964150.0 ], [ 132730.0, 6964150.0 ], [ 132760.0, 6964120.0 ], [ 132760.0, 6964080.0 ], [ 132780.0, 6964030.0 ], [ 132790.0, 6963850.0 ], [ 132810.0, 6963830.0 ], [ 132810.0, 6963790.0 ], [ 132860.0, 6963740.0 ], [ 132850.0, 6963370.0 ], [ 132860.0, 6963360.0 ], [ 132860.0, 6963310.0 ], [ 132880.0, 6963290.0 ], [ 132880.0, 6963230.0 ], [ 132890.0, 6963220.0 ], [ 132900.0, 6962740.0 ], [ 132970.0, 6962650.0 ], [ 132970.0, 6962430.0 ], [ 132940.0, 6962380.0 ], [ 132940.0, 6962100.0 ], [ 132910.0, 6962060.0 ], [ 132900.0, 6962000.0 ], [ 132870.0, 6961950.0 ], [ 132870.0, 6961890.0 ], [ 132820.0, 6961840.0 ], [ 132820.0, 6961720.0 ], [ 132800.0, 6961700.0 ], [ 132790.0, 6961660.0 ], [ 132790.0, 6961360.0 ], [ 132780.0, 6961330.0 ], [ 132690.0, 6961250.0 ], [ 132690.0, 6961050.0 ], [ 132680.0, 6961020.0 ], [ 132550.0, 6960860.0 ], [ 132550.0, 6960620.0 ], [ 132580.0, 6960590.0 ], [ 132590.0, 6960370.0 ], [ 132630.0, 6960330.0 ], [ 132630.0, 6960300.0 ], [ 132620.0, 6960270.0 ], [ 132500.0, 6960140.0 ], [ 132480.0, 6960090.0 ], [ 132450.0, 6960060.0 ], [ 132420.0, 6959930.0 ] ] } }
]
}
