{
"type": "FeatureCollection",
"name": "multi_path_smooth_loftskarstinden_29",
"crs": { "type": "name", "properties": { "name": "urn:ogc:def:crs:EPSG::25833" } },
"features": [
{ "type": "Feature", "properties": { "cat": 1 }, "geometry": { "type": "LineString", "coordinates": [ [ 132350.0, 6963820.0 ], [ 132410.0, 6963760.0 ], [ 132430.0, 6963760.0 ], [ 132480.0, 6963720.0 ], [ 132570.0, 6963720.0 ], [ 132620.0, 6963700.0 ], [ 132710.0, 6963700.0 ], [ 132790.0, 6963620.0 ], [ 132790.0, 6963600.0 ], [ 132810.0, 6963580.0 ], [ 132800.0, 6963220.0 ], [ 132790.0, 6963190.0 ], [ 132700.0, 6963100.0 ], [ 132700.0, 6963060.0 ], [ 132670.0, 6963020.0 ], [ 132660.0, 6962660.0 ], [ 132670.0, 6962650.0 ], [ 132670.0, 6962550.0 ], [ 132690.0, 6962530.0 ], [ 132690.0, 6962290.0 ], [ 132680.0, 6962280.0 ], [ 132680.0, 6962190.0 ], [ 132660.0, 6962160.0 ], [ 132660.0, 6962100.0 ], [ 132650.0, 6962090.0 ], [ 132650.0, 6962010.0 ], [ 132670.0, 6961970.0 ], [ 132670.0, 6961880.0 ], [ 132640.0, 6961800.0 ], [ 132640.0, 6961700.0 ], [ 132630.0, 6961690.0 ], [ 132630.0, 6961670.0 ], [ 132650.0, 6961650.0 ], [ 132650.0, 6961560.0 ], [ 132630.0, 6961520.0 ], [ 132620.0, 6961390.0 ], [ 132610.0, 6961380.0 ], [ 132600.0, 6961020.0 ], [ 132500.0, 6960910.0 ], [ 132460.0, 6960890.0 ], [ 132460.0, 6960870.0 ], [ 132430.0, 6960830.0 ], [ 132430.0, 6960750.0 ], [ 132420.0, 6960740.0 ], [ 132420.0, 6960470.0 ], [ 132500.0, 6960390.0 ], [ 132500.0, 6960340.0 ], [ 132560.0, 6960280.0 ], [ 132530.0, 6960250.0 ], [ 132510.0, 6960250.0 ], [ 132460.0, 6960200.0 ], [ 132470.0, 6960130.0 ], [ 132400.0, 6960040.0 ], [ 132400.0, 6959950.0 ], [ 132420.0, 6959930.0 ] ] } }
]
}
