{
"type": "FeatureCollection",
"name": "multi_path_smooth_loftskarstinden_09",
"crs": { "type": "name", "properties": { "name": "urn:ogc:def:crs:EPSG::25833" } },
"features": [
{ "type": "Feature", "properties": { "cat": 1 }, "geometry": { "type": "LineString", "coordinates": [ [ 132350.0, 6963820.0 ], [ 132360.0, 6963860.0 ], [ 132400.0, 6963900.0 ], [ 132420.0, 6964010.0 ], [ 132500.0, 6964110.0 ], [ 132570.0, 6964110.0 ], [ 132580.0, 6964120.0 ], [ 132620.0, 6964120.0 ], [ 132650.0, 6964140.0 ], [ 132730.0, 6964140.0 ], [ 132800.0, 6964050.0 ], [ 132800.0, 6963870.0 ], [ 132850.0, 6963800.0 ], [ 132850.0, 6963770.0 ], [ 132890.0, 6963730.0 ], [ 132890.0, 6963670.0 ], [ 132910.0, 6963650.0 ], [ 132910.0, 6963580.0 ], [ 132940.0, 6963550.0 ], [ 132940.0, 6963460.0 ], [ 132950.0, 6963450.0 ], [ 132950.0, 6962890.0 ], [ 132960.0, 6962850.0 ], [ 132990.0, 6962820.0 ], [ 132980.0, 6962230.0 ], [ 132950.0, 6962190.0 ], [ 132940.0, 6961980.0 ], [ 132880.0, 6961920.0 ], [ 132880.0, 6961900.0 ], [ 132850.0, 6961860.0 ], [ 132850.0, 6961790.0 ], [ 132830.0, 6961730.0 ], [ 132810.0, 6961710.0 ], [ 132810.0, 6961680.0 ], [ 132730.0, 6961590.0 ], [ 132650.0, 6961450.0 ], [ 132650.0, 6961360.0 ], [ 132680.0, 6961290.0 ], [ 132670.0, 6961250.0 ], [ 132670.0, 6961050.0 ], [ 132620.0, 6961000.0 ], [ 132610.0, 6960950.0 ], [ 132490.0, 6960830.0 ], [ 132490.0, 6960800.0 ], [ 132460.0, 6960760.0 ], [ 132440.0, 6960700.0 ], [ 132460.0, 6960640.0 ], [ 132500.0, 6960590.0 ], [ 132520.0, 6960500.0 ], [ 132540.0, 6960480.0 ], [ 132540.0, 6960400.0 ], [ 132630.0, 6960330.0 ], [ 132630.0, 6960300.0 ], [ 132600.0, 6960230.0 ], [ 132420.0, 6960040.0 ], [ 132420.0, 6959970.0 ], [ 132410.0, 6959960.0 ], [ 132420.0, 6959930.0 ] ] } }
]
}
