{
"type": "FeatureCollection",
"name": "multi_path_smooth_loftskarstinden_27",
"crs": { "type": "name", "properties": { "name": "urn:ogc:def:crs:EPSG::25833" } },
"features": [
{ "type": "Feature", "properties": { "cat": 1 }, "geometry": { "type": "LineString", "coordinates": [ [ 132350.0, 6963820.0 ], [ 132310.0, 6963750.0 ], [ 132270.0, 6963710.0 ], [ 132260.0, 6963680.0 ], [ 132220.0, 6963640.0 ], [ 132230.0, 6963620.0 ], [ 132220.0, 6963540.0 ], [ 132160.0, 6963460.0 ], [ 132150.0, 6963390.0 ], [ 132100.0, 6963310.0 ], [ 132090.0, 6963260.0 ], [ 132070.0, 6963230.0 ], [ 132070.0, 6963200.0 ], [ 132040.0, 6963150.0 ], [ 132040.0, 6963130.0 ], [ 132020.0, 6963110.0 ], [ 132020.0, 6963080.0 ], [ 131970.0, 6963020.0 ], [ 131940.0, 6962950.0 ], [ 131940.0, 6962720.0 ], [ 132020.0, 6962620.0 ], [ 132020.0, 6962520.0 ], [ 132070.0, 6962450.0 ], [ 132070.0, 6962040.0 ], [ 132050.0, 6962020.0 ], [ 132040.0, 6961980.0 ], [ 132040.0, 6961840.0 ], [ 132050.0, 6961810.0 ], [ 132100.0, 6961760.0 ], [ 132100.0, 6961480.0 ], [ 132230.0, 6961350.0 ], [ 132230.0, 6961300.0 ], [ 132340.0, 6961200.0 ], [ 132340.0, 6961110.0 ], [ 132380.0, 6961060.0 ], [ 132380.0, 6961030.0 ], [ 132300.0, 6960940.0 ], [ 132300.0, 6960900.0 ], [ 132270.0, 6960870.0 ], [ 132270.0, 6960850.0 ], [ 132310.0, 6960800.0 ], [ 132300.0, 6960770.0 ], [ 132320.0, 6960720.0 ], [ 132370.0, 6960670.0 ], [ 132370.0, 6960630.0 ], [ 132450.0, 6960550.0 ], [ 132460.0, 6960480.0 ], [ 132580.0, 6960360.0 ], [ 132600.0, 6960360.0 ], [ 132660.0, 6960300.0 ], [ 132660.0, 6960010.0 ], [ 132640.0, 6959990.0 ], [ 132600.0, 6959980.0 ], [ 132570.0, 6959950.0 ], [ 132420.0, 6959930.0 ] ] } }
]
}
