{
"type": "FeatureCollection",
"name": "multi_path_smooth_loftskarstinden_13",
"crs": { "type": "name", "properties": { "name": "urn:ogc:def:crs:EPSG::25833" } },
"features": [
{ "type": "Feature", "properties": { "cat": 1 }, "geometry": { "type": "LineString", "coordinates": [ [ 132350.0, 6963820.0 ], [ 132360.0, 6963860.0 ], [ 132400.0, 6963900.0 ], [ 132410.0, 6963960.0 ], [ 132440.0, 6964010.0 ], [ 132440.0, 6964030.0 ], [ 132460.0, 6964050.0 ], [ 132460.0, 6964070.0 ], [ 132510.0, 6964120.0 ], [ 132630.0, 6964120.0 ], [ 132650.0, 6964140.0 ], [ 132730.0, 6964140.0 ], [ 132760.0, 6964110.0 ], [ 132760.0, 6964090.0 ], [ 132810.0, 6964040.0 ], [ 132810.0, 6963910.0 ], [ 132830.0, 6963880.0 ], [ 132830.0, 6963850.0 ], [ 132860.0, 6963820.0 ], [ 132860.0, 6963770.0 ], [ 132890.0, 6963740.0 ], [ 132890.0, 6963520.0 ], [ 132930.0, 6963480.0 ], [ 132930.0, 6963460.0 ], [ 132960.0, 6963420.0 ], [ 132960.0, 6963380.0 ], [ 132990.0, 6963350.0 ], [ 132990.0, 6963280.0 ], [ 133000.0, 6963270.0 ], [ 133000.0, 6963010.0 ], [ 132980.0, 6962990.0 ], [ 132990.0, 6962260.0 ], [ 132960.0, 6962180.0 ], [ 132950.0, 6962020.0 ], [ 132860.0, 6961930.0 ], [ 132860.0, 6961890.0 ], [ 132840.0, 6961870.0 ], [ 132840.0, 6961770.0 ], [ 132820.0, 6961750.0 ], [ 132800.0, 6961670.0 ], [ 132740.0, 6961610.0 ], [ 132740.0, 6961590.0 ], [ 132690.0, 6961530.0 ], [ 132670.0, 6961480.0 ], [ 132670.0, 6961360.0 ], [ 132650.0, 6961340.0 ], [ 132640.0, 6961150.0 ], [ 132600.0, 6961110.0 ], [ 132600.0, 6961090.0 ], [ 132550.0, 6961010.0 ], [ 132550.0, 6960920.0 ], [ 132510.0, 6960870.0 ], [ 132510.0, 6960560.0 ], [ 132530.0, 6960540.0 ], [ 132530.0, 6960490.0 ], [ 132550.0, 6960470.0 ], [ 132550.0, 6960400.0 ], [ 132620.0, 6960330.0 ], [ 132570.0, 6960230.0 ], [ 132480.0, 6960150.0 ], [ 132440.0, 6960090.0 ], [ 132440.0, 6960060.0 ], [ 132420.0, 6960040.0 ], [ 132420.0, 6960010.0 ], [ 132400.0, 6959980.0 ], [ 132400.0, 6959950.0 ], [ 132420.0, 6959930.0 ] ] } }
]
}
