{
"type": "FeatureCollection",
"name": "multi_path_smooth_loftskarstinden_24",
"crs": { "type": "name", "properties": { "name": "urn:ogc:def:crs:EPSG::25833" } },
"features": [
{ "type": "Feature", "properties": { "cat": 1 }, "geometry": { "type": "LineString", "coordinates": [ [ 132350.0, 6963820.0 ], [ 132220.0, 6963660.0 ], [ 132230.0, 6963620.0 ], [ 132220.0, 6963540.0 ], [ 132170.0, 6963490.0 ], [ 132150.0, 6963390.0 ], [ 132100.0, 6963310.0 ], [ 132090.0, 6963250.0 ], [ 132070.0, 6963230.0 ], [ 132040.0, 6963130.0 ], [ 132020.0, 6963110.0 ], [ 132020.0, 6963080.0 ], [ 131970.0, 6963020.0 ], [ 131960.0, 6962970.0 ], [ 131930.0, 6962930.0 ], [ 131930.0, 6962660.0 ], [ 132010.0, 6962580.0 ], [ 132010.0, 6962550.0 ], [ 132100.0, 6962460.0 ], [ 132100.0, 6962010.0 ], [ 132050.0, 6961960.0 ], [ 132050.0, 6961830.0 ], [ 132100.0, 6961770.0 ], [ 132110.0, 6961730.0 ], [ 132110.0, 6961660.0 ], [ 132090.0, 6961620.0 ], [ 132090.0, 6961500.0 ], [ 132100.0, 6961470.0 ], [ 132210.0, 6961360.0 ], [ 132220.0, 6961290.0 ], [ 132340.0, 6961200.0 ], [ 132340.0, 6961170.0 ], [ 132300.0, 6961120.0 ], [ 132310.0, 6961080.0 ], [ 132270.0, 6961010.0 ], [ 132270.0, 6960990.0 ], [ 132250.0, 6960970.0 ], [ 132260.0, 6960940.0 ], [ 132220.0, 6960900.0 ], [ 132240.0, 6960870.0 ], [ 132240.0, 6960830.0 ], [ 132260.0, 6960810.0 ], [ 132240.0, 6960790.0 ], [ 132250.0, 6960750.0 ], [ 132240.0, 6960740.0 ], [ 132270.0, 6960690.0 ], [ 132260.0, 6960620.0 ], [ 132290.0, 6960590.0 ], [ 132310.0, 6960590.0 ], [ 132470.0, 6960430.0 ], [ 132520.0, 6960420.0 ], [ 132580.0, 6960360.0 ], [ 132600.0, 6960360.0 ], [ 132630.0, 6960310.0 ], [ 132620.0, 6960250.0 ], [ 132520.0, 6960140.0 ], [ 132510.0, 6960080.0 ], [ 132450.0, 6960010.0 ], [ 132450.0, 6959980.0 ], [ 132420.0, 6959950.0 ], [ 132420.0, 6959930.0 ] ] } }
]
}
