{
"type": "FeatureCollection",
"name": "multi_path_smooth_loftskarstinden_30",
"crs": { "type": "name", "properties": { "name": "urn:ogc:def:crs:EPSG::25833" } },
"features": [
{ "type": "Feature", "properties": { "cat": 1 }, "geometry": { "type": "LineString", "coordinates": [ [ 132350.0, 6963820.0 ], [ 132410.0, 6963820.0 ], [ 132460.0, 6963780.0 ], [ 132510.0, 6963780.0 ], [ 132580.0, 6963710.0 ], [ 132690.0, 6963700.0 ], [ 132740.0, 6963650.0 ], [ 132740.0, 6963630.0 ], [ 132760.0, 6963610.0 ], [ 132750.0, 6962930.0 ], [ 132740.0, 6962920.0 ], [ 132740.0, 6962870.0 ], [ 132720.0, 6962830.0 ], [ 132730.0, 6961860.0 ], [ 132680.0, 6961790.0 ], [ 132670.0, 6961700.0 ], [ 132660.0, 6961690.0 ], [ 132700.0, 6961640.0 ], [ 132700.0, 6961530.0 ], [ 132670.0, 6961490.0 ], [ 132670.0, 6961360.0 ], [ 132660.0, 6961350.0 ], [ 132660.0, 6961320.0 ], [ 132700.0, 6961220.0 ], [ 132700.0, 6961020.0 ], [ 132680.0, 6960990.0 ], [ 132680.0, 6960760.0 ], [ 132660.0, 6960730.0 ], [ 132660.0, 6960500.0 ], [ 132650.0, 6960490.0 ], [ 132650.0, 6960450.0 ], [ 132590.0, 6960380.0 ], [ 132640.0, 6960320.0 ], [ 132640.0, 6960250.0 ], [ 132620.0, 6960230.0 ], [ 132600.0, 6960170.0 ], [ 132560.0, 6960130.0 ], [ 132560.0, 6960100.0 ], [ 132540.0, 6960070.0 ], [ 132420.0, 6959950.0 ], [ 132420.0, 6959930.0 ] ] } }
]
}
