{
"type": "FeatureCollection",
"name": "multi_path_smooth_loftskarstinden_23",
"crs": { "type": "name", "properties": { "name": "urn:ogc:def:crs:EPSG::25833" } },
"features": [
{ "type": "Feature", "properties": { "cat": 1 }, "geometry": { "type": "LineString", "coordinates": [ [ 132350.0, 6963820.0 ], [ 132360.0, 6963860.0 ], [ 132400.0, 6963900.0 ], [ 132420.0, 6964020.0 ], [ 132500.0, 6964120.0 ], [ 132620.0, 6964120.0 ], [ 132650.0, 6964150.0 ], [ 132740.0, 6964150.0 ], [ 132760.0, 6964130.0 ], [ 132770.0, 6964090.0 ], [ 132810.0, 6964040.0 ], [ 132810.0, 6963960.0 ], [ 132830.0, 6963940.0 ], [ 132840.0, 6963850.0 ], [ 132860.0, 6963830.0 ], [ 132860.0, 6963770.0 ], [ 132890.0, 6963740.0 ], [ 132900.0, 6963710.0 ], [ 132910.0, 6963580.0 ], [ 132940.0, 6963550.0 ], [ 132940.0, 6963460.0 ], [ 132950.0, 6963450.0 ], [ 132950.0, 6962870.0 ], [ 133000.0, 6962800.0 ], [ 133000.0, 6962250.0 ], [ 132990.0, 6962240.0 ], [ 132990.0, 6962090.0 ], [ 132950.0, 6962050.0 ], [ 132940.0, 6962020.0 ], [ 132850.0, 6961930.0 ], [ 132820.0, 6961880.0 ], [ 132810.0, 6961850.0 ], [ 132810.0, 6961680.0 ], [ 132780.0, 6961630.0 ], [ 132780.0, 6961330.0 ], [ 132690.0, 6961250.0 ], [ 132690.0, 6961190.0 ], [ 132670.0, 6961140.0 ], [ 132670.0, 6961040.0 ], [ 132690.0, 6961000.0 ], [ 132680.0, 6960990.0 ], [ 132680.0, 6960940.0 ], [ 132660.0, 6960920.0 ], [ 132660.0, 6960820.0 ], [ 132650.0, 6960810.0 ], [ 132650.0, 6960450.0 ], [ 132590.0, 6960380.0 ], [ 132630.0, 6960330.0 ], [ 132630.0, 6960220.0 ], [ 132610.0, 6960170.0 ], [ 132550.0, 6960110.0 ], [ 132540.0, 6960070.0 ], [ 132460.0, 6959980.0 ], [ 132460.0, 6959960.0 ], [ 132420.0, 6959930.0 ] ] } }
]
}
