{
"type": "FeatureCollection",
"name": "multi_path_smooth_loftskarstinden_18",
"crs": { "type": "name", "properties": { "name": "urn:ogc:def:crs:EPSG::25833" } },
"features": [
{ "type": "Feature", "properties": { "cat": 1 }, "geometry": { "type": "LineString", "coordinates": [ [ 132350.0, 6963820.0 ], [ 132370.0, 6963880.0 ], [ 132400.0, 6963910.0 ], [ 132420.0, 6964010.0 ], [ 132510.0, 6964100.0 ], [ 132620.0, 6964120.0 ], [ 132650.0, 6964150.0 ], [ 132700.0, 6964150.0 ], [ 132770.0, 6964070.0 ], [ 132790.0, 6963880.0 ], [ 132820.0, 6963850.0 ], [ 132830.0, 6963780.0 ], [ 132900.0, 6963710.0 ], [ 132910.0, 6963600.0 ], [ 132950.0, 6963560.0 ], [ 132950.0, 6963460.0 ], [ 132960.0, 6963450.0 ], [ 132960.0, 6962890.0 ], [ 132990.0, 6962860.0 ], [ 132990.0, 6962820.0 ], [ 133000.0, 6962810.0 ], [ 133000.0, 6962170.0 ], [ 132990.0, 6962160.0 ], [ 132990.0, 6962100.0 ], [ 132950.0, 6962050.0 ], [ 132940.0, 6961990.0 ], [ 132830.0, 6961870.0 ], [ 132830.0, 6961690.0 ], [ 132800.0, 6961670.0 ], [ 132770.0, 6961620.0 ], [ 132770.0, 6961510.0 ], [ 132730.0, 6961440.0 ], [ 132730.0, 6961360.0 ], [ 132710.0, 6961340.0 ], [ 132700.0, 6961270.0 ], [ 132670.0, 6961240.0 ], [ 132660.0, 6961190.0 ], [ 132640.0, 6961170.0 ], [ 132630.0, 6960980.0 ], [ 132500.0, 6960850.0 ], [ 132500.0, 6960520.0 ], [ 132530.0, 6960470.0 ], [ 132530.0, 6960420.0 ], [ 132620.0, 6960330.0 ], [ 132570.0, 6960230.0 ], [ 132540.0, 6960220.0 ], [ 132510.0, 6960190.0 ], [ 132440.0, 6960090.0 ], [ 132420.0, 6960040.0 ], [ 132420.0, 6959970.0 ], [ 132410.0, 6959960.0 ], [ 132420.0, 6959930.0 ] ] } }
]
}
