{
"type": "FeatureCollection",
"name": "multi_path_smooth_loftskarstinden_19",
"crs": { "type": "name", "properties": { "name": "urn:ogc:def:crs:EPSG::25833" } },
"features": [
{ "type": "Feature", "properties": { "cat": 1 }, "geometry": { "type": "LineString", "coordinates": [ [ 132350.0, 6963820.0 ], [ 132290.0, 6963760.0 ], [ 132220.0, 6963660.0 ], [ 132230.0, 6963620.0 ], [ 132220.0, 6963540.0 ], [ 132160.0, 6963460.0 ], [ 132150.0, 6963390.0 ], [ 132100.0, 6963310.0 ], [ 132090.0, 6963250.0 ], [ 132070.0, 6963230.0 ], [ 132040.0, 6963130.0 ], [ 131970.0, 6963020.0 ], [ 131960.0, 6962980.0 ], [ 131890.0, 6962910.0 ], [ 131890.0, 6962700.0 ], [ 131900.0, 6962670.0 ], [ 132030.0, 6962540.0 ], [ 132040.0, 6962510.0 ], [ 132100.0, 6962450.0 ], [ 132110.0, 6962420.0 ], [ 132110.0, 6962210.0 ], [ 132090.0, 6962190.0 ], [ 132090.0, 6962050.0 ], [ 132030.0, 6961990.0 ], [ 132030.0, 6961860.0 ], [ 132060.0, 6961830.0 ], [ 132060.0, 6961810.0 ], [ 132110.0, 6961760.0 ], [ 132100.0, 6961460.0 ], [ 132210.0, 6961350.0 ], [ 132210.0, 6961320.0 ], [ 132340.0, 6961200.0 ], [ 132340.0, 6961170.0 ], [ 132310.0, 6961130.0 ], [ 132340.0, 6961100.0 ], [ 132360.0, 6961110.0 ], [ 132380.0, 6961070.0 ], [ 132380.0, 6961030.0 ], [ 132320.0, 6960970.0 ], [ 132260.0, 6960940.0 ], [ 132230.0, 6960910.0 ], [ 132280.0, 6960850.0 ], [ 132310.0, 6960790.0 ], [ 132460.0, 6960650.0 ], [ 132470.0, 6960460.0 ], [ 132640.0, 6960320.0 ], [ 132590.0, 6960250.0 ], [ 132570.0, 6960200.0 ], [ 132500.0, 6960130.0 ], [ 132490.0, 6960090.0 ], [ 132440.0, 6960040.0 ], [ 132420.0, 6959930.0 ] ] } }
]
}
