{
"type": "FeatureCollection",
"name": "multi_path_smooth_loftskarstinden_07",
"crs": { "type": "name", "properties": { "name": "urn:ogc:def:crs:EPSG::25833" } },
"features": [
{ "type": "Feature", "properties": { "cat": 1 }, "geometry": { "type": "LineString", "coordinates": [ [ 132350.0, 6963820.0 ], [ 132240.0, 6963680.0 ], [ 132220.0, 6963600.0 ], [ 132220.0, 6963540.0 ], [ 132160.0, 6963460.0 ], [ 132150.0, 6963390.0 ], [ 132100.0, 6963310.0 ], [ 132090.0, 6963250.0 ], [ 132070.0, 6963230.0 ], [ 132040.0, 6963130.0 ], [ 132020.0, 6963110.0 ], [ 132020.0, 6963080.0 ], [ 131970.0, 6963020.0 ], [ 131960.0, 6962980.0 ], [ 131920.0, 6962920.0 ], [ 131920.0, 6962690.0 ], [ 132140.0, 6962470.0 ], [ 132200.0, 6962470.0 ], [ 132270.0, 6962540.0 ], [ 132580.0, 6962540.0 ], [ 132730.0, 6962400.0 ], [ 132730.0, 6962340.0 ], [ 132770.0, 6962300.0 ], [ 132790.0, 6962250.0 ], [ 132790.0, 6962090.0 ], [ 132780.0, 6962080.0 ], [ 132780.0, 6962010.0 ], [ 132770.0, 6962000.0 ], [ 132770.0, 6961910.0 ], [ 132800.0, 6961880.0 ], [ 132800.0, 6961670.0 ], [ 132750.0, 6961640.0 ], [ 132720.0, 6961560.0 ], [ 132660.0, 6961480.0 ], [ 132650.0, 6961450.0 ], [ 132650.0, 6961360.0 ], [ 132680.0, 6961290.0 ], [ 132670.0, 6961250.0 ], [ 132680.0, 6961150.0 ], [ 132670.0, 6961120.0 ], [ 132550.0, 6961000.0 ], [ 132550.0, 6960960.0 ], [ 132500.0, 6960910.0 ], [ 132490.0, 6960870.0 ], [ 132490.0, 6960780.0 ], [ 132520.0, 6960730.0 ], [ 132520.0, 6960700.0 ], [ 132540.0, 6960680.0 ], [ 132550.0, 6960600.0 ], [ 132570.0, 6960580.0 ], [ 132570.0, 6960370.0 ], [ 132620.0, 6960340.0 ], [ 132620.0, 6960310.0 ], [ 132610.0, 6960300.0 ], [ 132610.0, 6960260.0 ], [ 132500.0, 6960170.0 ], [ 132440.0, 6960090.0 ], [ 132420.0, 6959930.0 ] ] } }
]
}
