{
"type": "FeatureCollection",
"name": "multi_path_smooth_loftskarstinden_10",
"crs": { "type": "name", "properties": { "name": "urn:ogc:def:crs:EPSG::25833" } },
"features": [
{ "type": "Feature", "properties": { "cat": 1 }, "geometry": { "type": "LineString", "coordinates": [ [ 132350.0, 6963820.0 ], [ 132360.0, 6963860.0 ], [ 132400.0, 6963910.0 ], [ 132430.0, 6964010.0 ], [ 132510.0, 6964090.0 ], [ 132550.0, 6964110.0 ], [ 132620.0, 6964120.0 ], [ 132650.0, 6964150.0 ], [ 132740.0, 6964150.0 ], [ 132760.0, 6964130.0 ], [ 132760.0, 6964090.0 ], [ 132800.0, 6964050.0 ], [ 132790.0, 6963870.0 ], [ 132840.0, 6963800.0 ], [ 132840.0, 6963770.0 ], [ 132870.0, 6963740.0 ], [ 132870.0, 6963570.0 ], [ 132850.0, 6963550.0 ], [ 132850.0, 6963490.0 ], [ 132840.0, 6963480.0 ], [ 132840.0, 6963240.0 ], [ 132880.0, 6963200.0 ], [ 132880.0, 6963160.0 ], [ 132910.0, 6963120.0 ], [ 132920.0, 6962780.0 ], [ 132930.0, 6962770.0 ], [ 132930.0, 6962730.0 ], [ 132960.0, 6962700.0 ], [ 132960.0, 6962420.0 ], [ 132950.0, 6962410.0 ], [ 132960.0, 6962120.0 ], [ 132930.0, 6962080.0 ], [ 132920.0, 6962010.0 ], [ 132850.0, 6961930.0 ], [ 132830.0, 6961890.0 ], [ 132830.0, 6961730.0 ], [ 132810.0, 6961710.0 ], [ 132810.0, 6961680.0 ], [ 132780.0, 6961650.0 ], [ 132750.0, 6961640.0 ], [ 132730.0, 6961570.0 ], [ 132690.0, 6961530.0 ], [ 132660.0, 6961420.0 ], [ 132660.0, 6961320.0 ], [ 132680.0, 6961290.0 ], [ 132670.0, 6961040.0 ], [ 132710.0, 6960980.0 ], [ 132710.0, 6960940.0 ], [ 132700.0, 6960930.0 ], [ 132660.0, 6960930.0 ], [ 132640.0, 6960910.0 ], [ 132610.0, 6960910.0 ], [ 132540.0, 6960840.0 ], [ 132540.0, 6960620.0 ], [ 132580.0, 6960580.0 ], [ 132580.0, 6960430.0 ], [ 132590.0, 6960420.0 ], [ 132590.0, 6960370.0 ], [ 132610.0, 6960350.0 ], [ 132620.0, 6960310.0 ], [ 132570.0, 6960230.0 ], [ 132450.0, 6960110.0 ], [ 132430.0, 6960070.0 ], [ 132430.0, 6959940.0 ], [ 132420.0, 6959930.0 ] ] } }
]
}
