{
"type": "FeatureCollection",
"name": "multi_path_smooth_loftskarstinden_11",
"crs": { "type": "name", "properties": { "name": "urn:ogc:def:crs:EPSG::25833" } },
"features": [
{ "type": "Feature", "properties": { "cat": 1 }, "geometry": { "type": "LineString", "coordinates": [ [ 132350.0, 6963820.0 ], [ 132270.0, 6963730.0 ], [ 132270.0, 6963700.0 ], [ 132230.0, 6963650.0 ], [ 132220.0, 6963540.0 ], [ 132160.0, 6963460.0 ], [ 132150.0, 6963390.0 ], [ 132100.0, 6963310.0 ], [ 132090.0, 6963250.0 ], [ 132070.0, 6963230.0 ], [ 132040.0, 6963130.0 ], [ 132020.0, 6963110.0 ], [ 132020.0, 6963090.0 ], [ 131970.0, 6963020.0 ], [ 131940.0, 6962950.0 ], [ 131940.0, 6962690.0 ], [ 132000.0, 6962630.0 ], [ 132020.0, 6962600.0 ], [ 132020.0, 6962570.0 ], [ 132220.0, 6962370.0 ], [ 132320.0, 6962370.0 ], [ 132390.0, 6962440.0 ], [ 132470.0, 6962440.0 ], [ 132500.0, 6962410.0 ], [ 132520.0, 6962410.0 ], [ 132660.0, 6962280.0 ], [ 132770.0, 6962160.0 ], [ 132770.0, 6961900.0 ], [ 132800.0, 6961880.0 ], [ 132800.0, 6961820.0 ], [ 132790.0, 6961810.0 ], [ 132800.0, 6961660.0 ], [ 132730.0, 6961590.0 ], [ 132730.0, 6961550.0 ], [ 132660.0, 6961480.0 ], [ 132660.0, 6961460.0 ], [ 132640.0, 6961440.0 ], [ 132640.0, 6961270.0 ], [ 132620.0, 6961250.0 ], [ 132620.0, 6961180.0 ], [ 132570.0, 6961080.0 ], [ 132570.0, 6961040.0 ], [ 132530.0, 6961000.0 ], [ 132510.0, 6960960.0 ], [ 132510.0, 6960920.0 ], [ 132490.0, 6960870.0 ], [ 132490.0, 6960790.0 ], [ 132480.0, 6960780.0 ], [ 132480.0, 6960710.0 ], [ 132490.0, 6960700.0 ], [ 132490.0, 6960440.0 ], [ 132580.0, 6960360.0 ], [ 132600.0, 6960360.0 ], [ 132620.0, 6960340.0 ], [ 132620.0, 6960290.0 ], [ 132590.0, 6960240.0 ], [ 132460.0, 6960090.0 ], [ 132450.0, 6959950.0 ], [ 132420.0, 6959930.0 ] ] } }
]
}
