{
"type": "FeatureCollection",
"name": "multi_path_smooth_loftskarstinden_21",
"crs": { "type": "name", "properties": { "name": "urn:ogc:def:crs:EPSG::25833" } },
"features": [
{ "type": "Feature", "properties": { "cat": 1 }, "geometry": { "type": "LineString", "coordinates": [ [ 132350.0, 6963820.0 ], [ 132220.0, 6963650.0 ], [ 132230.0, 6963620.0 ], [ 132220.0, 6963540.0 ], [ 132170.0, 6963490.0 ], [ 132150.0, 6963390.0 ], [ 132100.0, 6963310.0 ], [ 132060.0, 6963180.0 ], [ 132020.0, 6963110.0 ], [ 132020.0, 6963080.0 ], [ 131970.0, 6963020.0 ], [ 131960.0, 6962970.0 ], [ 131920.0, 6962920.0 ], [ 131920.0, 6962670.0 ], [ 132160.0, 6962420.0 ], [ 132290.0, 6962410.0 ], [ 132370.0, 6962480.0 ], [ 132590.0, 6962480.0 ], [ 132680.0, 6962390.0 ], [ 132690.0, 6962280.0 ], [ 132710.0, 6962260.0 ], [ 132720.0, 6962220.0 ], [ 132760.0, 6962180.0 ], [ 132760.0, 6961910.0 ], [ 132800.0, 6961880.0 ], [ 132800.0, 6961830.0 ], [ 132780.0, 6961800.0 ], [ 132790.0, 6961680.0 ], [ 132750.0, 6961640.0 ], [ 132730.0, 6961580.0 ], [ 132700.0, 6961550.0 ], [ 132700.0, 6961520.0 ], [ 132650.0, 6961450.0 ], [ 132650.0, 6961430.0 ], [ 132620.0, 6961400.0 ], [ 132600.0, 6961350.0 ], [ 132600.0, 6961150.0 ], [ 132590.0, 6961140.0 ], [ 132590.0, 6961090.0 ], [ 132570.0, 6961060.0 ], [ 132570.0, 6960970.0 ], [ 132520.0, 6960920.0 ], [ 132470.0, 6960900.0 ], [ 132440.0, 6960850.0 ], [ 132440.0, 6960680.0 ], [ 132540.0, 6960540.0 ], [ 132540.0, 6960410.0 ], [ 132620.0, 6960330.0 ], [ 132570.0, 6960230.0 ], [ 132480.0, 6960150.0 ], [ 132480.0, 6960120.0 ], [ 132410.0, 6960010.0 ], [ 132400.0, 6959950.0 ], [ 132420.0, 6959930.0 ] ] } }
]
}
