{
"type": "FeatureCollection",
"name": "multi_path_smooth_loftskarstinden_20",
"crs": { "type": "name", "properties": { "name": "urn:ogc:def:crs:EPSG::25833" } },
"features": [
{ "type": "Feature", "properties": { "cat": 1 }, "geometry": { "type": "LineString", "coordinates": [ [ 132350.0, 6963820.0 ], [ 132370.0, 6963870.0 ], [ 132400.0, 6963900.0 ], [ 132400.0, 6963930.0 ], [ 132440.0, 6964010.0 ], [ 132440.0, 6964040.0 ], [ 132510.0, 6964120.0 ], [ 132630.0, 6964120.0 ], [ 132650.0, 6964140.0 ], [ 132730.0, 6964140.0 ], [ 132760.0, 6964110.0 ], [ 132760.0, 6964090.0 ], [ 132810.0, 6964040.0 ], [ 132820.0, 6963910.0 ], [ 132840.0, 6963880.0 ], [ 132840.0, 6963850.0 ], [ 132860.0, 6963830.0 ], [ 132860.0, 6963790.0 ], [ 132890.0, 6963740.0 ], [ 132890.0, 6963510.0 ], [ 132920.0, 6963480.0 ], [ 132930.0, 6963440.0 ], [ 132940.0, 6962820.0 ], [ 132950.0, 6962810.0 ], [ 132950.0, 6962760.0 ], [ 132970.0, 6962740.0 ], [ 132970.0, 6962630.0 ], [ 132980.0, 6962620.0 ], [ 132980.0, 6962420.0 ], [ 132950.0, 6962380.0 ], [ 132950.0, 6962120.0 ], [ 132930.0, 6962070.0 ], [ 132930.0, 6962010.0 ], [ 132850.0, 6961930.0 ], [ 132820.0, 6961880.0 ], [ 132820.0, 6961840.0 ], [ 132790.0, 6961810.0 ], [ 132800.0, 6961660.0 ], [ 132780.0, 6961640.0 ], [ 132780.0, 6961330.0 ], [ 132700.0, 6961260.0 ], [ 132700.0, 6961210.0 ], [ 132680.0, 6961190.0 ], [ 132680.0, 6961150.0 ], [ 132670.0, 6961140.0 ], [ 132670.0, 6961050.0 ], [ 132710.0, 6960980.0 ], [ 132710.0, 6960890.0 ], [ 132780.0, 6960820.0 ], [ 132780.0, 6960790.0 ], [ 132810.0, 6960760.0 ], [ 132830.0, 6960670.0 ], [ 132880.0, 6960620.0 ], [ 132880.0, 6960600.0 ], [ 132840.0, 6960560.0 ], [ 132840.0, 6960540.0 ], [ 132820.0, 6960520.0 ], [ 132700.0, 6960480.0 ], [ 132650.0, 6960450.0 ], [ 132590.0, 6960390.0 ], [ 132590.0, 6960370.0 ], [ 132630.0, 6960330.0 ], [ 132630.0, 6960300.0 ], [ 132610.0, 6960270.0 ], [ 132600.0, 6960220.0 ], [ 132550.0, 6960170.0 ], [ 132540.0, 6960050.0 ], [ 132420.0, 6959930.0 ] ] } }
]
}
