{
"type": "FeatureCollection",
"name": "multi_path_smooth_loftskarstinden_25",
"crs": { "type": "name", "properties": { "name": "urn:ogc:def:crs:EPSG::25833" } },
"features": [
{ "type": "Feature", "properties": { "cat": 1 }, "geometry": { "type": "LineString", "coordinates": [ [ 132350.0, 6963820.0 ], [ 132370.0, 6963880.0 ], [ 132400.0, 6963910.0 ], [ 132410.0, 6963960.0 ], [ 132440.0, 6964020.0 ], [ 132500.0, 6964080.0 ], [ 132520.0, 6964080.0 ], [ 132590.0, 6964120.0 ], [ 132630.0, 6964120.0 ], [ 132650.0, 6964140.0 ], [ 132700.0, 6964140.0 ], [ 132720.0, 6964120.0 ], [ 132710.0, 6964070.0 ], [ 132760.0, 6964010.0 ], [ 132770.0, 6963890.0 ], [ 132840.0, 6963820.0 ], [ 132840.0, 6963760.0 ], [ 132860.0, 6963730.0 ], [ 132860.0, 6963590.0 ], [ 132850.0, 6963580.0 ], [ 132850.0, 6963480.0 ], [ 132840.0, 6963470.0 ], [ 132840.0, 6963230.0 ], [ 132800.0, 6963180.0 ], [ 132790.0, 6962870.0 ], [ 132770.0, 6962800.0 ], [ 132720.0, 6962740.0 ], [ 132720.0, 6962660.0 ], [ 132710.0, 6962650.0 ], [ 132710.0, 6962440.0 ], [ 132730.0, 6962420.0 ], [ 132740.0, 6962370.0 ], [ 132760.0, 6962350.0 ], [ 132760.0, 6961910.0 ], [ 132740.0, 6961870.0 ], [ 132670.0, 6961800.0 ], [ 132670.0, 6961760.0 ], [ 132660.0, 6961750.0 ], [ 132660.0, 6961690.0 ], [ 132700.0, 6961640.0 ], [ 132700.0, 6961530.0 ], [ 132660.0, 6961480.0 ], [ 132660.0, 6961320.0 ], [ 132650.0, 6961310.0 ], [ 132650.0, 6961270.0 ], [ 132630.0, 6961250.0 ], [ 132620.0, 6960440.0 ], [ 132590.0, 6960410.0 ], [ 132590.0, 6960370.0 ], [ 132640.0, 6960320.0 ], [ 132640.0, 6960230.0 ], [ 132550.0, 6960140.0 ], [ 132540.0, 6960050.0 ], [ 132510.0, 6960020.0 ], [ 132510.0, 6960000.0 ], [ 132450.0, 6959940.0 ], [ 132420.0, 6959930.0 ] ] } }
]
}
