{
"type": "FeatureCollection",
"name": "multi_path_smooth_loftskarstinden_17",
"crs": { "type": "name", "properties": { "name": "urn:ogc:def:crs:EPSG::25833" } },
"features": [
{ "type": "Feature", "properties": { "cat": 1 }, "geometry": { "type": "LineString", "coordinates": [ [ 132350.0, 6963820.0 ], [ 132350.0, 6963800.0 ], [ 132230.0, 6963650.0 ], [ 132220.0, 6963540.0 ], [ 132170.0, 6963490.0 ], [ 132150.0, 6963390.0 ], [ 132100.0, 6963310.0 ], [ 132060.0, 6963180.0 ], [ 132020.0, 6963110.0 ], [ 132020.0, 6963080.0 ], [ 131960.0, 6963000.0 ], [ 131950.0, 6962960.0 ], [ 131950.0, 6962740.0 ], [ 131960.0, 6962730.0 ], [ 131970.0, 6962650.0 ], [ 132140.0, 6962480.0 ], [ 132190.0, 6962490.0 ], [ 132250.0, 6962550.0 ], [ 132560.0, 6962550.0 ], [ 132710.0, 6962400.0 ], [ 132710.0, 6962310.0 ], [ 132730.0, 6962270.0 ], [ 132730.0, 6962210.0 ], [ 132750.0, 6962160.0 ], [ 132750.0, 6962090.0 ], [ 132740.0, 6962080.0 ], [ 132750.0, 6961920.0 ], [ 132800.0, 6961880.0 ], [ 132800.0, 6961670.0 ], [ 132730.0, 6961620.0 ], [ 132730.0, 6961600.0 ], [ 132690.0, 6961550.0 ], [ 132690.0, 6961510.0 ], [ 132660.0, 6961480.0 ], [ 132640.0, 6961420.0 ], [ 132640.0, 6961280.0 ], [ 132620.0, 6961260.0 ], [ 132620.0, 6961050.0 ], [ 132610.0, 6961040.0 ], [ 132600.0, 6960930.0 ], [ 132530.0, 6960860.0 ], [ 132530.0, 6960770.0 ], [ 132570.0, 6960680.0 ], [ 132570.0, 6960440.0 ], [ 132580.0, 6960430.0 ], [ 132580.0, 6960380.0 ], [ 132620.0, 6960340.0 ], [ 132620.0, 6960250.0 ], [ 132530.0, 6960150.0 ], [ 132520.0, 6960090.0 ], [ 132460.0, 6960030.0 ], [ 132460.0, 6959960.0 ], [ 132420.0, 6959930.0 ] ] } }
]
}
