{
"type": "FeatureCollection",
"name": "multi_path_smooth_loftskarstinden_06",
"crs": { "type": "name", "properties": { "name": "urn:ogc:def:crs:EPSG::25833" } },
"features": [
{ "type": "Feature", "properties": { "cat": 1 }, "geometry": { "type": "LineString", "coordinates": [ [ 132350.0, 6963820.0 ], [ 132360.0, 6963860.0 ], [ 132400.0, 6963900.0 ], [ 132400.0, 6963930.0 ], [ 132440.0, 6964030.0 ], [ 132500.0, 6964090.0 ], [ 132620.0, 6964120.0 ], [ 132650.0, 6964150.0 ], [ 132730.0, 6964150.0 ], [ 132760.0, 6964120.0 ], [ 132760.0, 6964090.0 ], [ 132810.0, 6964040.0 ], [ 132810.0, 6963890.0 ], [ 132840.0, 6963830.0 ], [ 132840.0, 6963770.0 ], [ 132870.0, 6963740.0 ], [ 132870.0, 6963570.0 ], [ 132860.0, 6963560.0 ], [ 132870.0, 6963260.0 ], [ 132900.0, 6963220.0 ], [ 132910.0, 6963140.0 ], [ 132930.0, 6963110.0 ], [ 132930.0, 6962950.0 ], [ 132950.0, 6962910.0 ], [ 132950.0, 6962840.0 ], [ 132970.0, 6962790.0 ], [ 132970.0, 6962210.0 ], [ 132960.0, 6962200.0 ], [ 132950.0, 6962010.0 ], [ 132850.0, 6961910.0 ], [ 132840.0, 6961770.0 ], [ 132820.0, 6961740.0 ], [ 132810.0, 6961680.0 ], [ 132740.0, 6961610.0 ], [ 132650.0, 6961450.0 ], [ 132650.0, 6961360.0 ], [ 132680.0, 6961290.0 ], [ 132670.0, 6961250.0 ], [ 132670.0, 6961030.0 ], [ 132620.0, 6960970.0 ], [ 132610.0, 6960930.0 ], [ 132530.0, 6960850.0 ], [ 132530.0, 6960650.0 ], [ 132550.0, 6960630.0 ], [ 132550.0, 6960390.0 ], [ 132580.0, 6960360.0 ], [ 132610.0, 6960350.0 ], [ 132620.0, 6960310.0 ], [ 132570.0, 6960230.0 ], [ 132460.0, 6960120.0 ], [ 132440.0, 6959950.0 ], [ 132420.0, 6959930.0 ] ] } }
]
}
