{
"type": "FeatureCollection",
"name": "multi_path_smooth_loftskarstinden_12",
"crs": { "type": "name", "properties": { "name": "urn:ogc:def:crs:EPSG::25833" } },
"features": [
{ "type": "Feature", "properties": { "cat": 1 }, "geometry": { "type": "LineString", "coordinates": [ [ 132350.0, 6963820.0 ], [ 132350.0, 6963800.0 ], [ 132220.0, 6963660.0 ], [ 132230.0, 6963620.0 ], [ 132220.0, 6963540.0 ], [ 132170.0, 6963490.0 ], [ 132150.0, 6963390.0 ], [ 132100.0, 6963310.0 ], [ 132090.0, 6963260.0 ], [ 132070.0, 6963230.0 ], [ 132070.0, 6963200.0 ], [ 132020.0, 6963110.0 ], [ 132020.0, 6963080.0 ], [ 131970.0, 6963020.0 ], [ 131930.0, 6962930.0 ], [ 131930.0, 6962720.0 ], [ 132020.0, 6962620.0 ], [ 132020.0, 6962580.0 ], [ 132150.0, 6962460.0 ], [ 132210.0, 6962460.0 ], [ 132260.0, 6962510.0 ], [ 132580.0, 6962520.0 ], [ 132690.0, 6962410.0 ], [ 132690.0, 6962290.0 ], [ 132770.0, 6962210.0 ], [ 132780.0, 6962180.0 ], [ 132780.0, 6961930.0 ], [ 132810.0, 6961910.0 ], [ 132810.0, 6961680.0 ], [ 132780.0, 6961640.0 ], [ 132780.0, 6961330.0 ], [ 132700.0, 6961260.0 ], [ 132700.0, 6961210.0 ], [ 132670.0, 6961140.0 ], [ 132670.0, 6961110.0 ], [ 132560.0, 6961000.0 ], [ 132560.0, 6960920.0 ], [ 132520.0, 6960880.0 ], [ 132530.0, 6960630.0 ], [ 132540.0, 6960590.0 ], [ 132560.0, 6960570.0 ], [ 132560.0, 6960440.0 ], [ 132580.0, 6960420.0 ], [ 132580.0, 6960380.0 ], [ 132630.0, 6960330.0 ], [ 132630.0, 6960300.0 ], [ 132610.0, 6960240.0 ], [ 132500.0, 6960130.0 ], [ 132510.0, 6960080.0 ], [ 132440.0, 6960010.0 ], [ 132440.0, 6959970.0 ], [ 132420.0, 6959950.0 ], [ 132420.0, 6959930.0 ] ] } }
]
}
