{
"type": "FeatureCollection",
"name": "multi_path_smooth_loftskarstinden_26",
"crs": { "type": "name", "properties": { "name": "urn:ogc:def:crs:EPSG::25833" } },
"features": [
{ "type": "Feature", "properties": { "cat": 1 }, "geometry": { "type": "LineString", "coordinates": [ [ 132350.0, 6963820.0 ], [ 132360.0, 6963860.0 ], [ 132400.0, 6963900.0 ], [ 132420.0, 6964020.0 ], [ 132510.0, 6964110.0 ], [ 132580.0, 6964110.0 ], [ 132590.0, 6964120.0 ], [ 132630.0, 6964120.0 ], [ 132650.0, 6964140.0 ], [ 132710.0, 6964140.0 ], [ 132770.0, 6964070.0 ], [ 132780.0, 6963910.0 ], [ 132850.0, 6963820.0 ], [ 132850.0, 6963770.0 ], [ 132880.0, 6963740.0 ], [ 132880.0, 6963520.0 ], [ 132870.0, 6963510.0 ], [ 132870.0, 6963460.0 ], [ 132890.0, 6963440.0 ], [ 132900.0, 6962750.0 ], [ 132910.0, 6962740.0 ], [ 132910.0, 6962680.0 ], [ 132950.0, 6962630.0 ], [ 132950.0, 6962600.0 ], [ 132970.0, 6962580.0 ], [ 132950.0, 6962090.0 ], [ 132920.0, 6962060.0 ], [ 132920.0, 6962010.0 ], [ 132870.0, 6961960.0 ], [ 132860.0, 6961860.0 ], [ 132840.0, 6961830.0 ], [ 132830.0, 6961690.0 ], [ 132750.0, 6961640.0 ], [ 132720.0, 6961560.0 ], [ 132660.0, 6961480.0 ], [ 132650.0, 6961420.0 ], [ 132610.0, 6961370.0 ], [ 132610.0, 6961020.0 ], [ 132500.0, 6960910.0 ], [ 132490.0, 6960870.0 ], [ 132490.0, 6960800.0 ], [ 132470.0, 6960770.0 ], [ 132480.0, 6960610.0 ], [ 132500.0, 6960590.0 ], [ 132500.0, 6960540.0 ], [ 132530.0, 6960490.0 ], [ 132530.0, 6960420.0 ], [ 132620.0, 6960330.0 ], [ 132570.0, 6960230.0 ], [ 132450.0, 6960110.0 ], [ 132430.0, 6960050.0 ], [ 132430.0, 6959950.0 ], [ 132420.0, 6959930.0 ] ] } }
]
}
