{
"type": "FeatureCollection",
"name": "galtatind_wgs84",
"crs": { "type": "name", "properties": { "name": "urn:ogc:def:crs:OGC:1.3:CRS84" } },
"features": [
{ "type": "Feature", "properties": { "cat": 1 }, "geometry": { "type": "LineString", "coordinates": [ [ 7.817966455613596, 62.612804032754262 ], [ 7.817279712362847, 62.612407961739308 ], [ 7.817777200854886, 62.610359735696271 ], [ 7.819066762105763, 62.609885193443198 ], [ 7.819733149064515, 62.609558863877005 ], [ 7.819776392061806, 62.609380756343377 ], [ 7.822355324649587, 62.608431620358367 ], [ 7.823901661031753, 62.608511272201149 ], [ 7.825103480050695, 62.609204337459083 ], [ 7.8256617700714, 62.609323252649581 ], [ 7.830300980241536, 62.60956204950854 ], [ 7.833717530589517, 62.608385315239062 ], [ 7.833890155288885, 62.607672862964655 ], [ 7.834556332217303, 62.607346459724411 ], [ 7.834986933991923, 62.606376775871574 ], [ 7.835438216203618, 62.60612948458909 ], [ 7.835934320620841, 62.604081174977431 ], [ 7.836772094294211, 62.603853755047872 ], [ 7.836858354535288, 62.603497526333719 ], [ 7.837073184276735, 62.603418406063547 ], [ 7.837181809558635, 62.602161667892766 ], [ 7.836666731394279, 62.60186468561924 ], [ 7.836108532974012, 62.601745815723604 ], [ 7.83570130429348, 62.601003544822014 ], [ 7.834714364000257, 62.600231454902101 ], [ 7.834585826257793, 62.599954344659878 ], [ 7.834779935129287, 62.59915283332893 ], [ 7.835510598482407, 62.598559252069215 ], [ 7.835382059497887, 62.598282142542665 ], [ 7.835533006630921, 62.597658743639222 ], [ 7.835747796468117, 62.597579624865787 ], [ 7.835856440601487, 62.596322887962749 ], [ 7.836758666480171, 62.595828293686587 ], [ 7.83684489734841, 62.595472064572213 ], [ 7.836673241946503, 62.595373070784085 ], [ 7.83590039239967, 62.595333322142025 ], [ 7.835557090737651, 62.595135332153404 ], [ 7.83321700546291, 62.59510511182976 ], [ 7.832745224147073, 62.594630004083257 ], [ 7.832896203017223, 62.594006608460731 ], [ 7.832038045717921, 62.593511614731909 ], [ 7.832274383005623, 62.593343444623834 ], [ 7.832189032202907, 62.592888219977091 ], [ 7.832661691991216, 62.592551878646233 ], [ 7.834186545702009, 62.591909011189244 ], [ 7.834315915694681, 62.591374670200821 ], [ 7.835454308453665, 62.590711908063561 ], [ 7.835368913693855, 62.590256684761151 ], [ 7.836399471975226, 62.590039199529336 ], [ 7.83646413260081, 62.589772027689961 ], [ 7.836207104582181, 62.589217810942891 ], [ 7.833461347363124, 62.58763388232947 ], [ 7.833419990479356, 62.586189093912523 ] ] } }
]
}
