{
"type": "FeatureCollection",
"name": "kjovskarstinden_wgs84",
"crs": { "type": "name", "properties": { "name": "urn:ogc:def:crs:OGC:1.3:CRS84" } },
"features": [
{ "type": "Feature", "properties": { "cat": 1 }, "geometry": { "type": "LineString", "coordinates": [ [ 7.946774896877816, 62.613116713361514 ], [ 7.946902359873334, 62.612582242986733 ], [ 7.947824529024111, 62.611997834818702 ], [ 7.947994445251216, 62.611285205880435 ], [ 7.947650199539334, 62.611087479447143 ], [ 7.947692678856735, 62.610909322287725 ], [ 7.944594688173585, 62.609129750050926 ], [ 7.943948793486665, 62.608556125102389 ], [ 7.944033786725636, 62.608199813482315 ], [ 7.94353876146835, 62.607814132286499 ], [ 7.943602508281113, 62.607546898787604 ], [ 7.943258334403166, 62.607349162474947 ], [ 7.942782505876636, 62.606062910727061 ], [ 7.942266280078919, 62.60576630337134 ], [ 7.94269127337885, 62.603984750198336 ], [ 7.941658903672996, 62.603391533990795 ], [ 7.941765155743976, 62.602946146326516 ], [ 7.941421045888919, 62.602748406333177 ], [ 7.94146354740918, 62.602570251358316 ], [ 7.940431250319032, 62.601977027032675 ], [ 7.940558766738034, 62.601442563129702 ], [ 7.93935448988916, 62.600750460458734 ], [ 7.939418255086788, 62.60048322910589 ], [ 7.935612512467233, 62.598397064980396 ], [ 7.931919057608551, 62.598299886054512 ], [ 7.931296688472733, 62.598448619724252 ], [ 7.916994918617793, 62.597722224689278 ], [ 7.91626451582388, 62.597504773231812 ], [ 7.915298217212815, 62.597455635027998 ], [ 7.915126282757289, 62.597356734113852 ], [ 7.909521842989994, 62.59707159482722 ], [ 7.909349930400791, 62.596972687086257 ], [ 7.907631999495244, 62.596795077029689 ], [ 7.906944387962812, 62.596399435998386 ], [ 7.905205152902807, 62.596310867547636 ], [ 7.904324340576526, 62.595905371959894 ], [ 7.899128158129741, 62.595550436143256 ], [ 7.898784422057681, 62.595352596027062 ], [ 7.897259892939968, 62.595184711173061 ], [ 7.896744315804878, 62.594887944136971 ], [ 7.891763042232621, 62.594453522442137 ], [ 7.891419368707489, 62.594255665016341 ], [ 7.886030435302934, 62.593890386472786 ], [ 7.885858620690233, 62.59379145110109 ], [ 7.872912993819929, 62.593129657394719 ], [ 7.872741228251561, 62.593030706525781 ], [ 7.871195531168324, 62.592951604823313 ], [ 7.870980866772173, 62.59303077989221 ], [ 7.869241964889699, 62.592941767417322 ], [ 7.869027295542336, 62.593020939411325 ], [ 7.86767482149853, 62.592951690481442 ], [ 7.866086210595562, 62.593050658957587 ], [ 7.86026849023906, 62.592842726202782 ], [ 7.860053798551225, 62.592921884076901 ], [ 7.855610084089355, 62.592694018369805 ], [ 7.85281922440906, 62.592911490481448 ], [ 7.849148383722877, 62.592723074026182 ], [ 7.846958610644698, 62.592881124886013 ], [ 7.844082147539005, 62.592643203020856 ], [ 7.843652682766574, 62.592801467478431 ], [ 7.843266285188046, 62.592781613405911 ], [ 7.84309462284184, 62.592682627428083 ], [ 7.840432954141681, 62.592365499917157 ], [ 7.839789450336007, 62.59179142571822 ], [ 7.838093840004376, 62.591523911691397 ], [ 7.835411610801676, 62.590484296415248 ], [ 7.835669460288891, 62.590227062863711 ], [ 7.836292105989009, 62.590078759854542 ], [ 7.836421428068991, 62.589544416256508 ], [ 7.83629291418955, 62.589267307904549 ], [ 7.83352558766147, 62.587772437598886 ], [ 7.833375547144064, 62.587584383752841 ], [ 7.83352734574146, 62.586149535652481 ] ] } }
]
}
