{
"type": "FeatureCollection",
"name": "kyrkjetaket_wgs84",
"crs": { "type": "name", "properties": { "name": "urn:ogc:def:crs:OGC:1.3:CRS84" } },
"features": [
{ "type": "Feature", "properties": { "cat": 1 }, "geometry": { "type": "LineString", "coordinates": [ [ 7.906728684618837, 62.611580073912073 ], [ 7.906599426773719, 62.611303020479973 ], [ 7.903848854572227, 62.610531876919914 ], [ 7.901290824525848, 62.608959054417618 ], [ 7.90128988653358, 62.608147578880939 ], [ 7.899742410246609, 62.60725730675756 ], [ 7.8998065491644, 62.606990098608392 ], [ 7.899333509184593, 62.606515199382926 ], [ 7.899268480953754, 62.605970932412461 ], [ 7.897656179199823, 62.604536372864338 ], [ 7.892155503784613, 62.601370759242798 ], [ 7.891403804045427, 62.601242246923967 ], [ 7.890179307487039, 62.600638803557068 ], [ 7.888439887955901, 62.600550023513982 ], [ 7.887902902367225, 62.60034229105424 ], [ 7.8869365711546, 62.60029295588825 ], [ 7.886764717700626, 62.600194021110582 ], [ 7.88251291932074, 62.599976862392076 ], [ 7.882298231975649, 62.600056054570814 ], [ 7.875512692132284, 62.599799363758827 ], [ 7.874095541236867, 62.599997366798576 ], [ 7.865978810885827, 62.599581945780997 ], [ 7.865807032999271, 62.599482986205771 ], [ 7.862328525932717, 62.599304800967566 ], [ 7.862156762065449, 62.599205837086203 ], [ 7.856724364042625, 62.599017543594748 ], [ 7.856509617469198, 62.599096695263746 ], [ 7.849939362843876, 62.598759615762589 ], [ 7.849509837490039, 62.598917897434063 ], [ 7.848543633594927, 62.59886829797 ], [ 7.847211957578673, 62.59952124410691 ], [ 7.845644474788763, 62.5995309149381 ], [ 7.84472073880208, 62.600114625851944 ], [ 7.843281844577185, 62.600401371715151 ], [ 7.83922366578778, 62.600192826070376 ], [ 7.838300556950452, 62.599965040046648 ], [ 7.837442141178609, 62.599470076068798 ], [ 7.837356699215109, 62.599014853352493 ], [ 7.835961753244256, 62.598311957351285 ], [ 7.835403623813547, 62.598193085572532 ], [ 7.835533006630921, 62.597658743639222 ], [ 7.835747796468117, 62.597579624865787 ], [ 7.835856440601487, 62.596322887962749 ], [ 7.836758666480171, 62.595828293686587 ], [ 7.83684489734841, 62.595472064572213 ], [ 7.836673241946503, 62.595373070784085 ], [ 7.83590039239967, 62.595333322142025 ], [ 7.835557090737651, 62.595135332153404 ], [ 7.83321700546291, 62.59510511182976 ], [ 7.832745224147073, 62.594630004083257 ], [ 7.832896203017223, 62.594006608460731 ], [ 7.832038045717921, 62.593511614731909 ], [ 7.832274383005623, 62.593343444623834 ], [ 7.832189032202907, 62.592888219977091 ], [ 7.832661691991216, 62.592551878646233 ], [ 7.834186545702009, 62.591909011189244 ], [ 7.834315915694681, 62.591374670200821 ], [ 7.835454308453665, 62.590711908063561 ], [ 7.835368913693855, 62.590256684761151 ], [ 7.836399471975226, 62.590039199529336 ], [ 7.83646413260081, 62.589772027689961 ], [ 7.836207104582181, 62.589217810942891 ], [ 7.833461347363124, 62.58763388232947 ], [ 7.833419990479356, 62.586189093912523 ] ] } }
]
}
