{
"type": "FeatureCollection",
"name": "skarven_wgs84",
"crs": { "type": "name", "properties": { "name": "urn:ogc:def:crs:OGC:1.3:CRS84" } },
"features": [
{ "type": "Feature", "properties": { "cat": 1 }, "geometry": { "type": "LineString", "coordinates": [ [ 7.851906794783734, 62.614504087290761 ], [ 7.85233653909203, 62.614345801218292 ], [ 7.855752494527261, 62.613979982139774 ], [ 7.857020117470641, 62.613594144099707 ], [ 7.857407339538042, 62.611991045340062 ], [ 7.857278544260236, 62.611713952542559 ], [ 7.856763100019213, 62.611417039545991 ], [ 7.857064259628058, 62.610170185415697 ], [ 7.856248263065601, 62.609497206970815 ], [ 7.854014952181969, 62.608210557533305 ], [ 7.853456561845693, 62.608091754475694 ], [ 7.85225410763065, 62.607398924940682 ], [ 7.851094325708108, 62.607339423015873 ], [ 7.849848899877576, 62.606824693658176 ], [ 7.849097261474271, 62.606695954161758 ], [ 7.84823847338184, 62.606201051599321 ], [ 7.846713712210087, 62.606032611004409 ], [ 7.846026726861209, 62.605636678249283 ], [ 7.843922164520496, 62.605438432708489 ], [ 7.840315964884719, 62.603359682243585 ], [ 7.839435863509268, 62.602953786621754 ], [ 7.839049337596448, 62.602933919115657 ], [ 7.838534227354589, 62.602636943303835 ], [ 7.837976006621253, 62.602518080579742 ], [ 7.837460914346996, 62.602221101047711 ], [ 7.836902705917705, 62.602102234194803 ], [ 7.836044254434717, 62.601607261128798 ], [ 7.835937264562379, 62.601241094837675 ], [ 7.834800201756968, 62.60028095316467 ], [ 7.834564694688684, 62.599637675935668 ], [ 7.834672533275253, 62.599192391916866 ], [ 7.835381635078386, 62.598687868227636 ], [ 7.836006951616932, 62.596105214072736 ], [ 7.836930725476343, 62.595521561392857 ], [ 7.835642915726186, 62.595184829723998 ], [ 7.833131184842236, 62.595055612825533 ], [ 7.832787905205882, 62.594857616319025 ], [ 7.832810386006567, 62.593957109308093 ], [ 7.832123860167142, 62.593561114325034 ], [ 7.832317982427216, 62.59275960658961 ], [ 7.834293921176535, 62.591869452615228 ], [ 7.834423289022469, 62.591335111497827 ], [ 7.835325381120123, 62.590840524664515 ], [ 7.835669460288891, 62.590227062863711 ], [ 7.836292105989009, 62.590078759854542 ], [ 7.836421428068991, 62.589544416256508 ], [ 7.83629291418955, 62.589267307904549 ], [ 7.83352558766147, 62.587772437598886 ], [ 7.833375547144064, 62.587584383752841 ], [ 7.83352734574146, 62.586149535652481 ] ] } }
]
}
