{
"type": "FeatureCollection",
"name": "tours",
"crs": { "type": "name", "properties": { "name": "urn:ogc:def:crs:EPSG::25833" } },
"features": [
{ "type": "Feature", "properties": { "area_id": "svolvaer_01", "tour_name": "Dronningtinden", "role": "start" }, "geometry": { "type": "Point", "coordinates": [ 479631.208001168444753, 7569046.06676706019789 ] } },
{ "type": "Feature", "properties": { "area_id": "svolvaer_01", "tour_name": "Dronningtinden", "role": "end" }, "geometry": { "type": "Point", "coordinates": [ 477113.280369589512702, 7569886.116109163500369 ] } },
{ "type": "Feature", "properties": { "area_id": "svolvaer_01", "tour_name": "Nøkksaetra", "role": "start" }, "geometry": { "type": "Point", "coordinates": [ 480687.375764326367062, 7570607.744398642331362 ] } },
{ "type": "Feature", "properties": { "area_id": "svolvaer_01", "tour_name": "Nøkksaetra", "role": "end" }, "geometry": { "type": "Point", "coordinates": [ 479484.908659063046798, 7572277.851306535303593 ] } },
{ "type": "Feature", "properties": { "area_id": "svolvaer_01", "tour_name": "Glomtinden", "role": "start" }, "geometry": { "type": "Point", "coordinates": [ 469116.898790641862433, 7566234.183543374761939 ] } },
{ "type": "Feature", "properties": { "area_id": "svolvaer_01", "tour_name": "Glomtinden", "role": "end" }, "geometry": { "type": "Point", "coordinates": [ 471425.615895904949866, 7565704.249332848004997 ] } },
{ "type": "Feature", "properties": { "area_id": "svolvaer_01", "tour_name": "Småtindan", "role": "start" }, "geometry": { "type": "Point", "coordinates": [ 476976.109316957590636, 7567192.653938111849129 ] } },
{ "type": "Feature", "properties": { "area_id": "svolvaer_01", "tour_name": "Småtindan", "role": "end" }, "geometry": { "type": "Point", "coordinates": [ 474658.263922220852692, 7568763.213148635812104 ] } },
{ "type": "Feature", "properties": { "area_id": "svolvaer_01", "tour_name": "Sydalsfjellet", "role": "start" }, "geometry": { "type": "Point", "coordinates": [ 471865.254053799726535, 7576581.716438109055161 ] } },
{ "type": "Feature", "properties": { "area_id": "svolvaer_01", "tour_name": "Sydalsfjellet", "role": "end" }, "geometry": { "type": "Point", "coordinates": [ 473671.421816957648844, 7576683.607885477133095 ] } },
{ "type": "Feature", "properties": { "area_id": "svolvaer_01", "tour_name": "Rundfjellet", "role": "start" }, "geometry": { "type": "Point", "coordinates": [ 482690.665238010347821, 7577835.252622319385409 ] } },
{ "type": "Feature", "properties": { "area_id": "svolvaer_01", "tour_name": "Rundfjellet", "role": "end" }, "geometry": { "type": "Point", "coordinates": [ 482052.178395905182697, 7575201.371043372899294 ] } },
{ "type": "Feature", "properties": { "area_id": "kattfjordeidet_01", "tour_name": "Botnfjellet", "role": "start" }, "geometry": { "type": "Point", "coordinates": [ 644371.808414895902388, 7729353.788976087234914 ] } },
{ "type": "Feature", "properties": { "area_id": "kattfjordeidet_01", "tour_name": "Botnfjellet", "role": "end" }, "geometry": { "type": "Point", "coordinates": [ 640380.861249947804026, 7729859.169130727648735 ] } },
{ "type": "Feature", "properties": { "area_id": "kattfjordeidet_01", "tour_name": "Steinskarstinden", "role": "start" }, "geometry": { "type": "Point", "coordinates": [ 639427.607383968541399, 7732845.444903925992548 ] } },
{ "type": "Feature", "properties": { "area_id": "kattfjordeidet_01", "tour_name": "Steinskarstinden", "role": "end" }, "geometry": { "type": "Point", "coordinates": [ 639201.640889123314992, 7730689.291553410701454 ] } },
{ "type": "Feature", "properties": { "area_id": "kattfjordeidet_01", "tour_name": "Straumsaksla", "role": "start" }, "geometry": { "type": "Point", "coordinates": [ 635114.624136546161026, 7730515.41913072951138 ] } },
{ "type": "Feature", "properties": { "area_id": "kattfjordeidet_01", "tour_name": "Straumsaksla", "role": "end" }, "geometry": { "type": "Point", "coordinates": [ 637025.191146855358966, 7729514.130470936186612 ] } },
{ "type": "Feature", "properties": { "area_id": "kattfjordeidet_01", "tour_name": "Durmaalstinden", "role": "start" }, "geometry": { "type": "Point", "coordinates": [ 634849.417950979084708, 7730244.800574028864503 ] } },
{ "type": "Feature", "properties": { "area_id": "kattfjordeidet_01", "tour_name": "Durmaalstinden", "role": "end" }, "geometry": { "type": "Point", "coordinates": [ 634367.716920051258057, 7727008.202635884284973 ] } },
{ "type": "Feature", "properties": { "area_id": "kattfjordeidet_01", "tour_name": "Middagstinden", "role": "start" }, "geometry": { "type": "Point", "coordinates": [ 634703.283930360572413, 7730150.084079187363386 ] } },
{ "type": "Feature", "properties": { "area_id": "kattfjordeidet_01", "tour_name": "Middagstinden", "role": "end" }, "geometry": { "type": "Point", "coordinates": [ 631999.804548917221837, 7733427.274800838902593 ] } },
{ "type": "Feature", "properties": { "area_id": "kattfjordeidet_01", "tour_name": "Skittentinden", "role": "start" }, "geometry": { "type": "Point", "coordinates": [ 635517.8457860306371, 7730672.377893622033298 ] } },
{ "type": "Feature", "properties": { "area_id": "kattfjordeidet_01", "tour_name": "Skittentinden", "role": "end" }, "geometry": { "type": "Point", "coordinates": [ 633379.959188092499971, 7733459.749027642421424 ] } },
{ "type": "Feature", "properties": { "area_id": "kattfjordeidet_01", "tour_name": "Storsteinnestinden", "role": "start" }, "geometry": { "type": "Point", "coordinates": [ 636248.515889123431407, 7730844.220677128061652 ] } },
{ "type": "Feature", "properties": { "area_id": "kattfjordeidet_01", "tour_name": "Storsteinnestinden", "role": "end" }, "geometry": { "type": "Point", "coordinates": [ 635896.71176541224122, 7733775.01964620128274 ] } },
{ "type": "Feature", "properties": { "area_id": "kattfjordeidet_01", "tour_name": "Tverrfjellet", "role": "start" }, "geometry": { "type": "Point", "coordinates": [ 634708.696301494725049, 7730148.730986410751939 ] } },
{ "type": "Feature", "properties": { "area_id": "kattfjordeidet_01", "tour_name": "Tverrfjellet", "role": "end" }, "geometry": { "type": "Point", "coordinates": [ 633057.923105618450791, 7730343.576347235590219 ] } },
{ "type": "Feature", "properties": { "area_id": "kattfjordeidet_01", "tour_name": "Nordfjordtinden", "role": "start" }, "geometry": { "type": "Point", "coordinates": [ 631228.54166231979616, 7728828.112429709173739 ] } },
{ "type": "Feature", "properties": { "area_id": "kattfjordeidet_01", "tour_name": "Nordfjordtinden", "role": "end" }, "geometry": { "type": "Point", "coordinates": [ 630346.325167474453337, 7730056.720677131786942 ] } },
{ "type": "Feature", "properties": { "area_id": "sogndal_01", "tour_name": "Togga", "role": "start" }, "geometry": { "type": "Point", "coordinates": [ 68520.551971597873489, 6825947.184594662860036 ] } },
{ "type": "Feature", "properties": { "area_id": "sogndal_01", "tour_name": "Togga", "role": "end" }, "geometry": { "type": "Point", "coordinates": [ 66919.843208711274201, 6827071.604697755537927 ] } },
{ "type": "Feature", "properties": { "area_id": "sogndal_01", "tour_name": "Svarteholten", "role": "start" }, "geometry": { "type": "Point", "coordinates": [ 68643.683414896921022, 6825535.844388480298221 ] } },
{ "type": "Feature", "properties": { "area_id": "sogndal_01", "tour_name": "Svarteholten", "role": "end" }, "geometry": { "type": "Point", "coordinates": [ 68124.095786030928139, 6823484.55572868604213 ] } },
{ "type": "Feature", "properties": { "area_id": "sogndal_01", "tour_name": "Groendalseggi", "role": "start" }, "geometry": { "type": "Point", "coordinates": [ 84147.420528298971476, 6839257.558306006714702 ] } },
{ "type": "Feature", "properties": { "area_id": "sogndal_01", "tour_name": "Groendalseggi", "role": "end" }, "geometry": { "type": "Point", "coordinates": [ 81748.387023144314298, 6837098.02222353219986 ] } },
{ "type": "Feature", "properties": { "area_id": "sogndal_01", "tour_name": "Blaafjellet", "role": "start" }, "geometry": { "type": "Point", "coordinates": [ 71077.897332422682666, 6821559.10469776019454 ] } },
{ "type": "Feature", "properties": { "area_id": "sogndal_01", "tour_name": "Blaafjellet", "role": "end" }, "geometry": { "type": "Point", "coordinates": [ 67083.567435515462421, 6822560.393357554450631 ] } },
{ "type": "Feature", "properties": { "area_id": "sogndal_01", "tour_name": "Kambafjellet", "role": "start" }, "geometry": { "type": "Point", "coordinates": [ 71083.309703556704335, 6821553.692326626740396 ] } },
{ "type": "Feature", "properties": { "area_id": "sogndal_01", "tour_name": "Kambafjellet", "role": "end" }, "geometry": { "type": "Point", "coordinates": [ 68379.830322113382863, 6822858.073769925162196 ] } },
{ "type": "Feature", "properties": { "area_id": "jotunheimen_01", "tour_name": "Loftet", "role": "start" }, "geometry": { "type": "Point", "coordinates": [ 137960.458846630121116, 6855241.446989638730884 ] } },
{ "type": "Feature", "properties": { "area_id": "jotunheimen_01", "tour_name": "Loftet", "role": "end" }, "geometry": { "type": "Point", "coordinates": [ 136000.975695890490897, 6851422.287039588205516 ] } },
{ "type": "Feature", "properties": { "area_id": "jotunheimen_01", "tour_name": "Storebjoern", "role": "start" }, "geometry": { "type": "Point", "coordinates": [ 130502.465397899533855, 6846479.220784328877926 ] } },
{ "type": "Feature", "properties": { "area_id": "jotunheimen_01", "tour_name": "Storebjoern", "role": "end" }, "geometry": { "type": "Point", "coordinates": [ 135713.85162692744052, 6843068.20613129902631 ] } },
{ "type": "Feature", "properties": { "area_id": "jotunheimen_01", "tour_name": "Kalven", "role": "start" }, "geometry": { "type": "Point", "coordinates": [ 130504.152944904300966, 6846477.292159176431596 ] } },
{ "type": "Feature", "properties": { "area_id": "jotunheimen_01", "tour_name": "Kalven", "role": "end" }, "geometry": { "type": "Point", "coordinates": [ 134033.53696641366696, 6843860.147832844406366 ] } },
{ "type": "Feature", "properties": { "area_id": "jotunheimen_01", "tour_name": "Store_Smoerstabbtinden", "role": "start" }, "geometry": { "type": "Point", "coordinates": [ 130504.152944904242759, 6846478.256471749395132 ] } },
{ "type": "Feature", "properties": { "area_id": "jotunheimen_01", "tour_name": "Store_Smoerstabbtinden", "role": "end" }, "geometry": { "type": "Point", "coordinates": [ 135034.011262128449744, 6845765.629479427821934 ] } },
{ "type": "Feature", "properties": { "area_id": "jotunheimen_01", "tour_name": "Kyrkja", "role": "start" }, "geometry": { "type": "Point", "coordinates": [ 141560.960920485376846, 6842481.180851759389043 ] } },
{ "type": "Feature", "properties": { "area_id": "jotunheimen_01", "tour_name": "Kyrkja", "role": "end" }, "geometry": { "type": "Point", "coordinates": [ 143840.354767710057786, 6841450.210170885547996 ] } },
{ "type": "Feature", "properties": { "area_id": "jotunheimen_01", "tour_name": "Store_Tverrbottinden", "role": "start" }, "geometry": { "type": "Point", "coordinates": [ 138754.931868725194363, 6850830.801814314909279 ] } },
{ "type": "Feature", "properties": { "area_id": "jotunheimen_01", "tour_name": "Store_Tverrbottinden", "role": "end" }, "geometry": { "type": "Point", "coordinates": [ 142282.869421345269075, 6845445.116087546572089 ] } },
{ "type": "Feature", "properties": { "area_id": "jotunheimen_01", "tour_name": "Stetinden", "role": "start" }, "geometry": { "type": "Point", "coordinates": [ 141562.04577214922756, 6842478.408453094772995 ] } },
{ "type": "Feature", "properties": { "area_id": "jotunheimen_01", "tour_name": "Stetinden", "role": "end" }, "geometry": { "type": "Point", "coordinates": [ 138786.754183672950603, 6842670.788811642676592 ] } },
{ "type": "Feature", "properties": { "area_id": "jotunheimen_01", "tour_name": "Bukkehoe", "role": "start" }, "geometry": { "type": "Point", "coordinates": [ 138758.789119021850638, 6850830.801814316771924 ] } },
{ "type": "Feature", "properties": { "area_id": "jotunheimen_01", "tour_name": "Bukkehoe", "role": "end" }, "geometry": { "type": "Point", "coordinates": [ 143184.019521911919583, 6848578.649797330610454 ] } },
{ "type": "Feature", "properties": { "area_id": "jotunheimen_02", "tour_name": "Galdhoepiggen_1", "role": "start" }, "geometry": { "type": "Point", "coordinates": [ 149436.62225286391913, 6855585.827117569744587 ] } },
{ "type": "Feature", "properties": { "area_id": "jotunheimen_02", "tour_name": "Galdhoepiggen_1", "role": "end" }, "geometry": { "type": "Point", "coordinates": [ 146004.87487951797084, 6851887.20623932313174 ] } },
{ "type": "Feature", "properties": { "area_id": "jotunheimen_02", "tour_name": "Galdhoepiggen_2", "role": "start" }, "geometry": { "type": "Point", "coordinates": [ 150688.541052287007915, 6850080.566631604917347 ] } },
{ "type": "Feature", "properties": { "area_id": "jotunheimen_02", "tour_name": "Galdhoepiggen_2", "role": "end" }, "geometry": { "type": "Point", "coordinates": [ 146005.115957661531866, 6851887.20623931940645 ] } },
{ "type": "Feature", "properties": { "area_id": "jotunheimen_02", "tour_name": "Glittertinden", "role": "start" }, "geometry": { "type": "Point", "coordinates": [ 162749.92165192696848, 6848676.045367318205535 ] } },
{ "type": "Feature", "properties": { "area_id": "jotunheimen_02", "tour_name": "Glittertinden", "role": "end" }, "geometry": { "type": "Point", "coordinates": [ 159099.998558673803927, 6852235.805234885774553 ] } },
{ "type": "Feature", "properties": { "area_id": "jotunheimen_02", "tour_name": "Store_Hellstugutinden", "role": "start" }, "geometry": { "type": "Point", "coordinates": [ 150690.228599291731371, 6850075.262912442907691 ] } },
{ "type": "Feature", "properties": { "area_id": "jotunheimen_02", "tour_name": "Store_Hellstugutinden", "role": "end" }, "geometry": { "type": "Point", "coordinates": [ 151057.631690052396152, 6841062.315437914803624 ] } },
{ "type": "Feature", "properties": { "area_id": "jotunheimen_03", "tour_name": "Mjoelkedalstinden", "role": "start" }, "geometry": { "type": "Point", "coordinates": [ 142074.095749035885092, 6833741.25437478441745 ] } },
{ "type": "Feature", "properties": { "area_id": "jotunheimen_03", "tour_name": "Mjoelkedalstinden", "role": "end" }, "geometry": { "type": "Point", "coordinates": [ 140681.146235639753286, 6832571.061066020280123 ] } },
{ "type": "Feature", "properties": { "area_id": "jotunheimen_03", "tour_name": "Uranostinden", "role": "start" }, "geometry": { "type": "Point", "coordinates": [ 142180.170132195024053, 6822972.775858962908387 ] } },
{ "type": "Feature", "properties": { "area_id": "jotunheimen_03", "tour_name": "Uranostinden", "role": "end" }, "geometry": { "type": "Point", "coordinates": [ 134973.862265383620979, 6829519.976081324741244 ] } },
{ "type": "Feature", "properties": { "area_id": "jotunheimen_03", "tour_name": "Langeskavltinden", "role": "start" }, "geometry": { "type": "Point", "coordinates": [ 142181.134444769122638, 6822970.847233810462058 ] } },
{ "type": "Feature", "properties": { "area_id": "jotunheimen_03", "tour_name": "Langeskavltinden", "role": "end" }, "geometry": { "type": "Point", "coordinates": [ 136518.208852925192332, 6829482.367890927009284 ] } },
{ "type": "Feature", "properties": { "area_id": "jotunheimen_03", "tour_name": "Hoegbroethoegde", "role": "start" }, "geometry": { "type": "Point", "coordinates": [ 142180.652288482029689, 6822970.365077521651983 ] } },
{ "type": "Feature", "properties": { "area_id": "jotunheimen_03", "tour_name": "Hoegbroethoegde", "role": "end" }, "geometry": { "type": "Point", "coordinates": [ 141838.321324649790768, 6827716.711567611433566 ] } },
{ "type": "Feature", "properties": { "area_id": "jotunheimen_04", "tour_name": "Galdeberget", "role": "start" }, "geometry": { "type": "Point", "coordinates": [ 144553.825533527182415, 6822593.318861014209688 ] } },
{ "type": "Feature", "properties": { "area_id": "jotunheimen_04", "tour_name": "Galdeberget", "role": "end" }, "geometry": { "type": "Point", "coordinates": [ 149991.584139301208779, 6822788.110000998713076 ] } },
{ "type": "Feature", "properties": { "area_id": "jotunheimen_04", "tour_name": "Besshoe", "role": "start" }, "geometry": { "type": "Point", "coordinates": [ 161202.682126662228256, 6834043.566366767510772 ] } },
{ "type": "Feature", "properties": { "area_id": "jotunheimen_04", "tour_name": "Besshoe", "role": "end" }, "geometry": { "type": "Point", "coordinates": [ 164493.88094232219737, 6836733.516292428597808 ] } },
{ "type": "Feature", "properties": { "area_id": "hemsedal_01", "tour_name": "Hauganoese", "role": "start" }, "geometry": { "type": "Point", "coordinates": [ 141657.512716991797788, 6766082.673389187082648 ] } },
{ "type": "Feature", "properties": { "area_id": "hemsedal_01", "tour_name": "Hauganoese", "role": "end" }, "geometry": { "type": "Point", "coordinates": [ 141788.177070792560698, 6764589.194289930164814 ] } },
{ "type": "Feature", "properties": { "area_id": "hemsedal_01", "tour_name": "Hestebottfjellet", "role": "start" }, "geometry": { "type": "Point", "coordinates": [ 140468.997469320776872, 6766259.142590258270502 ] } },
{ "type": "Feature", "properties": { "area_id": "hemsedal_01", "tour_name": "Hestebottfjellet", "role": "end" }, "geometry": { "type": "Point", "coordinates": [ 139247.69559412781382, 6765104.378282683901489 ] } },
{ "type": "Feature", "properties": { "area_id": "hemsedal_01", "tour_name": "Storeskardnoese", "role": "start" }, "geometry": { "type": "Point", "coordinates": [ 137671.526691638486227, 6769761.043703376315534 ] } },
{ "type": "Feature", "properties": { "area_id": "hemsedal_01", "tour_name": "Storeskardnoese", "role": "end" }, "geometry": { "type": "Point", "coordinates": [ 137500.843366009474266, 6768090.131090472452343 ] } },
{ "type": "Feature", "properties": { "area_id": "hemsedal_01", "tour_name": "Steinbunoese", "role": "start" }, "geometry": { "type": "Point", "coordinates": [ 138244.810516985598952, 6769343.737436896190047 ] } },
{ "type": "Feature", "properties": { "area_id": "hemsedal_01", "tour_name": "Steinbunoese", "role": "end" }, "geometry": { "type": "Point", "coordinates": [ 138756.86049387260573, 6770694.739353314973414 ] } },
{ "type": "Feature", "properties": { "area_id": "hemsedal_01", "tour_name": "Storebottskarvet", "role": "start" }, "geometry": { "type": "Point", "coordinates": [ 134895.270790587936062, 6770195.707596180960536 ] } },
{ "type": "Feature", "properties": { "area_id": "hemsedal_01", "tour_name": "Storebottskarvet", "role": "end" }, "geometry": { "type": "Point", "coordinates": [ 133078.023744554782752, 6767373.646847857162356 ] } },
{ "type": "Feature", "properties": { "area_id": "hemsedal_01", "tour_name": "1609", "role": "start" }, "geometry": { "type": "Point", "coordinates": [ 134361.523780781921232, 6770385.195017005316913 ] } },
{ "type": "Feature", "properties": { "area_id": "hemsedal_01", "tour_name": "1609", "role": "end" }, "geometry": { "type": "Point", "coordinates": [ 131821.524460404383717, 6768990.316878460347652 ] } },
{ "type": "Feature", "properties": { "area_id": "hemsedal_01", "tour_name": "Svarthetta", "role": "start" }, "geometry": { "type": "Point", "coordinates": [ 139534.096428657619981, 6775267.991736342199147 ] } },
{ "type": "Feature", "properties": { "area_id": "hemsedal_01", "tour_name": "Svarthetta", "role": "end" }, "geometry": { "type": "Point", "coordinates": [ 138691.769395115581574, 6777780.025992067530751 ] } },
{ "type": "Feature", "properties": { "area_id": "hemsedal_02", "tour_name": "Leinenoese", "role": "start" }, "geometry": { "type": "Point", "coordinates": [ 147392.761751898564398, 6767187.534521034918725 ] } },
{ "type": "Feature", "properties": { "area_id": "hemsedal_02", "tour_name": "Leinenoese", "role": "end" }, "geometry": { "type": "Point", "coordinates": [ 149895.152881883259397, 6769577.583236126229167 ] } },
{ "type": "Feature", "properties": { "area_id": "hemsedal_02", "tour_name": "Skurvefjellet", "role": "start" }, "geometry": { "type": "Point", "coordinates": [ 150416.363828224828467, 6764741.073520351201296 ] } },
{ "type": "Feature", "properties": { "area_id": "hemsedal_02", "tour_name": "Skurvefjellet", "role": "end" }, "geometry": { "type": "Point", "coordinates": [ 153423.331512646662304, 6767334.351110452786088 ] } },
{ "type": "Feature", "properties": { "area_id": "hemsedal_02", "tour_name": "Nibbi", "role": "start" }, "geometry": { "type": "Point", "coordinates": [ 156773.353395331389038, 6764591.363993208855391 ] } },
{ "type": "Feature", "properties": { "area_id": "hemsedal_02", "tour_name": "Nibbi", "role": "end" }, "geometry": { "type": "Point", "coordinates": [ 155710.198782303225016, 6766851.471588931977749 ] } },
{ "type": "Feature", "properties": { "area_id": "hemsedal_02", "tour_name": "Skogshorn", "role": "start" }, "geometry": { "type": "Point", "coordinates": [ 161083.107367463991977, 6765797.71902350243181 ] } },
{ "type": "Feature", "properties": { "area_id": "hemsedal_02", "tour_name": "Skogshorn", "role": "end" }, "geometry": { "type": "Point", "coordinates": [ 158073.608362534869229, 6766045.547355063259602 ] } }
]
}
