{
"type": "FeatureCollection",
"name": "skarven_18_wgs84",
"crs": { "type": "name", "properties": { "name": "urn:ogc:def:crs:OGC:1.3:CRS84" } },
"features": [
{ "type": "Feature", "properties": { "cat": 1 }, "geometry": { "type": "LineString", "coordinates": [ [ 7.851799357993904, 62.614543658592332 ], [ 7.852035760667136, 62.614375455892549 ], [ 7.853625556163485, 62.614276663598218 ], [ 7.854055288250176, 62.614118372065136 ], [ 7.854635314562929, 62.614148113758375 ], [ 7.856461464933209, 62.613881080991135 ], [ 7.857750586105734, 62.613406175194292 ], [ 7.858180782700894, 62.611624951349143 ], [ 7.858008964226082, 62.611525981622655 ], [ 7.858116506356546, 62.611080675489305 ], [ 7.857429252337133, 62.610684795265506 ], [ 7.857494044817424, 62.609606152528187 ], [ 7.857171945599665, 62.609319150479564 ], [ 7.857172216349976, 62.608507691190304 ], [ 7.849957697768435, 62.604350753469369 ], [ 7.848905687430674, 62.603845936526284 ], [ 7.847402575647804, 62.603588445557776 ], [ 7.846543903237476, 62.603093534128362 ], [ 7.846673112937694, 62.602559179517904 ], [ 7.846157930783924, 62.602262230888549 ], [ 7.845771408163327, 62.602242382058037 ], [ 7.844397650670351, 62.601450506770966 ], [ 7.843452918400506, 62.601311812410984 ], [ 7.839632444352134, 62.599312181893332 ], [ 7.838687803951832, 62.599173456502086 ], [ 7.83731437711302, 62.598381515935991 ], [ 7.838262054361875, 62.595274440185932 ], [ 7.838476819504798, 62.595195316871916 ], [ 7.838606130573528, 62.594660971105547 ], [ 7.839078748510945, 62.594324607452826 ], [ 7.839445071942966, 62.592810625093001 ], [ 7.839874558477343, 62.592652373892676 ], [ 7.840153934517312, 62.592306073868414 ], [ 7.840240111775629, 62.591949841920631 ], [ 7.840068464406878, 62.591850852420826 ], [ 7.840326286692478, 62.591593609887305 ], [ 7.839811353074939, 62.591296641187455 ], [ 7.839424978294216, 62.591276776779843 ], [ 7.839489615165334, 62.591009603214658 ], [ 7.838846157639214, 62.590435525290239 ], [ 7.838976170285842, 62.589089725754967 ], [ 7.83828966867921, 62.58869376145784 ], [ 7.838332762120887, 62.588515646130517 ], [ 7.834385750661166, 62.586238792117953 ], [ 7.833419990479356, 62.586189093912523 ] ] } }
]
}
