{
"type": "FeatureCollection",
"name": "skarven_07_wgs84",
"crs": { "type": "name", "properties": { "name": "urn:ogc:def:crs:OGC:1.3:CRS84" } },
"features": [
{ "type": "Feature", "properties": { "cat": 1 }, "geometry": { "type": "LineString", "coordinates": [ [ 7.851799357993904, 62.614543658592332 ], [ 7.852035760667136, 62.614375455892549 ], [ 7.853625556163485, 62.614276663598218 ], [ 7.854248630208124, 62.614128286228876 ], [ 7.854828656959781, 62.614158027124176 ], [ 7.855688100665787, 62.613841435044264 ], [ 7.857063003476324, 62.613821751661511 ], [ 7.858137264029491, 62.613425992929585 ], [ 7.858631958842974, 62.611377583597026 ], [ 7.852984066536965, 62.608022437027529 ], [ 7.852597463252327, 62.608002606020989 ], [ 7.851395033079886, 62.607309769406093 ], [ 7.850428552494948, 62.60726017924474 ], [ 7.850085018437158, 62.607062221878039 ], [ 7.84931184233224, 62.607022543136317 ], [ 7.848581734253225, 62.606804741279333 ], [ 7.84645553101363, 62.606695591931654 ], [ 7.839564829308691, 62.602825166748225 ], [ 7.838620078349527, 62.602686439394923 ], [ 7.837568323850722, 62.602181540416723 ], [ 7.836108532974012, 62.601745815723604 ], [ 7.83570130429348, 62.601003544822014 ], [ 7.834714364000257, 62.600231454902101 ], [ 7.834585826257793, 62.599954344659878 ], [ 7.834779935129287, 62.59915283332893 ], [ 7.835510598482407, 62.598559252069215 ], [ 7.835403623813547, 62.598193085572532 ], [ 7.835812483751409, 62.59731245369791 ], [ 7.835683946585527, 62.597035344473419 ], [ 7.833624099936112, 62.595847388169283 ], [ 7.833710368411696, 62.595491161506452 ], [ 7.83285215582162, 62.594996172036737 ], [ 7.832745224147073, 62.594630004083257 ], [ 7.832939338518644, 62.593828495377522 ], [ 7.833626770023622, 62.593413035749727 ], [ 7.833691464856681, 62.593145865665619 ], [ 7.834120985930376, 62.59298763266046 ], [ 7.834486679214685, 62.592285117685172 ], [ 7.834916183439447, 62.592126882000152 ], [ 7.835368913693855, 62.590256684761151 ], [ 7.836399471975226, 62.590039199529336 ], [ 7.83646413260081, 62.589772027689961 ], [ 7.836292510272876, 62.589673033882278 ], [ 7.836378724081434, 62.589316804817258 ], [ 7.834447856272346, 62.588405975265268 ], [ 7.833461347363124, 62.58763388232947 ], [ 7.833419990479356, 62.586189093912523 ] ] } }
]
}
