{
"type": "FeatureCollection",
"name": "skarven_21_wgs84",
"crs": { "type": "name", "properties": { "name": "urn:ogc:def:crs:OGC:1.3:CRS84" } },
"features": [
{ "type": "Feature", "properties": { "cat": 1 }, "geometry": { "type": "LineString", "coordinates": [ [ 7.851799357993904, 62.614543658592332 ], [ 7.852035760667136, 62.614375455892549 ], [ 7.855236861716117, 62.614088792420127 ], [ 7.856676321312957, 62.613801930890993 ], [ 7.857256344777379, 62.613831661647808 ], [ 7.858760298601272, 62.613277594873779 ], [ 7.85931924478791, 62.611773458327001 ], [ 7.858653465558763, 62.61128852225773 ], [ 7.858890029784455, 62.610308847173968 ], [ 7.859104853402783, 62.61022969288814 ], [ 7.859276883273699, 62.609517201170284 ], [ 7.85949170002232, 62.609438046195272 ], [ 7.860480657340827, 62.605341210229881 ], [ 7.860351858072906, 62.605064120209065 ], [ 7.858977575906876, 62.604272381448737 ], [ 7.857066288616698, 62.604084240684585 ], [ 7.856894516056998, 62.603985270205648 ], [ 7.852835727118679, 62.603777112411578 ], [ 7.852620935246689, 62.603856257475194 ], [ 7.851053220987803, 62.60386598595904 ], [ 7.85036622467021, 62.603470074427428 ], [ 7.850538414290571, 62.602757595643958 ], [ 7.850194929743468, 62.602559639217503 ], [ 7.849421870519365, 62.602519962673 ], [ 7.847833211828709, 62.601807259550952 ], [ 7.847060176161817, 62.601767570235197 ], [ 7.846330212349297, 62.601549758549346 ], [ 7.844977417637398, 62.601480285095604 ], [ 7.843260301820563, 62.60049043019594 ], [ 7.841800505152305, 62.600054765005012 ], [ 7.839031921847097, 62.598559986946 ], [ 7.838645453377048, 62.59854011910226 ], [ 7.837615398475484, 62.59794616483952 ], [ 7.838282843018761, 62.595996835160356 ], [ 7.839185019155273, 62.595502224506383 ], [ 7.839939195104345, 62.592385200116865 ], [ 7.840218567680567, 62.5920388999156 ], [ 7.839317247248657, 62.591722065948183 ], [ 7.839489615165334, 62.591009603214658 ], [ 7.839189429383691, 62.590633506775646 ], [ 7.838438246844898, 62.590504716038133 ], [ 7.838094981669536, 62.590306732792612 ], [ 7.838698294409954, 62.587813117905917 ], [ 7.838248078337728, 62.58724897129725 ], [ 7.835716268679435, 62.58639741563654 ], [ 7.833419990479356, 62.586189093912523 ] ] } }
]
}
