{
"type": "FeatureCollection",
"name": "skarven_11_wgs84",
"crs": { "type": "name", "properties": { "name": "urn:ogc:def:crs:OGC:1.3:CRS84" } },
"features": [
{ "type": "Feature", "properties": { "cat": 1 }, "geometry": { "type": "LineString", "coordinates": [ [ 7.851799357993904, 62.614543658592332 ], [ 7.852035760667136, 62.614375455892549 ], [ 7.853024002389251, 62.614335977898435 ], [ 7.853453738452295, 62.614177688272413 ], [ 7.854828656959781, 62.614158027124176 ], [ 7.856332671471107, 62.613603987346949 ], [ 7.856504792566954, 62.612891500295191 ], [ 7.856934489272509, 62.612733199412204 ], [ 7.857214147465439, 62.611575406110568 ], [ 7.856956565913426, 62.611021220160922 ], [ 7.857085632168306, 62.610486853976461 ], [ 7.85538911449856, 62.609408075033166 ], [ 7.854637385308723, 62.609279364162134 ], [ 7.851545281016699, 62.60749780666135 ], [ 7.851180211294137, 62.607388911843479 ], [ 7.849053954176077, 62.607279801375853 ], [ 7.848882191167152, 62.607180821160092 ], [ 7.846369373985222, 62.607051827978502 ], [ 7.845124044690008, 62.60653705774336 ], [ 7.843428188666179, 62.605458142313196 ], [ 7.843535921306934, 62.605012850009658 ], [ 7.839758091703598, 62.602835099913172 ], [ 7.838813339442394, 62.60269637385138 ], [ 7.836838422976556, 62.601963679906298 ], [ 7.836688295159538, 62.60177562844386 ], [ 7.837356699215109, 62.599014853352493 ], [ 7.835961753244256, 62.598311957351285 ], [ 7.836069564816336, 62.597866671882464 ], [ 7.835640821616673, 62.597213458547564 ], [ 7.835856440601487, 62.596322887962749 ], [ 7.836758666480171, 62.595828293686587 ], [ 7.83684489734841, 62.595472064572213 ], [ 7.836673241946503, 62.595373070784085 ], [ 7.83590039239967, 62.595333322142025 ], [ 7.835557090737651, 62.595135332153404 ], [ 7.834977459409961, 62.595105516512994 ], [ 7.833775954487888, 62.594412540594604 ], [ 7.834486679214685, 62.592285117685172 ], [ 7.834701431896221, 62.592206000015807 ], [ 7.835154177177153, 62.590335803679494 ], [ 7.836399471975226, 62.590039199529336 ], [ 7.836507238952568, 62.589593913103606 ], [ 7.836035486220983, 62.589118816872748 ], [ 7.833847669787646, 62.587653762550232 ], [ 7.833956330993115, 62.586397027325113 ], [ 7.833419990479356, 62.586189093912523 ] ] } }
]
}
