{
"type": "FeatureCollection",
"name": "skarven_19_wgs84",
"crs": { "type": "name", "properties": { "name": "urn:ogc:def:crs:OGC:1.3:CRS84" } },
"features": [
{ "type": "Feature", "properties": { "cat": 1 }, "geometry": { "type": "LineString", "coordinates": [ [ 7.851799357993904, 62.614543658592332 ], [ 7.851842418038013, 62.614365538652805 ], [ 7.850983368891598, 62.613870649461589 ], [ 7.850919222747005, 62.613326372059802 ], [ 7.850275083464232, 62.612752337666812 ], [ 7.850555001255584, 62.611594561244694 ], [ 7.85227380616907, 62.610961423323779 ], [ 7.852639717768669, 62.609447400805919 ], [ 7.851437230119579, 62.608754563778135 ], [ 7.84974054483282, 62.608487176807323 ], [ 7.848709929351308, 62.607893296906411 ], [ 7.848323331364438, 62.607873454125027 ], [ 7.847636282903067, 62.607477528443049 ], [ 7.846519588483615, 62.607239870192785 ], [ 7.843428188666179, 62.605458142313196 ], [ 7.842484000675562, 62.604507985849544 ], [ 7.840595087486527, 62.603419109368112 ], [ 7.84020855454266, 62.603399244979265 ], [ 7.839693424623628, 62.603102273181783 ], [ 7.839113632751548, 62.603072472550842 ], [ 7.838770222798812, 62.602874489003582 ], [ 7.837610651603541, 62.602814877825899 ], [ 7.837267254801461, 62.602616890756615 ], [ 7.837181809558635, 62.602161667892766 ], [ 7.836709858778271, 62.60168657126313 ], [ 7.836775363970784, 62.600607947858585 ], [ 7.835981649094745, 62.599845803434015 ], [ 7.836089467425019, 62.599400518043865 ], [ 7.835746119112629, 62.599202527887421 ], [ 7.83585393800975, 62.598757242686254 ], [ 7.835510598482407, 62.598559252069215 ], [ 7.835403623813547, 62.598193085572532 ], [ 7.835533006630921, 62.597658743639222 ], [ 7.835747796468117, 62.597579624865787 ], [ 7.835770194765372, 62.596679116260901 ], [ 7.83285215582162, 62.594996172036737 ], [ 7.832122464688903, 62.594778289697601 ], [ 7.832165606243101, 62.594600176936709 ], [ 7.83167227783875, 62.594214122264347 ], [ 7.831844847166663, 62.593501671738636 ], [ 7.831373111997594, 62.593026559976657 ], [ 7.831802643215448, 62.592868334251953 ], [ 7.832018337123479, 62.591977770614129 ], [ 7.832447849474952, 62.591819542643876 ], [ 7.832749776296884, 62.590572751446942 ], [ 7.83360874726906, 62.590256288942598 ], [ 7.833866610070974, 62.589999058906962 ], [ 7.835369747471308, 62.589445233165783 ], [ 7.833825237534494, 62.588554270406249 ], [ 7.833954595502625, 62.588019929584043 ], [ 7.832796515535803, 62.587148835744529 ], [ 7.832990566586508, 62.586347326087051 ], [ 7.833419990479356, 62.586189093912523 ] ] } }
]
}
