{
"type": "FeatureCollection",
"name": "skarven_16_wgs84",
"crs": { "type": "name", "properties": { "name": "urn:ogc:def:crs:OGC:1.3:CRS84" } },
"features": [
{ "type": "Feature", "properties": { "cat": 1 }, "geometry": { "type": "LineString", "coordinates": [ [ 7.851799357993904, 62.614543658592332 ], [ 7.852035760667136, 62.614375455892549 ], [ 7.854828656959781, 62.614158027124176 ], [ 7.855473241449896, 62.613920583583877 ], [ 7.856482980450654, 62.613792020106757 ], [ 7.857342396261462, 62.613475417456286 ], [ 7.857837146891489, 62.611427011699952 ], [ 7.857149888955094, 62.611031130047188 ], [ 7.857300461750228, 62.610407702550525 ], [ 7.855990563515978, 62.609348749112179 ], [ 7.856098125885877, 62.608903444806032 ], [ 7.853005969486224, 62.607121918977803 ], [ 7.851309361356837, 62.606854552136213 ], [ 7.850429004263679, 62.606448722424425 ], [ 7.849655843529593, 62.606409045798358 ], [ 7.849119035871957, 62.606201166450923 ], [ 7.846821123957483, 62.605993043278218 ], [ 7.84594085497465, 62.605587186434363 ], [ 7.844781159757851, 62.605527633192395 ], [ 7.843857842319647, 62.605299881123642 ], [ 7.83935001037413, 62.602904291003753 ], [ 7.838641637021214, 62.602597381848412 ], [ 7.837868596393196, 62.602557641514849 ], [ 7.836516605139477, 62.601676633993165 ], [ 7.836775363970784, 62.600607947858585 ], [ 7.836153327074218, 62.599944798379866 ], [ 7.836325831260801, 62.599232341433137 ], [ 7.835982483208303, 62.599034351862102 ], [ 7.835768521848964, 62.598302019347521 ], [ 7.836329116837719, 62.595986534426793 ], [ 7.836007365175362, 62.595699488234843 ], [ 7.83607204493855, 62.595432316842626 ], [ 7.834698856507337, 62.594640353754997 ], [ 7.834356439760685, 62.593630909925452 ], [ 7.834485816205532, 62.593096568869967 ], [ 7.834936893263063, 62.592849276404721 ], [ 7.835432751171399, 62.590800965139337 ], [ 7.835647490420309, 62.590721845829258 ], [ 7.835755271789902, 62.590276560181955 ], [ 7.836421025663483, 62.589950142254892 ], [ 7.83567069798965, 62.589009885290359 ], [ 7.834297806896243, 62.588217922291307 ], [ 7.834340923357353, 62.588039808511965 ], [ 7.833997713653928, 62.5878418159338 ], [ 7.834105506469832, 62.587396531714518 ], [ 7.833783864512286, 62.587109481880809 ], [ 7.833956330993115, 62.586397027325113 ], [ 7.833419990479356, 62.586189093912523 ] ] } }
]
}
