{
"type": "FeatureCollection",
"name": "skarven_06_wgs84",
"crs": { "type": "name", "properties": { "name": "urn:ogc:def:crs:OGC:1.3:CRS84" } },
"features": [
{ "type": "Feature", "properties": { "cat": 1 }, "geometry": { "type": "LineString", "coordinates": [ [ 7.851799357993904, 62.614543658592332 ], [ 7.852035760667136, 62.614375455892549 ], [ 7.855645064630491, 62.614019556496565 ], [ 7.85693420457513, 62.613544658498888 ], [ 7.857364452631436, 62.611763437870309 ], [ 7.856677193643387, 62.611367553874892 ], [ 7.856956845557046, 62.610209760997947 ], [ 7.855432143597613, 62.60922995356264 ], [ 7.855475172111755, 62.609051832070797 ], [ 7.852554814609255, 62.607369268825138 ], [ 7.851588329635752, 62.607319686640672 ], [ 7.851244786983782, 62.607121732013873 ], [ 7.849376433801428, 62.606755364385833 ], [ 7.84589720107725, 62.606576759431917 ], [ 7.845532164184765, 62.606467850276957 ], [ 7.84430841850413, 62.605864014483473 ], [ 7.843836296784607, 62.605388939654212 ], [ 7.840401820941363, 62.603409177306602 ], [ 7.839521716929232, 62.603003282190748 ], [ 7.838941927205539, 62.602973480875185 ], [ 7.838598519531351, 62.602775496936076 ], [ 7.837632213416352, 62.602725820478263 ], [ 7.837117121191391, 62.602428839677309 ], [ 7.837181809558635, 62.602161667892766 ], [ 7.835979976456706, 62.601468706511994 ], [ 7.835229394811822, 62.600528443743073 ], [ 7.834714364000257, 62.600231454902101 ], [ 7.834779935129287, 62.59915283332893 ], [ 7.835510598482407, 62.598559252069215 ], [ 7.835403623813547, 62.598193085572532 ], [ 7.835878001694319, 62.596233830874823 ], [ 7.835041294418979, 62.595649797029175 ], [ 7.834934333761629, 62.595283630360363 ], [ 7.833561183068977, 62.594491656582434 ], [ 7.833992480826695, 62.592710522310448 ], [ 7.834421993898469, 62.592552288268656 ], [ 7.834939439522308, 62.590414922251554 ], [ 7.835583649072417, 62.590177565496489 ], [ 7.836184739718257, 62.590118320093168 ], [ 7.83646413260081, 62.589772027689961 ], [ 7.83567069798965, 62.589009885290359 ], [ 7.833782991512723, 62.587920932936782 ], [ 7.833763177818966, 62.586387087608777 ], [ 7.833419990479356, 62.586189093912523 ] ] } }
]
}
