{
"type": "FeatureCollection",
"name": "skarven_05_wgs84",
"crs": { "type": "name", "properties": { "name": "urn:ogc:def:crs:OGC:1.3:CRS84" } },
"features": [
{ "type": "Feature", "properties": { "cat": 1 }, "geometry": { "type": "LineString", "coordinates": [ [ 7.851799357993904, 62.614543658592332 ], [ 7.852035760667136, 62.614375455892549 ], [ 7.854635314562929, 62.614148113758375 ], [ 7.855473241449896, 62.613920583583877 ], [ 7.856053265702861, 62.61395031935357 ], [ 7.857514223346489, 62.613574388119851 ], [ 7.858008964226082, 62.611525981622655 ], [ 7.857837146891489, 62.611427011699952 ], [ 7.857923182583853, 62.61107076693277 ], [ 7.857407742507899, 62.610773856374017 ], [ 7.856978356219222, 62.610120699970089 ], [ 7.857085907337019, 62.609675394750894 ], [ 7.856398698803323, 62.609279510064624 ], [ 7.856463232805281, 62.609012327255662 ], [ 7.852533687710775, 62.606646871421866 ], [ 7.852168624473383, 62.606537979278812 ], [ 7.848710927795207, 62.606270384568148 ], [ 7.848367416531604, 62.606072423280011 ], [ 7.846821123957483, 62.605993043278218 ], [ 7.846134138023126, 62.605597111044133 ], [ 7.844587877734096, 62.605517706721535 ], [ 7.840616640917436, 62.603330051445205 ], [ 7.840230109112903, 62.603310187131598 ], [ 7.838834897544453, 62.602607316267246 ], [ 7.837718459202502, 62.602369591034133 ], [ 7.837203372054684, 62.602072610620546 ], [ 7.836108532974012, 62.601745815723604 ], [ 7.83570130429348, 62.601003544822014 ], [ 7.834714364000257, 62.600231454902101 ], [ 7.834585826257793, 62.599954344659878 ], [ 7.834779935129287, 62.59915283332893 ], [ 7.835510598482407, 62.598559252069215 ], [ 7.835403623813547, 62.598193085572532 ], [ 7.835533006630921, 62.597658743639222 ], [ 7.835747796468117, 62.597579624865787 ], [ 7.835705508850219, 62.596946287428317 ], [ 7.833152300960619, 62.595372281560415 ], [ 7.832745224147073, 62.594630004083257 ], [ 7.832896203017223, 62.594006608460731 ], [ 7.832038045717921, 62.593511614731909 ], [ 7.832295952080805, 62.593254388198012 ], [ 7.832210601114697, 62.592799163562134 ], [ 7.834229669618734, 62.591730897547855 ], [ 7.834315915694681, 62.591374670200821 ], [ 7.834745407298495, 62.591216434869338 ], [ 7.835024827972327, 62.590870145730769 ], [ 7.835669046987062, 62.590632788710494 ], [ 7.835755271789902, 62.590276560181955 ], [ 7.836399471975226, 62.590039199529336 ], [ 7.83646413260081, 62.589772027689961 ], [ 7.83567069798965, 62.589009885290359 ], [ 7.833611388660743, 62.587821936093789 ], [ 7.833354428847783, 62.587267715015173 ], [ 7.833419990479356, 62.586189093912523 ] ] } }
]
}
