{
"type": "FeatureCollection",
"name": "skarven_23_wgs84",
"crs": { "type": "name", "properties": { "name": "urn:ogc:def:crs:OGC:1.3:CRS84" } },
"features": [
{ "type": "Feature", "properties": { "cat": 1 }, "geometry": { "type": "LineString", "coordinates": [ [ 7.851799357993904, 62.614543658592332 ], [ 7.852035760667136, 62.614375455892549 ], [ 7.854033765158875, 62.614207432472178 ], [ 7.855537796555203, 62.613653401494069 ], [ 7.856246911674405, 62.613148771926262 ], [ 7.856956845557046, 62.610209760997947 ], [ 7.856312651420448, 62.609635753735283 ], [ 7.856570786551137, 62.608567022467469 ], [ 7.853156604049399, 62.606498496784759 ], [ 7.851631796294316, 62.606330109324048 ], [ 7.850042884475858, 62.605617427945425 ], [ 7.849291275445889, 62.605488689893015 ], [ 7.846886825631027, 62.604102954862739 ], [ 7.846758158895379, 62.603825854093266 ], [ 7.845985072574434, 62.603786158129644 ], [ 7.844782965371526, 62.60309326889476 ], [ 7.844955285987862, 62.602380798787344 ], [ 7.844096689097515, 62.601885873315624 ], [ 7.843130400238111, 62.601836235189076 ], [ 7.842250303083373, 62.601430357384189 ], [ 7.841284032935961, 62.601380706718764 ], [ 7.835790085025786, 62.598212962302114 ], [ 7.835919461010297, 62.597678619917161 ], [ 7.835640821616673, 62.597213458547564 ], [ 7.835856440601487, 62.596322887962749 ], [ 7.835749467941792, 62.59595672175638 ], [ 7.835256070622046, 62.595570678826945 ], [ 7.835300039719911, 62.594581113429136 ], [ 7.834956750548625, 62.594383122132207 ], [ 7.835107681485947, 62.593759723461424 ], [ 7.834936041567382, 62.593660727745231 ], [ 7.835518147944919, 62.591256188429398 ], [ 7.835346520578068, 62.591157193388888 ], [ 7.835497422578929, 62.590533793895943 ], [ 7.836421025663483, 62.589950142254892 ], [ 7.83646413260081, 62.589772027689961 ], [ 7.836185550926983, 62.589306868184906 ], [ 7.836271764669418, 62.588950639184738 ], [ 7.834920416237556, 62.588069624911462 ], [ 7.834513383345248, 62.587327353180434 ], [ 7.833483788170892, 62.5867333746464 ], [ 7.833419990479356, 62.586189093912523 ] ] } }
]
}
