{
"type": "FeatureCollection",
"name": "skarven_17_wgs84",
"crs": { "type": "name", "properties": { "name": "urn:ogc:def:crs:OGC:1.3:CRS84" } },
"features": [
{ "type": "Feature", "properties": { "cat": 1 }, "geometry": { "type": "LineString", "coordinates": [ [ 7.851799357993904, 62.614543658592332 ], [ 7.851842418038013, 62.614365538652805 ], [ 7.850983368891598, 62.613870649461589 ], [ 7.851327862074828, 62.612445691755767 ], [ 7.853884572898092, 62.611585023394859 ], [ 7.853970656537539, 62.611228781716918 ], [ 7.854185499639923, 62.611149635272199 ], [ 7.854594351357199, 62.609457485321578 ], [ 7.851674006542637, 62.60777490380886 ], [ 7.848774528629815, 62.607626118541589 ], [ 7.848602764642936, 62.60752713796856 ], [ 7.846304754676879, 62.607319004957539 ], [ 7.844072043799668, 62.606032204472541 ], [ 7.843449735487177, 62.605369083863181 ], [ 7.839500160519788, 62.603092339903959 ], [ 7.83892036908716, 62.603062538475534 ], [ 7.838576960566682, 62.602864554471871 ], [ 7.837610651603541, 62.602814877825899 ], [ 7.837267254801461, 62.602616890756615 ], [ 7.836945426061516, 62.60232984568519 ], [ 7.837010115698004, 62.602062673997487 ], [ 7.835765158369634, 62.601547825257313 ], [ 7.835679738283078, 62.601092601814408 ], [ 7.83533637389748, 62.600894610431098 ], [ 7.834929175023325, 62.600152337678935 ], [ 7.835231105185929, 62.598905541183804 ], [ 7.835059436154824, 62.598806545224207 ], [ 7.835231958165756, 62.598094089871225 ], [ 7.835060293656782, 62.597995093974063 ], [ 7.835018876773015, 62.59655030525596 ], [ 7.833645667274785, 62.595758331511576 ], [ 7.833731935164312, 62.595402104827343 ], [ 7.832916861981271, 62.594729002467702 ], [ 7.833369768178238, 62.592858814134765 ], [ 7.834250363053612, 62.592453291831745 ], [ 7.834315049637911, 62.592186121345101 ], [ 7.834959303388882, 62.591948768079092 ], [ 7.835325799308966, 62.590434798885603 ], [ 7.836399471975226, 62.590039199529336 ], [ 7.836593449899405, 62.589237683866685 ], [ 7.835070468914468, 62.588257677260358 ], [ 7.835006640575227, 62.587713396836982 ], [ 7.833977022384136, 62.587119421632565 ], [ 7.834127927084899, 62.586496023651669 ], [ 7.833419990479356, 62.586189093912523 ] ] } }
]
}
