{
"type": "FeatureCollection",
"name": "skarven_15_wgs84",
"crs": { "type": "name", "properties": { "name": "urn:ogc:def:crs:OGC:1.3:CRS84" } },
"features": [
{ "type": "Feature", "properties": { "cat": 1 }, "geometry": { "type": "LineString", "coordinates": [ [ 7.851799357993904, 62.614543658592332 ], [ 7.851842418038013, 62.614365538652805 ], [ 7.851155176440137, 62.613969627692143 ], [ 7.851219770494562, 62.613702448129679 ], [ 7.850597150050708, 62.61303935519377 ], [ 7.850790935615051, 62.612237817234586 ], [ 7.851435508511196, 62.612000392192471 ], [ 7.851500094616948, 62.611733212390448 ], [ 7.853455254354597, 62.610931857067889 ], [ 7.853691986279865, 62.609952193076907 ], [ 7.850084556164932, 62.607873678552792 ], [ 7.849719487512471, 62.607764779926335 ], [ 7.848366399976052, 62.607695335370821 ], [ 7.848022875159948, 62.607497373050933 ], [ 7.847249691231642, 62.607457682771589 ], [ 7.846541127683197, 62.607150811162207 ], [ 7.844480158526241, 62.605963000019528 ], [ 7.844201314125802, 62.605497852982218 ], [ 7.840123062525257, 62.602944023282362 ], [ 7.839178304958304, 62.60280529962084 ], [ 7.838663195546403, 62.602508324296572 ], [ 7.83827667607864, 62.60248845473668 ], [ 7.836666731394279, 62.60186468561924 ], [ 7.836280221984913, 62.601844810662932 ], [ 7.836001541914133, 62.601379649465748 ], [ 7.835143125987348, 62.600884671335791 ], [ 7.835229394811822, 62.600528443743073 ], [ 7.834886039798432, 62.600330451378284 ], [ 7.834478859128308, 62.599588177557976 ], [ 7.834759234582718, 62.598430439040513 ], [ 7.834415906184154, 62.598232445879589 ], [ 7.834804092695991, 62.596629422985288 ], [ 7.833602532450929, 62.595936444821604 ], [ 7.833474021211319, 62.595659333912387 ], [ 7.832787448343262, 62.595263341557562 ], [ 7.832830586808694, 62.595085228549017 ], [ 7.832122464688903, 62.594778289697601 ], [ 7.832165606243101, 62.594600176936709 ], [ 7.831822338284804, 62.594402178211979 ], [ 7.832210601114697, 62.592799163562134 ], [ 7.833091209549206, 62.592393648765253 ], [ 7.833457807482418, 62.59087968587616 ], [ 7.835583649072417, 62.590177565496489 ], [ 7.835970006323153, 62.590197440310703 ], [ 7.836614203094061, 62.589960078619249 ], [ 7.836678861573291, 62.589692906650932 ], [ 7.836550344718762, 62.589415798495835 ], [ 7.834512529915967, 62.58813880450743 ], [ 7.83423399279786, 62.587673641708406 ], [ 7.833719187166126, 62.587376652250846 ], [ 7.833419990479356, 62.586189093912523 ] ] } }
]
}
