{
"type": "FeatureCollection",
"name": "skarven_04_wgs84",
"crs": { "type": "name", "properties": { "name": "urn:ogc:def:crs:OGC:1.3:CRS84" } },
"features": [
{ "type": "Feature", "properties": { "cat": 1 }, "geometry": { "type": "LineString", "coordinates": [ [ 7.851799357993904, 62.614543658592332 ], [ 7.852035760667136, 62.614375455892549 ], [ 7.855236861716117, 62.614088792420127 ], [ 7.85674086527716, 62.613534748093279 ], [ 7.857171124736537, 62.611753528215601 ], [ 7.85682749439475, 62.611555586153486 ], [ 7.857085632168306, 62.610486853976461 ], [ 7.856956845557046, 62.610209760997947 ], [ 7.855410629121203, 62.609319014300553 ], [ 7.85446559204759, 62.609180390412554 ], [ 7.852554419424354, 62.60818072641775 ], [ 7.851974512174852, 62.608150977688268 ], [ 7.851072582218858, 62.607834211452776 ], [ 7.849719487512471, 62.607764779926335 ], [ 7.849204186957063, 62.607467840947024 ], [ 7.847077933398221, 62.607358700404347 ], [ 7.846519588483615, 62.607239870192785 ], [ 7.843599923413805, 62.60555712886152 ], [ 7.843643016062684, 62.605379011891607 ], [ 7.839521716929232, 62.603003282190748 ], [ 7.839135190300288, 62.602983414912849 ], [ 7.838426817403154, 62.60267650467263 ], [ 7.837460514868803, 62.602626827073834 ], [ 7.837117121191391, 62.602428839677309 ], [ 7.837181809558635, 62.602161667892766 ], [ 7.835958410852746, 62.601557763552876 ], [ 7.83570130429348, 62.601003544822014 ], [ 7.834714364000257, 62.600231454902101 ], [ 7.834585826257793, 62.599954344659878 ], [ 7.834779935129287, 62.59915283332893 ], [ 7.835510598482407, 62.598559252069215 ], [ 7.835403623813547, 62.598193085572532 ], [ 7.835533006630921, 62.597658743639222 ], [ 7.835747796468117, 62.597579624865787 ], [ 7.835856440601487, 62.596322887962749 ], [ 7.834848080707149, 62.595639857990825 ], [ 7.834912770717739, 62.595372687276019 ], [ 7.834569475367752, 62.595174694941825 ], [ 7.83418305466243, 62.595154815381321 ], [ 7.833324843369736, 62.594659828838275 ], [ 7.833540508195339, 62.593769262453563 ], [ 7.834184803127611, 62.59353191332918 ], [ 7.835154177177153, 62.590335803679494 ], [ 7.836184739718257, 62.590118320093168 ], [ 7.83646413260081, 62.589772027689961 ], [ 7.836207104582181, 62.589217810942891 ], [ 7.833461347363124, 62.58763388232947 ], [ 7.833419990479356, 62.586189093912523 ] ] } }
]
}
