{
"type": "FeatureCollection",
"name": "skarven_03_wgs84",
"crs": { "type": "name", "properties": { "name": "urn:ogc:def:crs:OGC:1.3:CRS84" } },
"features": [
{ "type": "Feature", "properties": { "cat": 1 }, "geometry": { "type": "LineString", "coordinates": [ [ 7.851799357993904, 62.614543658592332 ], [ 7.852035760667136, 62.614375455892549 ], [ 7.855645064630491, 62.614019556496565 ], [ 7.85693420457513, 62.613544658498888 ], [ 7.857472005506528, 62.611318132380021 ], [ 7.857128377970954, 62.611120191096795 ], [ 7.857257441682656, 62.610585824719074 ], [ 7.856892593138571, 62.609665484895864 ], [ 7.855002821439082, 62.608576791944152 ], [ 7.85504585132592, 62.608398670602931 ], [ 7.854186914025062, 62.607903802646398 ], [ 7.8542299475641, 62.60772568160607 ], [ 7.853027489148287, 62.607032858680498 ], [ 7.852447603686497, 62.607003112213626 ], [ 7.851717471982154, 62.606785326450563 ], [ 7.846498608649548, 62.606517473876188 ], [ 7.845983362016006, 62.606220523729355 ], [ 7.845210214745932, 62.606180822642337 ], [ 7.840101507971227, 62.603033081113821 ], [ 7.839714980463425, 62.60301321543092 ], [ 7.836108532974012, 62.601745815723604 ], [ 7.83570130429348, 62.601003544822014 ], [ 7.834714364000257, 62.600231454902101 ], [ 7.834585826257793, 62.599954344659878 ], [ 7.834779935129287, 62.59915283332893 ], [ 7.835510598482407, 62.598559252069215 ], [ 7.835403623813547, 62.598193085572532 ], [ 7.835533006630921, 62.597658743639222 ], [ 7.835747796468117, 62.597579624865787 ], [ 7.835856440601487, 62.596322887962749 ], [ 7.836758666480171, 62.595828293686587 ], [ 7.83684489734841, 62.595472064572213 ], [ 7.836673241946503, 62.595373070784085 ], [ 7.83590039239967, 62.595333322142025 ], [ 7.835557090737651, 62.595135332153404 ], [ 7.83302379606254, 62.59509517032226 ], [ 7.832745224147073, 62.594630004083257 ], [ 7.832896203017223, 62.594006608460731 ], [ 7.832038045717921, 62.593511614731909 ], [ 7.832295952080805, 62.593254388198012 ], [ 7.832189032202907, 62.592888219977091 ], [ 7.833327531661266, 62.592225476664559 ], [ 7.834616045892727, 62.591750776373623 ], [ 7.834788526595521, 62.591038320991764 ], [ 7.835454308453665, 62.590711908063561 ], [ 7.835540536118507, 62.590355679706946 ], [ 7.836399471975226, 62.590039199529336 ], [ 7.83646413260081, 62.589772027689961 ], [ 7.836207104582181, 62.589217810942891 ], [ 7.833461347363124, 62.58763388232947 ], [ 7.833419990479356, 62.586189093912523 ] ] } }
]
}
