{
"type": "FeatureCollection",
"name": "skarven_22_wgs84",
"crs": { "type": "name", "properties": { "name": "urn:ogc:def:crs:OGC:1.3:CRS84" } },
"features": [
{ "type": "Feature", "properties": { "cat": 1 }, "geometry": { "type": "LineString", "coordinates": [ [ 7.851799357993904, 62.614543658592332 ], [ 7.851520325608504, 62.6140785236515 ], [ 7.851929380155543, 62.612386384284825 ], [ 7.853884572898092, 62.611585023394859 ], [ 7.854164336169128, 62.610427237629501 ], [ 7.853885300988671, 62.60996210737455 ], [ 7.853026339877187, 62.609467231950767 ], [ 7.853112426020005, 62.609110990833734 ], [ 7.850879282536157, 62.607824293461 ], [ 7.849354421578609, 62.607655880381216 ], [ 7.849010890447247, 62.607457920408955 ], [ 7.84862429786663, 62.607438078535182 ], [ 7.847250230390761, 62.606646227150499 ], [ 7.846348397653895, 62.606329431686447 ], [ 7.842570194897688, 62.604151752706137 ], [ 7.842183650756314, 62.604131893639199 ], [ 7.841153336132421, 62.603537961988003 ], [ 7.839865133457327, 62.603201263976864 ], [ 7.837932491849553, 62.603101921518402 ], [ 7.837245691995916, 62.602705948034369 ], [ 7.837181809558635, 62.602161667892766 ], [ 7.836666731394279, 62.60186468561924 ], [ 7.836108532974012, 62.601745815723604 ], [ 7.83570130429348, 62.601003544822014 ], [ 7.834714364000257, 62.600231454902101 ], [ 7.834779935129287, 62.59915283332893 ], [ 7.834651400800104, 62.598875723192798 ], [ 7.834136403567091, 62.598578732673303 ], [ 7.834783389378139, 62.595907028657471 ], [ 7.834268440450603, 62.595610039281318 ], [ 7.834376264941846, 62.595164755294427 ], [ 7.83334641051157, 62.594570772223882 ], [ 7.834295219728846, 62.590652275889958 ], [ 7.835583649072417, 62.590177565496489 ], [ 7.836571096709283, 62.590138193238047 ], [ 7.837430015526961, 62.58982170647873 ], [ 7.837559315754135, 62.5892873615269 ], [ 7.835521465032511, 62.588010381796586 ], [ 7.835436074356937, 62.587555158587485 ], [ 7.833376871909902, 62.586367207379176 ], [ 7.833419990479356, 62.586189093912523 ] ] } }
]
}
