{
"type": "FeatureCollection",
"name": "skarven_10_wgs84",
"crs": { "type": "name", "properties": { "name": "urn:ogc:def:crs:OGC:1.3:CRS84" } },
"features": [
{ "type": "Feature", "properties": { "cat": 1 }, "geometry": { "type": "LineString", "coordinates": [ [ 7.851799357993904, 62.614543658592332 ], [ 7.852035760667136, 62.614375455892549 ], [ 7.854635314562929, 62.614148113758375 ], [ 7.855494759964606, 62.61383152289261 ], [ 7.856482980450654, 62.613792020106757 ], [ 7.857127544019344, 62.613554568638513 ], [ 7.857622311125907, 62.611506163868256 ], [ 7.857128377970954, 62.611120191096795 ], [ 7.857300461750228, 62.610407702550525 ], [ 7.856806550256613, 62.610021728931741 ], [ 7.856548988024108, 62.609467542488311 ], [ 7.856742583584209, 62.608665993675601 ], [ 7.854509311067188, 62.607379352669916 ], [ 7.8541227148538, 62.607359525986944 ], [ 7.852920273313348, 62.606666702365196 ], [ 7.845403501343862, 62.606190748312891 ], [ 7.839693424623628, 62.603102273181783 ], [ 7.839113632751548, 62.603072472550842 ], [ 7.838426817403154, 62.60267650467263 ], [ 7.837460514868803, 62.602626827073834 ], [ 7.837117121191391, 62.602428839677309 ], [ 7.837181809558635, 62.602161667892766 ], [ 7.836666731394279, 62.60186468561924 ], [ 7.836108532974012, 62.601745815723604 ], [ 7.836023107225025, 62.601290592414173 ], [ 7.83533637389748, 62.600894610431098 ], [ 7.835229394811822, 62.600528443743073 ], [ 7.834585826257793, 62.599954344659878 ], [ 7.834478859128308, 62.599588177557976 ], [ 7.834780800899664, 62.598341382194 ], [ 7.834437473346885, 62.598143389097629 ], [ 7.834588439383355, 62.59751999147408 ], [ 7.83383799428916, 62.596579723065901 ], [ 7.833989844529516, 62.595144875202479 ], [ 7.833303276081398, 62.594748885447288 ], [ 7.833518942372031, 62.59385831911613 ], [ 7.833948474896707, 62.59370008679889 ], [ 7.834250363053612, 62.592453291831745 ], [ 7.835109374365587, 62.592136820633613 ], [ 7.835432751171399, 62.590800965139337 ], [ 7.835647490420309, 62.590721845829258 ], [ 7.835755271789902, 62.590276560181955 ], [ 7.836184739718257, 62.590118320093168 ], [ 7.83646413260081, 62.589772027689961 ], [ 7.83567069798965, 62.589009885290359 ], [ 7.833611388660743, 62.587821936093789 ], [ 7.833311307902007, 62.587445828428592 ], [ 7.833591583580269, 62.586288090858517 ], [ 7.833419990479356, 62.586189093912523 ] ] } }
]
}
