{
"type": "FeatureCollection",
"name": "skarven_08_wgs84",
"crs": { "type": "name", "properties": { "name": "urn:ogc:def:crs:OGC:1.3:CRS84" } },
"features": [
{ "type": "Feature", "properties": { "cat": 1 }, "geometry": { "type": "LineString", "coordinates": [ [ 7.851799357993904, 62.614543658592332 ], [ 7.852035760667136, 62.614375455892549 ], [ 7.855236861716117, 62.614088792420127 ], [ 7.856526011046764, 62.613613898322058 ], [ 7.856977796987861, 62.611743618294952 ], [ 7.856462355334505, 62.611446704222239 ], [ 7.856720505035319, 62.610377972882304 ], [ 7.852597463252327, 62.608002606020989 ], [ 7.851674006542637, 62.60777490380886 ], [ 7.849547719520876, 62.607665800462627 ], [ 7.848860658952364, 62.60726988064706 ], [ 7.847894185028932, 62.607220273014782 ], [ 7.847164083065439, 62.607002463820166 ], [ 7.846390913461899, 62.60696276897481 ], [ 7.838985043002832, 62.602795365658416 ], [ 7.83806185633045, 62.602567576996975 ], [ 7.836838422976556, 62.601963679906298 ], [ 7.835829856450585, 62.60128065423153 ], [ 7.835872987771888, 62.601102540187576 ], [ 7.835186260692665, 62.600706557550147 ], [ 7.835229394811822, 62.600528443743073 ], [ 7.834735932108932, 62.600142398087399 ], [ 7.835059436154824, 62.598806545224207 ], [ 7.834952466384307, 62.598440378448416 ], [ 7.83460913655386, 62.598242385743745 ], [ 7.834975748714245, 62.596728419082531 ], [ 7.83328080810222, 62.595649392710484 ], [ 7.833410215009796, 62.595115053071545 ], [ 7.833131636815668, 62.594649887518997 ], [ 7.833368873579612, 62.59367026488043 ], [ 7.833583639402464, 62.593591149112356 ], [ 7.833820850567721, 62.592611525352829 ], [ 7.834358173295124, 62.592008007660546 ], [ 7.834509101481963, 62.591384609596027 ], [ 7.834723847430317, 62.591305491800121 ], [ 7.834810086024373, 62.59094926404493 ], [ 7.835454308453665, 62.590711908063561 ], [ 7.835755271789902, 62.590276560181955 ], [ 7.836184739718257, 62.590118320093168 ], [ 7.83646413260081, 62.589772027689961 ], [ 7.83567069798965, 62.589009885290359 ], [ 7.834104641757722, 62.588207982884917 ], [ 7.834190876370157, 62.587851755455311 ], [ 7.833847669787646, 62.587653762550232 ], [ 7.833612266178332, 62.587010485100294 ], [ 7.833784736039116, 62.586298030802865 ], [ 7.833419990479356, 62.586189093912523 ] ] } }
]
}
