{
"type": "FeatureCollection",
"name": "skarven_02_wgs84",
"crs": { "type": "name", "properties": { "name": "urn:ogc:def:crs:OGC:1.3:CRS84" } },
"features": [
{ "type": "Feature", "properties": { "cat": 1 }, "geometry": { "type": "LineString", "coordinates": [ [ 7.851799357993904, 62.614543658592332 ], [ 7.852035760667136, 62.614375455892549 ], [ 7.854227107687028, 62.614217346673456 ], [ 7.855666582721279, 62.61393049577309 ], [ 7.856053265702861, 62.61395031935357 ], [ 7.857320883609798, 62.613564478512167 ], [ 7.857837146891489, 62.611427011699952 ], [ 7.857149888955094, 62.611031130047188 ], [ 7.857257441682656, 62.610585824719074 ], [ 7.85691382379408, 62.610387883037639 ], [ 7.85635567540431, 62.609457631910608 ], [ 7.854487453096558, 62.608279871565337 ], [ 7.852962545835978, 62.608111497303703 ], [ 7.851588329635752, 62.607319686640672 ], [ 7.846197621426965, 62.606952844598744 ], [ 7.843793205275278, 62.605567056699307 ], [ 7.843836296784607, 62.605388939654212 ], [ 7.839714980463425, 62.60301321543092 ], [ 7.839135190300288, 62.602983414912849 ], [ 7.837203372054684, 62.602072610620546 ], [ 7.836108532974012, 62.601745815723604 ], [ 7.83570130429348, 62.601003544822014 ], [ 7.834714364000257, 62.600231454902101 ], [ 7.834585826257793, 62.599954344659878 ], [ 7.834779935129287, 62.59915283332893 ], [ 7.835510598482407, 62.598559252069215 ], [ 7.835403623813547, 62.598193085572532 ], [ 7.835533006630921, 62.597658743639222 ], [ 7.835747796468117, 62.597579624865787 ], [ 7.835899562640677, 62.596144773781518 ], [ 7.834376264941846, 62.595164755294427 ], [ 7.83321700546291, 62.59510511182976 ], [ 7.832873724688023, 62.594907115519085 ], [ 7.832896203017223, 62.594006608460731 ], [ 7.832038045717921, 62.593511614731909 ], [ 7.832295952080805, 62.593254388198012 ], [ 7.832210601114697, 62.592799163562134 ], [ 7.833112775305363, 62.592304592167565 ], [ 7.8344012963665, 62.591829893954603 ], [ 7.8345306620657, 62.591295552708246 ], [ 7.835454308453665, 62.590711908063561 ], [ 7.835368913693855, 62.590256684761151 ], [ 7.836184739718257, 62.590118320093168 ], [ 7.83646413260081, 62.589772027689961 ], [ 7.836207104582181, 62.589217810942891 ], [ 7.833461347363124, 62.58763388232947 ], [ 7.833419990479356, 62.586189093912523 ] ] } }
]
}
