{
"type": "FeatureCollection",
"name": "skarven_13_wgs84",
"crs": { "type": "name", "properties": { "name": "urn:ogc:def:crs:OGC:1.3:CRS84" } },
"features": [
{ "type": "Feature", "properties": { "cat": 1 }, "geometry": { "type": "LineString", "coordinates": [ [ 7.851799357993904, 62.614543658592332 ], [ 7.851842418038013, 62.614365538652805 ], [ 7.851155176440137, 62.613969627692143 ], [ 7.85087615908067, 62.613504491665843 ], [ 7.85115606244721, 62.612346713844886 ], [ 7.852660048991134, 62.611792713280963 ], [ 7.852789196728839, 62.611258352180322 ], [ 7.853648575333848, 62.610941771778684 ], [ 7.853885300988671, 62.60996210737455 ], [ 7.853026339877187, 62.609467231950767 ], [ 7.853112426020005, 62.609110990833734 ], [ 7.850879282536157, 62.607824293461 ], [ 7.850106085268438, 62.607784618834813 ], [ 7.848839126591236, 62.607358940128705 ], [ 7.846326294592717, 62.60722994596987 ], [ 7.843578376869728, 62.605646187338458 ], [ 7.842956087296085, 62.604983064780441 ], [ 7.841582284458106, 62.604191161150787 ], [ 7.838620078349527, 62.602686439394923 ], [ 7.838233556603274, 62.602666569684537 ], [ 7.837203372054684, 62.602072610620546 ], [ 7.836108532974012, 62.601745815723604 ], [ 7.835916118507078, 62.600924426122191 ], [ 7.834714364000257, 62.600231454902101 ], [ 7.834779935129287, 62.59915283332893 ], [ 7.835510598482407, 62.598559252069215 ], [ 7.835618417946159, 62.59811396705706 ], [ 7.835103423540179, 62.59781698014686 ], [ 7.83529750076344, 62.597015467659332 ], [ 7.835125842044917, 62.596916471921475 ], [ 7.835212945786066, 62.59574879277131 ], [ 7.835084420100596, 62.595471683149398 ], [ 7.833196339509374, 62.594382717772746 ], [ 7.833800167737328, 62.591889131150147 ], [ 7.834229669618734, 62.591730897547855 ], [ 7.834337476847531, 62.591285613350678 ], [ 7.835432751171399, 62.590800965139337 ], [ 7.835540536118507, 62.590355679706946 ], [ 7.836421025663483, 62.589950142254892 ], [ 7.83567069798965, 62.589009885290359 ], [ 7.834104641757722, 62.588207982884917 ], [ 7.833461347363124, 62.58763388232947 ], [ 7.833526027733903, 62.58736671212052 ], [ 7.833182831099522, 62.587168717714107 ], [ 7.833247512687469, 62.586901547650648 ], [ 7.832925884220815, 62.586614496021063 ], [ 7.832990566586508, 62.586347326087051 ], [ 7.833419990479356, 62.586189093912523 ] ] } }
]
}
