{
"type": "FeatureCollection",
"name": "skarven_09_wgs84",
"crs": { "type": "name", "properties": { "name": "urn:ogc:def:crs:OGC:1.3:CRS84" } },
"features": [
{ "type": "Feature", "properties": { "cat": 1 }, "geometry": { "type": "LineString", "coordinates": [ [ 7.851799357993904, 62.614543658592332 ], [ 7.852035760667136, 62.614375455892549 ], [ 7.853625556163485, 62.614276663598218 ], [ 7.854055288250176, 62.614118372065136 ], [ 7.855236861716117, 62.614088792420127 ], [ 7.856869662321515, 62.613811841409245 ], [ 7.857729074740691, 62.613495236330586 ], [ 7.858116256939959, 62.611892135061836 ], [ 7.85764382098461, 62.611417102727316 ], [ 7.857686840263393, 62.611238980429462 ], [ 7.857343212142973, 62.611041039667512 ], [ 7.85749378094761, 62.610417611908055 ], [ 7.857171945599665, 62.609319150479564 ], [ 7.852898753666415, 62.606755762646259 ], [ 7.849226203238148, 62.606567325029879 ], [ 7.848302817878109, 62.60633960146621 ], [ 7.847422518016065, 62.605933753554815 ], [ 7.84510309828716, 62.605814661669733 ], [ 7.840123062525257, 62.602944023282362 ], [ 7.8395432731922, 62.602914224472144 ], [ 7.838834897544453, 62.602607316267246 ], [ 7.838255116414208, 62.60257751221328 ], [ 7.837568323850722, 62.602181540416723 ], [ 7.837010115698004, 62.602062673997487 ], [ 7.835829856450585, 62.60128065423153 ], [ 7.835229394811822, 62.600528443743073 ], [ 7.834714364000257, 62.600231454902101 ], [ 7.834779935129287, 62.59915283332893 ], [ 7.835510598482407, 62.598559252069215 ], [ 7.835403623813547, 62.598193085572532 ], [ 7.835834879362179, 62.596411945045304 ], [ 7.834976604797898, 62.595916967808741 ], [ 7.834891207527361, 62.595461744186316 ], [ 7.832831498666256, 62.594273778045377 ], [ 7.832896203017223, 62.594006608460731 ], [ 7.832402874314457, 62.593620556368705 ], [ 7.832145893939787, 62.593066332790954 ], [ 7.832661691991216, 62.592551878646233 ], [ 7.833542286878877, 62.592146360815242 ], [ 7.834122730053855, 62.591364730539951 ], [ 7.834552222502987, 62.591206495815115 ], [ 7.834724700729311, 62.590494040477324 ], [ 7.836614203094061, 62.589960078619249 ], [ 7.836678861573291, 62.589692906650932 ], [ 7.836250211453393, 62.589039696442818 ], [ 7.833182831099522, 62.587168717714107 ], [ 7.833333752754776, 62.58654532082442 ], [ 7.833162159101748, 62.586446323553581 ], [ 7.833419990479356, 62.586189093912523 ] ] } }
]
}
