{
"type": "FeatureCollection",
"name": "skarven_20_wgs84",
"crs": { "type": "name", "properties": { "name": "urn:ogc:def:crs:OGC:1.3:CRS84" } },
"features": [
{ "type": "Feature", "properties": { "cat": 1 }, "geometry": { "type": "LineString", "coordinates": [ [ 7.851799357993904, 62.614543658592332 ], [ 7.851907430368529, 62.613286901512488 ], [ 7.855194819114295, 62.611832538373868 ], [ 7.855453018635187, 62.610763810057371 ], [ 7.855281214295917, 62.610664837162567 ], [ 7.855689683029423, 62.609784141759327 ], [ 7.855475172111755, 62.609051832070797 ], [ 7.855131583542182, 62.60885388639575 ], [ 7.855024336455614, 62.608487731276206 ], [ 7.851588749753643, 62.606508229387003 ], [ 7.846649375764483, 62.605894060513741 ], [ 7.842527760992899, 62.603518415362089 ], [ 7.84224896802349, 62.60305326511746 ], [ 7.842464442848635, 62.602162682371414 ], [ 7.841605894615307, 62.601667742226532 ], [ 7.841026128279058, 62.60163794989387 ], [ 7.84051101945365, 62.601340981401776 ], [ 7.839351503623442, 62.601281385451934 ], [ 7.836432820293181, 62.599598507416864 ], [ 7.83634739362486, 62.599143284290697 ], [ 7.83585393800975, 62.598757242686254 ], [ 7.836479215391972, 62.596174585880469 ], [ 7.836157460330227, 62.59588753998873 ], [ 7.83607204493855, 62.595432316842626 ], [ 7.835557090737651, 62.595135332153404 ], [ 7.836269335618952, 62.591384994970177 ], [ 7.836162371741852, 62.591018829195036 ], [ 7.835669046987062, 62.590632788710494 ], [ 7.835755271789902, 62.590276560181955 ], [ 7.836184739718257, 62.590118320093168 ], [ 7.83646413260081, 62.589772027689961 ], [ 7.83567069798965, 62.589009885290359 ], [ 7.834469414299972, 62.588316918351332 ], [ 7.834577202241856, 62.587871633701418 ], [ 7.834062389782724, 62.587574645418286 ], [ 7.834127064593766, 62.587307474854597 ], [ 7.833462228649762, 62.586822431387937 ], [ 7.833419990479356, 62.586189093912523 ] ] } }
]
}
