{
"type": "FeatureCollection",
"name": "skarven_14_wgs84",
"crs": { "type": "name", "properties": { "name": "urn:ogc:def:crs:OGC:1.3:CRS84" } },
"features": [
{ "type": "Feature", "properties": { "cat": 1 }, "geometry": { "type": "LineString", "coordinates": [ [ 7.851799357993904, 62.614543658592332 ], [ 7.852035760667136, 62.614375455892549 ], [ 7.853024002389251, 62.614335977898435 ], [ 7.853861946438536, 62.614108457635439 ], [ 7.854635314562929, 62.614148113758375 ], [ 7.856139332041706, 62.61359407610589 ], [ 7.856956845557046, 62.610209760997947 ], [ 7.851974923186326, 62.607339520312166 ], [ 7.851029966206794, 62.607200874233605 ], [ 7.850342895750348, 62.606804961584636 ], [ 7.848238217907571, 62.60660677960432 ], [ 7.84806646144429, 62.60650779847272 ], [ 7.846520147247946, 62.60642841484043 ], [ 7.846176649199497, 62.606230448336412 ], [ 7.845425042922034, 62.606101689486678 ], [ 7.839908244144088, 62.603023148405285 ], [ 7.837782351713455, 62.602913871066697 ], [ 7.836945426061516, 62.60232984568519 ], [ 7.836838422976556, 62.601963679906298 ], [ 7.837485259512552, 62.599291961348399 ], [ 7.837356699215109, 62.599014853352493 ], [ 7.835790085025786, 62.598212962302114 ], [ 7.83589789871245, 62.597767676994678 ], [ 7.835640821616673, 62.597213458547564 ], [ 7.835942684093962, 62.595966659578927 ], [ 7.833604315481618, 62.59431354325163 ], [ 7.834143421199429, 62.592087124809233 ], [ 7.834572924252536, 62.591928890165555 ], [ 7.834917880972072, 62.590503979230505 ], [ 7.836421025663483, 62.589950142254892 ], [ 7.836249402490221, 62.589851148382692 ], [ 7.836357170848885, 62.589405862091539 ], [ 7.834834189557396, 62.588425852900308 ], [ 7.834878146834185, 62.587436287454132 ], [ 7.834191738087094, 62.587040304242699 ], [ 7.834299524314489, 62.586595019782486 ], [ 7.833419990479356, 62.586189093912523 ] ] } }
]
}
