{
"type": "FeatureCollection",
"name": "skarven_12_wgs84",
"crs": { "type": "name", "properties": { "name": "urn:ogc:def:crs:OGC:1.3:CRS84" } },
"features": [
{ "type": "Feature", "properties": { "cat": 1 }, "geometry": { "type": "LineString", "coordinates": [ [ 7.851799357993904, 62.614543658592332 ], [ 7.852035760667136, 62.614375455892549 ], [ 7.853625556163485, 62.614276663598218 ], [ 7.854055288250176, 62.614118372065136 ], [ 7.854828656959781, 62.614158027124176 ], [ 7.856676321312957, 62.613801930890993 ], [ 7.857063003476324, 62.613821751661511 ], [ 7.857922414199651, 62.613505145368769 ], [ 7.858374110186598, 62.611634859598993 ], [ 7.858266815002032, 62.611268706324275 ], [ 7.857429252337133, 62.610684795265506 ], [ 7.857236202813215, 62.609863426518721 ], [ 7.852597856944233, 62.60719114840748 ], [ 7.850664902052122, 62.607091978142478 ], [ 7.850493134584317, 62.606992999849957 ], [ 7.848753494135608, 62.606903721822782 ], [ 7.848581734253225, 62.606804741279333 ], [ 7.846068950509218, 62.606675743139228 ], [ 7.845038471012187, 62.606081837954861 ], [ 7.844651899687952, 62.606061985359553 ], [ 7.8395432731922, 62.602914224472144 ], [ 7.837632213416352, 62.602725820478263 ], [ 7.837117121191391, 62.602428839677309 ], [ 7.837181809558635, 62.602161667892766 ], [ 7.836859986318751, 62.601874622698645 ], [ 7.835829856450585, 62.60128065423153 ], [ 7.835872987771888, 62.601102540187576 ], [ 7.835186260692665, 62.600706557550147 ], [ 7.835229394811822, 62.600528443743073 ], [ 7.834886039798432, 62.600330451378284 ], [ 7.835059436154824, 62.598806545224207 ], [ 7.834802367070091, 62.598252325342131 ], [ 7.835039585274796, 62.597272699618117 ], [ 7.834352955022181, 62.596876714191801 ], [ 7.834095913646471, 62.596322493381905 ], [ 7.8332376712942, 62.595827505880621 ], [ 7.832937520822671, 62.595451396468498 ], [ 7.83302379606254, 62.59509517032226 ], [ 7.832745224147073, 62.594630004083257 ], [ 7.832917770841189, 62.593917551921798 ], [ 7.832746137527192, 62.593818553599888 ], [ 7.832897111151614, 62.593195157903459 ], [ 7.833111874664098, 62.593116042830452 ], [ 7.833672552388864, 62.590800569685236 ], [ 7.835583649072417, 62.590177565496489 ], [ 7.835970006323153, 62.590197440310703 ], [ 7.836614203094061, 62.589960078619249 ], [ 7.836678861573291, 62.589692906650932 ], [ 7.836421830107371, 62.589138690252639 ], [ 7.834534087504341, 62.588049747577465 ], [ 7.834835034698648, 62.587614401458929 ], [ 7.833633825423385, 62.586921428331848 ], [ 7.833720060939425, 62.586565201204564 ], [ 7.833376871909902, 62.586367207379176 ], [ 7.833419990479356, 62.586189093912523 ] ] } }
]
}
